name,street,subarea,area,city,province,Address
Marhaba Bakers & Nimco,Allama Rasheed Turabi Road,Block N,North Nazimabad,Karachi,Sindh,Marhaba Bakers & Nimco Allama Rasheed Turabi Road Block N North Nazimabad Karachi Sindh
Madrassa Usman Bin Affan,Shahrah e Noor Jahan,Block A,North Nazimabad,Karachi,Sindh,Madrassa Usman Bin Affan Shahrah e Noor Jahan Block A North Nazimabad Karachi Sindh
Abdullah General Store,University Road,Sector 38 A,Gulzar e Hijri Scheme 33,Karachi,Sindh,Abdullah General Store University Road Sector 38 A Gulzar e Hijri Scheme 33 Karachi Sindh
Noor E Syed Medical Store,Dr Sohail Haider Street,Block 19,Federal B Area (Gulberg),Karachi,Sindh,Noor E Syed Medical Store Dr Sohail Haider Street Block 19 Federal B Area (Gulberg) Karachi Sindh
Bismillah Enterprises & Marketing,Muhammad Hassan Road,Block N,North Nazimabad,Karachi,Sindh,Bismillah Enterprises & Marketing Muhammad Hassan Road Block N North Nazimabad Karachi Sindh
City Glass,Faizan Street,Block E,North Nazimabad,Karachi,Sindh,City Glass Faizan Street Block E North Nazimabad Karachi Sindh
Jama Madina Masjid,Shahrah e Faisal Link Road,Habibaabad,Quaidabad,Karachi,Sindh,Jama Madina Masjid Shahrah e Faisal Link Road Habibaabad Quaidabad Karachi Sindh
Zerrigar Beauty Parlor,Shahrah e Shershah Suri,Block A,North Nazimabad,Karachi,Sindh,Zerrigar Beauty Parlor Shahrah e Shershah Suri Block A North Nazimabad Karachi Sindh
Al Saif Hardware Store,Shahrah e Muhammad Tufail,Block 13,Federal B Area (Gulberg),Karachi,Sindh,Al Saif Hardware Store Shahrah e Muhammad Tufail Block 13 Federal B Area (Gulberg) Karachi Sindh
Naeem Engineering Concerns,Shahrah E Zahid Hussain Road,Sector 15 B,Buffer Zone,Karachi,Sindh,Naeem Engineering Concerns Shahrah E Zahid Hussain Road Sector 15 B Buffer Zone Karachi Sindh
Quetta Al Hammas Hotel,Shahrah E Azeem Ahmad Khan,Block 13,Federal B Area (Gulberg),Karachi,Sindh,Quetta Al Hammas Hotel Shahrah E Azeem Ahmad Khan Block 13 Federal B Area (Gulberg) Karachi Sindh
Al Rehman Traders & General Store,Ancholi Main Road,Block 17,Federal B Area (Gulberg),Karachi,Sindh,Al Rehman Traders & General Store Ancholi Main Road Block 17 Federal B Area (Gulberg) Karachi Sindh
Mashallah Chicken Center,Khursheed Begum Road,Saudabad S1,Saudabad,Karachi,Sindh,Mashallah Chicken Center Khursheed Begum Road Saudabad S1 Saudabad Karachi Sindh
Saint Dominics High School,Malir City Road,Darakhshan CHS,Kala Board,Karachi,Sindh,Saint Dominics High School Malir City Road Darakhshan CHS Kala Board Karachi Sindh
Al Tayyab Drink Water,Muhammad Abdullah Naeemi Road,F South,Jafar e Tayyar,Karachi,Sindh,Al Tayyab Drink Water Muhammad Abdullah Naeemi Road F South Jafar e Tayyar Karachi Sindh
Bismillah General Store,Gulshan e Harooni Street,Saudabad S1,Saudabad,Karachi,Sindh,Bismillah General Store Gulshan e Harooni Street Saudabad S1 Saudabad Karachi Sindh
Shamim Plaza,Shahrah e Humayun,Block 3,Federal B Area (Gulberg),Karachi,Sindh,Shamim Plaza Shahrah e Humayun Block 3 Federal B Area (Gulberg) Karachi Sindh
Khurram Electronics,Ghaus Al Azam Road,Sector 15 A 1,Buffer Zone,Karachi,Sindh,Khurram Electronics Ghaus Al Azam Road Sector 15 A 1 Buffer Zone Karachi Sindh
Khubsurat General Store,Shahrah e Zahid,Sector 15 A 4,Buffer Zone,Karachi,Sindh,Khubsurat General Store Shahrah e Zahid Sector 15 A 4 Buffer Zone Karachi Sindh
Al Mansoor Autos,Muhammad Hassan Road,Block N,North Nazimabad,Karachi,Sindh,Al Mansoor Autos Muhammad Hassan Road Block N North Nazimabad Karachi Sindh
Ghulam e Rasool General Store,Maarif Street,Block H,North Nazimabad,Karachi,Sindh,Ghulam e Rasool General Store Maarif Street Block H North Nazimabad Karachi Sindh
Sheikh Chilli Restaurant,Tariq Bin Ziyad Road,Block G,North Nazimabad,Karachi,Sindh,Sheikh Chilli Restaurant Tariq Bin Ziyad Road Block G North Nazimabad Karachi Sindh
Barkat General Store,Qari Zaheer Qasmi Road,Block G,North Nazimabad,Karachi,Sindh,Barkat General Store Qari Zaheer Qasmi Road Block G North Nazimabad Karachi Sindh
Exide Battery Center,Zafar Iqbal Shaheed Road,Block 9,Federal B Area (Gulberg),Karachi,Sindh,Exide Battery Center Zafar Iqbal Shaheed Road Block 9 Federal B Area (Gulberg) Karachi Sindh
Noorani Rice,49th Street,Block 3,Federal B Area (Gulberg),Karachi,Sindh,Noorani Rice 49th Street Block 3 Federal B Area (Gulberg) Karachi Sindh
Al Hamd Collegiate Coaching,Landhi Road,Sector 33 A,Korangi,Karachi,Sindh,Al Hamd Collegiate Coaching Landhi Road Sector 33 A Korangi Karachi Sindh
Agawam Autos & Spare Parts,Korangi Road,Bhittai Colony,Korangi Creek,Karachi,Sindh,Agawam Autos & Spare Parts Korangi Road Bhittai Colony Korangi Creek Karachi Sindh
Asif Autos,Nasir Jump Road,Sector 32 D,Korangi,Karachi,Sindh,Asif Autos Nasir Jump Road Sector 32 D Korangi Karachi Sindh
Ali Autos Exchange Bike Installment,Qabristan Road,Hasrat Mohani Colony,Korangi,Karachi,Sindh,Ali Autos Exchange Bike Installment Qabristan Road Hasrat Mohani Colony Korangi Karachi Sindh
Shabbir Estate Agency,Qabristan Road,Sector 43 A,Korangi,Karachi,Sindh,Shabbir Estate Agency Qabristan Road Sector 43 A Korangi Karachi Sindh
Ghausia Photostat,Baqai Medical University Road,Nazimabad No 2,Nazimabad,Karachi,Sindh,Ghausia Photostat Baqai Medical University Road Nazimabad No 2 Nazimabad Karachi Sindh
Sabri Tailors,Tabish Dehalvi Road,Nazimabad No 5,Nazimabad,Karachi,Sindh,Sabri Tailors Tabish Dehalvi Road Nazimabad No 5 Nazimabad Karachi Sindh
Rent A Car,Jauhar Road,Block 20,Gulistan e Jauhar,Karachi,Sindh,Rent A Car Jauhar Road Block 20 Gulistan e Jauhar Karachi Sindh
Southampton Boys & Girls School,B Street,Block 4,Clifton,Karachi,Sindh,Southampton Boys & Girls School B Street Block 4 Clifton Karachi Sindh
Al Shifa Clinic,Abbasia Masjid Road,Colony 4,Shah Faisal Town,Karachi,Sindh,Al Shifa Clinic Abbasia Masjid Road Colony 4 Shah Faisal Town Karachi Sindh
Qadri General Store,Sindh Hotel Road,Sector 5 J,New Karachi,Karachi,Sindh,Qadri General Store Sindh Hotel Road Sector 5 J New Karachi Karachi Sindh
Date Palm Educ. System School,Dr Adeeb Rizvi Road,Block A,North Nazimabad,Karachi,Sindh,Date Palm Educ. System School Dr Adeeb Rizvi Road Block A North Nazimabad Karachi Sindh
Kamran Public School,Shahrah e Humayun,Block 4,Federal B Area (Gulberg),Karachi,Sindh,Kamran Public School Shahrah e Humayun Block 4 Federal B Area (Gulberg) Karachi Sindh
Invest & Finance Securities,Olympian Iftikhar Syed Road,Block 6,Gulshan e Iqbal,Karachi,Sindh,Invest & Finance Securities Olympian Iftikhar Syed Road Block 6 Gulshan e Iqbal Karachi Sindh
Qadeer Pakwan Center & Bar B Q,Naseer Hussain Road,Sector 5 A 1,New Karachi,Karachi,Sindh,Qadeer Pakwan Center & Bar B Q Naseer Hussain Road Sector 5 A 1 New Karachi Karachi Sindh
Younus Terrace,Anum Uzair Shaheed Road,Block 13 B,Gulshan e Iqbal,Karachi,Sindh,Younus Terrace Anum Uzair Shaheed Road Block 13 B Gulshan e Iqbal Karachi Sindh
Oracle Ora Tech,Shahrah e Faisal,Block A,Sindhi Muslim CHS (SMCHS),Karachi,Sindh,Oracle Ora Tech Shahrah e Faisal Block A Sindhi Muslim CHS (SMCHS) Karachi Sindh
Masjid Fahim,Abdullah Ahmed Road,Block 13 D 2,Gulshan e Iqbal,Karachi,Sindh,Masjid Fahim Abdullah Ahmed Road Block 13 D 2 Gulshan e Iqbal Karachi Sindh
Amina Manzil,41st Street,Block 3,Federal B Area (Gulberg),Karachi,Sindh,Amina Manzil 41st Street Block 3 Federal B Area (Gulberg) Karachi Sindh
Masjid Wasti,Qadri Ahmed Siddiqui Road,Nazimabad No 4,Nazimabad,Karachi,Sindh,Masjid Wasti Qadri Ahmed Siddiqui Road Nazimabad No 4 Nazimabad Karachi Sindh
Aleena Shoes,Sir Syed Ahmed Road,Block G,North Nazimabad,Karachi,Sindh,Aleena Shoes Sir Syed Ahmed Road Block G North Nazimabad Karachi Sindh
Eye Master,Khayaban e Iqbal,Block 8,Clifton,Karachi,Sindh,Eye Master Khayaban e Iqbal Block 8 Clifton Karachi Sindh
CPLC NC Office,Mian Muhammad Rafi Road,Block B Shabbirabad Society,Shabbirabad,Karachi,Sindh,CPLC NC Office Mian Muhammad Rafi Road Block B Shabbirabad Society Shabbirabad Karachi Sindh
Dawlance Outlet,Sardar Yaseen Malik Road,Block E,North Nazimabad,Karachi,Sindh,Dawlance Outlet Sardar Yaseen Malik Road Block E North Nazimabad Karachi Sindh
ATM UBL,Syed M Burhan Uddin Road,Block E,North Nazimabad,Karachi,Sindh,ATM UBL Syed M Burhan Uddin Road Block E North Nazimabad Karachi Sindh
SS Oil Shop,Main Korangi Industrial Road,Sector 21,Landhi,Karachi,Sindh,SS Oil Shop Main Korangi Industrial Road Sector 21 Landhi Karachi Sindh
Xpress Money,Main Korangi Industrial Road,Sector 23,Korangi Industrial Area,Karachi,Sindh,Xpress Money Main Korangi Industrial Road Sector 23 Korangi Industrial Area Karachi Sindh
Refreshment Bar,Muslim Commercial Street No 2,Phase 6,DHA,Karachi,Sindh,Refreshment Bar Muslim Commercial Street No 2 Phase 6 DHA Karachi Sindh
Aman Kitchen War,Jauhar Chowrangi Road,Block 17,Gulistan e Jauhar,Karachi,Sindh,Aman Kitchen War Jauhar Chowrangi Road Block 17 Gulistan e Jauhar Karachi Sindh
S Shahab Burger Juice & Ice Cream,Nipa Interchange,Block 6,Gulshan e Iqbal,Karachi,Sindh,S Shahab Burger Juice & Ice Cream Nipa Interchange Block 6 Gulshan e Iqbal Karachi Sindh
Kichmich BBQ & Fast Food,Jauhar Road,Block 17,Gulistan e Jauhar,Karachi,Sindh,Kichmich BBQ & Fast Food Jauhar Road Block 17 Gulistan e Jauhar Karachi Sindh
Asian Agencies,Jauhar Road,Block 15,Gulistan e Jauhar,Karachi,Sindh,Asian Agencies Jauhar Road Block 15 Gulistan e Jauhar Karachi Sindh
Hajveri Gem,Sunar Gali,Block 2,PECHS,Karachi,Sindh,Hajveri Gem Sunar Gali Block 2 PECHS Karachi Sindh
Zaibi Ladies Dress,Tariq Road,Block 2,PECHS,Karachi,Sindh,Zaibi Ladies Dress Tariq Road Block 2 PECHS Karachi Sindh
Shahnawaz Autos,Sunar Gali,Block 2,PECHS,Karachi,Sindh,Shahnawaz Autos Sunar Gali Block 2 PECHS Karachi Sindh
Murshid & Sons Autos,Khushal Road,Block 2,PECHS,Karachi,Sindh,Murshid & Sons Autos Khushal Road Block 2 PECHS Karachi Sindh
Fakhri Traders,Badar Commercial Street No 7,Phase 5,DHA,Karachi,Sindh,Fakhri Traders Badar Commercial Street No 7 Phase 5 DHA Karachi Sindh
Tohfa E Shireen,Allama Shabbir Ahmed Usmani Road,Block 4,Gulshan e Iqbal,Karachi,Sindh,Tohfa E Shireen Allama Shabbir Ahmed Usmani Road Block 4 Gulshan e Iqbal Karachi Sindh
Bismillah Dairy Farm,Naqash Kazmi Road,Block 4,Gulshan e Iqbal,Karachi,Sindh,Bismillah Dairy Farm Naqash Kazmi Road Block 4 Gulshan e Iqbal Karachi Sindh
Samsung Single Electronics,Shahjahan Avenue,Sector 15 A 1,Buffer Zone,Karachi,Sindh,Samsung Single Electronics Shahjahan Avenue Sector 15 A 1 Buffer Zone Karachi Sindh
Di Autos,Olympian Islahuddin Road,Block 7,Gulshan e Iqbal,Karachi,Sindh,Di Autos Olympian Islahuddin Road Block 7 Gulshan e Iqbal Karachi Sindh
Malik Fahad Hair Salon,Muhammad Hussain Khan Road,Block 6,Gulshan e Iqbal,Karachi,Sindh,Malik Fahad Hair Salon Muhammad Hussain Khan Road Block 6 Gulshan e Iqbal Karachi Sindh
3 Star Rice General & Medical Store,Shahrah E Al Quds,Block 2,Gulshan e Iqbal,Karachi,Sindh,3 Star Rice General & Medical Store Shahrah E Al Quds Block 2 Gulshan e Iqbal Karachi Sindh
Ajmeri Catering & Event Planer,Old Jamia Millia Road,Bagh e Ibrahim Society,Shah Faisal Town,Karachi,Sindh,Ajmeri Catering & Event Planer Old Jamia Millia Road Bagh e Ibrahim Society Shah Faisal Town Karachi Sindh
Al Habib Marbles Shop,Shahrah e Usman,Sector 5 B 2,New Karachi,Karachi,Sindh,Al Habib Marbles Shop Shahrah e Usman Sector 5 B 2 New Karachi Karachi Sindh
Al Hamd Light & Echo Sound,Shahrah e Maulana Muhammad Ali Jauhar,Sector 5 L,New Karachi,Karachi,Sindh,Al Hamd Light & Echo Sound Shahrah e Maulana Muhammad Ali Jauhar Sector 5 L New Karachi Karachi Sindh
Al Hamra Autos,Street Number 4,Sector 11 E,Muhammad Nagar,Karachi,Sindh,Al Hamra Autos Street Number 4 Sector 11 E Muhammad Nagar Karachi Sindh
Al Madina Oil & Tyre Puncture Shop,Allah Wala Town Road,Allahwala Town,Korangi,Karachi,Sindh,Al Madina Oil & Tyre Puncture Shop Allah Wala Town Road Allahwala Town Korangi Karachi Sindh
Al Makkah Jump Maker,Landhi Road,Chakra Goth,Korangi,Karachi,Sindh,Al Makkah Jump Maker Landhi Road Chakra Goth Korangi Karachi Sindh
Al Rehman Autos,Pehlwan Goth Road,Block 9,Gulistan e Jauhar,Karachi,Sindh,Al Rehman Autos Pehlwan Goth Road Block 9 Gulistan e Jauhar Karachi Sindh
Al Yasir General Store,Kalyana Town Road,Sector 10,North Karachi,Karachi,Sindh,Al Yasir General Store Kalyana Town Road Sector 10 North Karachi Karachi Sindh
Aslam Autos,Bearing Street,C Area,Liaquatabad,Karachi,Sindh,Aslam Autos Bearing Street C Area Liaquatabad Karachi Sindh
ATM Bank Alfalah,University Road,Block 13 B,Gulshan e Iqbal,Karachi,Sindh,ATM Bank Alfalah University Road Block 13 B Gulshan e Iqbal Karachi Sindh
Azhar Autos,Hakeem Ibn e Sina Road,Nazimabad No 3,Nazimabad,Karachi,Sindh,Azhar Autos Hakeem Ibn e Sina Road Nazimabad No 3 Nazimabad Karachi Sindh
Bismillah Autos,Shahrah e Orangi,Raees Amrohi Colony,Chishti Nagar,Karachi,Sindh,Bismillah Autos Shahrah e Orangi Raees Amrohi Colony Chishti Nagar Karachi Sindh
Bismillah Lace & Zari House,Golden Town Road,Golden Town,Shah Faisal Town,Karachi,Sindh,Bismillah Lace & Zari House Golden Town Road Golden Town Shah Faisal Town Karachi Sindh
Bismillah General Store,Service Road,Sector 11 B,North Karachi,Karachi,Sindh,Bismillah General Store Service Road Sector 11 B North Karachi Karachi Sindh
Bismillah Photo Copy,Jamia Millia Road,Gulshan e Rafi,Shah Faisal Town,Karachi,Sindh,Bismillah Photo Copy Jamia Millia Road Gulshan e Rafi Shah Faisal Town Karachi Sindh
Brights Pink Rose Beauty Parlour,Anda Mor Road,Sector 14 B,Shadman Town,Karachi,Sindh,Brights Pink Rose Beauty Parlour Anda Mor Road Sector 14 B Shadman Town Karachi Sindh
Chand Medical Store,Norani Eidgah Road,Sector 11 G,North Karachi,Karachi,Sindh,Chand Medical Store Norani Eidgah Road Sector 11 G North Karachi Karachi Sindh
Classic Cosmetics & Garments Shop,Norani Eidgah Road,Sector 11 G,North Karachi,Karachi,Sindh,Classic Cosmetics & Garments Shop Norani Eidgah Road Sector 11 G North Karachi Karachi Sindh
Crispy Hut,Olympian Iftikhar Syed Road,Block 3,Gulshan e Iqbal,Karachi,Sindh,Crispy Hut Olympian Iftikhar Syed Road Block 3 Gulshan e Iqbal Karachi Sindh
Dastagir Woodworks,Syed Altaf Ali Brelvi Road,Block 5,Liaquatabad,Karachi,Sindh,Dastagir Woodworks Syed Altaf Ali Brelvi Road Block 5 Liaquatabad Karachi Sindh
Dehli Saeed Hotel,Naqash Kazmi Road,Block 3,Gulshan e Iqbal,Karachi,Sindh,Dehli Saeed Hotel Naqash Kazmi Road Block 3 Gulshan e Iqbal Karachi Sindh
Dulal & Rose Pakwan & Bar BQ Center,Quba Masjid Road,Rafah e Aam Society,Shah Faisal Town,Karachi,Sindh,Dulal & Rose Pakwan & Bar BQ Center Quba Masjid Road Rafah e Aam Society Shah Faisal Town Karachi Sindh
Food Mela Hotel,Cantt Bazar Road,Drigh Colony,Shah Faisal Town,Karachi,Sindh,Food Mela Hotel Cantt Bazar Road Drigh Colony Shah Faisal Town Karachi Sindh
Farhan Autos,Bearing Street,C Area,Liaquatabad,Karachi,Sindh,Farhan Autos Bearing Street C Area Liaquatabad Karachi Sindh
Family Medical Store,48th Street,C Area,Liaquatabad,Karachi,Sindh,Family Medical Store 48th Street C Area Liaquatabad Karachi Sindh
Haji Iqbal Concrete Block Work,UDMC Road,Sector 31 D,Korangi,Karachi,Sindh,Haji Iqbal Concrete Block Work UDMC Road Sector 31 D Korangi Karachi Sindh
Haris Steel Shop,Manghopir Road,Sector 5 A 2,New Karachi,Karachi,Sindh,Haris Steel Shop Manghopir Road Sector 5 A 2 New Karachi Karachi Sindh
Haji Shahabuddin Scissor Works,Bahadur Ali Road,Sector 5 E,New Karachi,Karachi,Sindh,Haji Shahabuddin Scissor Works Bahadur Ali Road Sector 5 E New Karachi Karachi Sindh
Hussaini Auto Parts,Sehba Akhtar Road,Block 13 D 3,Gulshan e Iqbal,Karachi,Sindh,Hussaini Auto Parts Sehba Akhtar Road Block 13 D 3 Gulshan e Iqbal Karachi Sindh
Iqbal General Store,Naseer Hussain Road,Sector 5 A 4,New Karachi,Karachi,Sindh,Iqbal General Store Naseer Hussain Road Sector 5 A 4 New Karachi Karachi Sindh
Irshad Engineering Works,Maulana Zafar Ahmad Ansari Road,Sector 11 F,North Karachi,Karachi,Sindh,Irshad Engineering Works Maulana Zafar Ahmad Ansari Road Sector 11 F North Karachi Karachi Sindh
Jahanzaib Dental & Medical Store,Khalil Ahmed Sabri Road,Shah Faisal Colony 3,Shah Faisal Town,Karachi,Sindh,Jahanzaib Dental & Medical Store Khalil Ahmed Sabri Road Shah Faisal Colony 3 Shah Faisal Town Karachi Sindh
Khalid Mughal Sofa Makers,Pehlwan Goth Road,Block 9 A,Bhittaiabad,Karachi,Sindh,Khalid Mughal Sofa Makers Pehlwan Goth Road Block 9 A Bhittaiabad Karachi Sindh
Urooj KK Autos,Railway Phatak Road,Drigh Colony,Shah Faisal Town,Karachi,Sindh,Urooj KK Autos Railway Phatak Road Drigh Colony Shah Faisal Town Karachi Sindh
Madni Marketing Builders & Developers,City Bakery Street,Block 17,Gulistan e Jauhar,Karachi,Sindh,Madni Marketing Builders & Developers City Bakery Street Block 17 Gulistan e Jauhar Karachi Sindh
Maham's Beauty Parlour Training Center,University Road,Block 13 A,Gulshan e Iqbal,Karachi,Sindh,Maham's Beauty Parlour Training Center University Road Block 13 A Gulshan e Iqbal Karachi Sindh
Mahtab Estate Agency,Rafah e Aam Pk Road,Al Falah Society,Shah Faisal Town,Karachi,Sindh,Mahtab Estate Agency Rafah e Aam Pk Road Al Falah Society Shah Faisal Town Karachi Sindh
Mama Autos,Korangi No.2.5 Road,Sector 48 F,Korangi,Karachi,Sindh,Mama Autos Korangi No.2.5 Road Sector 48 F Korangi Karachi Sindh
Mashallah Autos & Electrician,Naseer ul Haq Road,Sector 11 E,North Karachi,Karachi,Sindh,Mashallah Autos & Electrician Naseer ul Haq Road Sector 11 E North Karachi Karachi Sindh
Modern Hair Style Salon,Hakeem Ibn e Sina Road,Nazimabad No 3,Nazimabad,Karachi,Sindh,Modern Hair Style Salon Hakeem Ibn e Sina Road Nazimabad No 3 Nazimabad Karachi Sindh
Meo Brothers Milk Shop,Jauhar Road,Block 18,Gulistan e Jauhar,Karachi,Sindh,Meo Brothers Milk Shop Jauhar Road Block 18 Gulistan e Jauhar Karachi Sindh
Muhammadi Electronics,Shah Faisal-Korangi Link,Azeempura,Shah Faisal Town,Karachi,Sindh,Muhammadi Electronics Shah Faisal-Korangi Link Azeempura Shah Faisal Town Karachi Sindh
New Al Habib General Store,Aligarh Road,Sector 7 A,Orangi,Karachi,Sindh,New Al Habib General Store Aligarh Road Sector 7 A Orangi Karachi Sindh
New Ali Jan Autos Electrician,Shahrah e Maulana Shaukat Ali,Sector 5 D,New Karachi,Karachi,Sindh,New Ali Jan Autos Electrician Shahrah e Maulana Shaukat Ali Sector 5 D New Karachi Karachi Sindh
New Bismillah Electronics,Abbasia Masjid Road,Colony 4,Shah Faisal Town,Karachi,Sindh,New Bismillah Electronics Abbasia Masjid Road Colony 4 Shah Faisal Town Karachi Sindh
New Al Noor Jewellers,SM Taufiq Road,Block 6,Liaquatabad,Karachi,Sindh,New Al Noor Jewellers SM Taufiq Road Block 6 Liaquatabad Karachi Sindh
New Quetta Jeddah Hotel,Pehlwan Goth Road,Block 12,Gulistan e Jauhar,Karachi,Sindh,New Quetta Jeddah Hotel Pehlwan Goth Road Block 12 Gulistan e Jauhar Karachi Sindh
Noorani Gul Bahar Haleem House,Street Number 4,Sector 10,Hanifabad,Karachi,Sindh,Noorani Gul Bahar Haleem House Street Number 4 Sector 10 Hanifabad Karachi Sindh
Red Rose Comm,D1 Road,Khokhrapar 2,Khokhrapar,Karachi,Sindh,Red Rose Comm D1 Road Khokhrapar 2 Khokhrapar Karachi Sindh
S Akhlaq General Store,39th Street,Block 6,Liaquatabad,Karachi,Sindh,S Akhlaq General Store 39th Street Block 6 Liaquatabad Karachi Sindh
Sajid Autos,Al-Amna Avenue,Sector 3,New Karachi,Karachi,Sindh,Sajid Autos Al-Amna Avenue Sector 3 New Karachi Karachi Sindh
Sattar Awan Ironworks,Kiran Hospital Road,Sector 34 A,Gulzar e Hijri Scheme 33,Karachi,Sindh,Sattar Awan Ironworks Kiran Hospital Road Sector 34 A Gulzar e Hijri Scheme 33 Karachi Sindh
Scorporationions Pharmacy & General Store,Al-Amna Avenue,Sector 11 B,North Karachi,Karachi,Sindh,Scorporationions Pharmacy & General Store Al-Amna Avenue Sector 11 B North Karachi Karachi Sindh
Shadi Mubarak Photo Studio,Muhammadi Road,Sector 34/2,Korangi,Karachi,Sindh,Shadi Mubarak Photo Studio Muhammadi Road Sector 34/2 Korangi Karachi Sindh
Shah Estate Agency,Street 9,Sector 5 L,New Karachi,Karachi,Sindh,Shah Estate Agency Street 9 Sector 5 L New Karachi Karachi Sindh
Shah Jee Tailors,Green Town Pather Road,Green Town,Shah Faisal Town,Karachi,Sindh,Shah Jee Tailors Green Town Pather Road Green Town Shah Faisal Town Karachi Sindh
Sundar Photo & Colour Lab,Rafah e Aam Pk Road,Rafah e Aam Society,Shah Faisal Town,Karachi,Sindh,Sundar Photo & Colour Lab Rafah e Aam Pk Road Rafah e Aam Society Shah Faisal Town Karachi Sindh
Tabish General Store,New Iqbalabad Drigh Road,Drigh Colony,Shah Faisal Town,Karachi,Sindh,Tabish General Store New Iqbalabad Drigh Road Drigh Colony Shah Faisal Town Karachi Sindh
Tanveer Autos,Syed Altaf Ali Brelvi Road,C Area,Liaquatabad,Karachi,Sindh,Tanveer Autos Syed Altaf Ali Brelvi Road C Area Liaquatabad Karachi Sindh
Tawakkal Chicken Center,Shahrah e Maulana Shaukat Ali,Sector 11 F,North Karachi,Karachi,Sindh,Tawakkal Chicken Center Shahrah e Maulana Shaukat Ali Sector 11 F North Karachi Karachi Sindh
Tyre Puncture Shop,Shadman No 2 Road,Sector 14 B,Shadman Town,Karachi,Sindh,Tyre Puncture Shop Shadman No 2 Road Sector 14 B Shadman Town Karachi Sindh
Wasim Glassworks,"Rafah e Aam Society Road
",Shamsi Society,Shah Faisal Town,Karachi,Sindh,"Wasim Glassworks Rafah e Aam Society Road
 Shamsi Society Shah Faisal Town Karachi Sindh"
White Rose Dry Cleaners,Anum Uzair Shaheed Road,Block 13 B,Gulshan e Iqbal,Karachi,Sindh,White Rose Dry Cleaners Anum Uzair Shaheed Road Block 13 B Gulshan e Iqbal Karachi Sindh
Younus Kaj Button & Overlock Center,Qatar Hospital Road,Sector 8,Orangi,Karachi,Sindh,Younus Kaj Button & Overlock Center Qatar Hospital Road Sector 8 Orangi Karachi Sindh
AS Comm,Sadiq Hussain Avenue,Sector X,Gulshan e Maymar,Karachi,Sindh,AS Comm Sadiq Hussain Avenue Sector X Gulshan e Maymar Karachi Sindh
Abdul Ghafoor & Abdul Jabbar Sweets,Landhi Road,Sector 36 E,Landhi,Karachi,Sindh,Abdul Ghafoor & Abdul Jabbar Sweets Landhi Road Sector 36 E Landhi Karachi Sindh
Akbar Hairdresser,Metrovil Road,Sector 3,Sindh Industrial Trading Estate (SITE),Karachi,Sindh,Akbar Hairdresser Metrovil Road Sector 3 Sindh Industrial Trading Estate (SITE) Karachi Sindh
Al Hassan Digital Colour Lab & Studio,Metrovil Road,Sector 8 B,Sindh Industrial Trading Estate (SITE),Karachi,Sindh,Al Hassan Digital Colour Lab & Studio Metrovil Road Sector 8 B Sindh Industrial Trading Estate (SITE) Karachi Sindh
Al Sadaat Hardware & Plastic Store,Mehmoodabad Road,Block 8,KAECHS,Karachi,Sindh,Al Sadaat Hardware & Plastic Store Mehmoodabad Road Block 8 KAECHS Karachi Sindh
B & B Computers Service,Saeedabad Road,Sector 9 C,Baldia,Karachi,Sindh,B & B Computers Service Saeedabad Road Sector 9 C Baldia Karachi Sindh
Bismillah Electrician,Sami Dehalvi Shaheed Road,Sector 5 E,New Karachi,Karachi,Sindh,Bismillah Electrician Sami Dehalvi Shaheed Road Sector 5 E New Karachi Karachi Sindh
Homeo Clinic,Masjid Aqsa Road,Block 15,Federal B Area (Gulberg),Karachi,Sindh,Homeo Clinic Masjid Aqsa Road Block 15 Federal B Area (Gulberg) Karachi Sindh
Bismillah Pakwan & Liaquat Bawarchi,Talha Awan Road,Sector 5 J,Sector 5,Karachi,Sindh,Bismillah Pakwan & Liaquat Bawarchi Talha Awan Road Sector 5 J Sector 5 Karachi Sindh
Cafe Rasheed,Landhi Industrial Area Road,Firdous Chali Landhi Town,Landhi,Karachi,Sindh,Cafe Rasheed Landhi Industrial Area Road Firdous Chali Landhi Town Landhi Karachi Sindh
Cool Cape Refrigerator Services,Qamar Ali Abbasi Road,Block 14,Gulshan e Iqbal,Karachi,Sindh,Cool Cape Refrigerator Services Qamar Ali Abbasi Road Block 14 Gulshan e Iqbal Karachi Sindh
Data Chicken Biryani,Landhi Road,Sector 37 C,Landhi,Karachi,Sindh,Data Chicken Biryani Landhi Road Sector 37 C Landhi Karachi Sindh
Farid General Store,Kachi Abadi Street,Tekri Colony,Bath Island,Karachi,Sindh,Farid General Store Kachi Abadi Street Tekri Colony Bath Island Karachi Sindh
H&H Fashion Tailors,Muhammad Ali Road,Sector Z,Gulshan e Maymar,Karachi,Sindh,H&H Fashion Tailors Muhammad Ali Road Sector Z Gulshan e Maymar Karachi Sindh
Hi Tech Photo Studio,Landhi Road,Sector 36 E,Landhi,Karachi,Sindh,Hi Tech Photo Studio Landhi Road Sector 36 E Landhi Karachi Sindh
Ika Estate Agency,Khawaja Shamsuddin Azeemi Road,Sector 4 A,Surjani Town,Karachi,Sindh,Ika Estate Agency Khawaja Shamsuddin Azeemi Road Sector 4 A Surjani Town Karachi Sindh
Masjid Ameer e Hamza,Landhi Road,Moinabad 1&2,Landhi Industrial Area,Karachi,Sindh,Masjid Ameer e Hamza Landhi Road Moinabad 1&2 Landhi Industrial Area Karachi Sindh
Jinnah Estate Agency,Dabeer Road,Sector Z,Gulshan e Maymar,Karachi,Sindh,Jinnah Estate Agency Dabeer Road Sector Z Gulshan e Maymar Karachi Sindh
Kamran Auto Parts,Shahrah E Zahid Hussain Road,Sector 15 B,Buffer Zone,Karachi,Sindh,Kamran Auto Parts Shahrah E Zahid Hussain Road Sector 15 B Buffer Zone Karachi Sindh
Khan Oil,National Highway,Jamal e Ibrahim Housing Society,Quaidabad,Karachi,Sindh,Khan Oil National Highway Jamal e Ibrahim Housing Society Quaidabad Karachi Sindh
M Yaqoob Pakwan Center,Sharifabad Market Road,Block 1,Federal B Area (Gulberg),Karachi,Sindh,M Yaqoob Pakwan Center Sharifabad Market Road Block 1 Federal B Area (Gulberg) Karachi Sindh
Mohsin Tailor,Bahria Street,Sector 4,Naval Colony,Karachi,Sindh,Mohsin Tailor Bahria Street Sector 4 Naval Colony Karachi Sindh
Mehran Foods & Ice Cream Center,Shahrah e Quaid e Azam,Sector Z,Gulshan e Maymar,Karachi,Sindh,Mehran Foods & Ice Cream Center Shahrah e Quaid e Azam Sector Z Gulshan e Maymar Karachi Sindh
Mehmood Electrician,Hub River Road,Lassi Para,Mohajir Camp,Karachi,Sindh,Mehmood Electrician Hub River Road Lassi Para Mohajir Camp Karachi Sindh
Mir Afzal Khan Engineering Works,Landhi Road,Bhutto Nagar,Landhi,Karachi,Sindh,Mir Afzal Khan Engineering Works Landhi Road Bhutto Nagar Landhi Karachi Sindh
Nadeem Autos,Quba Avenue,Sector 11 C 3,North Karachi,Karachi,Sindh,Nadeem Autos Quba Avenue Sector 11 C 3 North Karachi Karachi Sindh
Noorani Noor Peshawari Ice Cream,Shahrah E Ejaz Ul Haq Quddusi Road,Sector 11 E,North Karachi,Karachi,Sindh,Noorani Noor Peshawari Ice Cream Shahrah E Ejaz Ul Haq Quddusi Road Sector 11 E North Karachi Karachi Sindh
Qayyum Allah BBQ Restaurant,Faqir Colony Road,Block A,Baldia,Karachi,Sindh,Qayyum Allah BBQ Restaurant Faqir Colony Road Block A Baldia Karachi Sindh
Qalandri Pakwan House,Bahria Road,Sector 1,Naval Colony,Karachi,Sindh,Qalandri Pakwan House Bahria Road Sector 1 Naval Colony Karachi Sindh
Rafiq Aluminium Service,Landhi Road,Sector 37 B,Landhi,Karachi,Sindh,Rafiq Aluminium Service Landhi Road Sector 37 B Landhi Karachi Sindh
Shah Ee Footwear,Shahrah e Maulana Shaukat Ali,Sector 5 F,New Karachi,Karachi,Sindh,Shah Ee Footwear Shahrah e Maulana Shaukat Ali Sector 5 F New Karachi Karachi Sindh
Shakeel Brothers Book Sellers,Nishtar Avenue,Sector Z,Gulshan e Maymar,Karachi,Sindh,Shakeel Brothers Book Sellers Nishtar Avenue Sector Z Gulshan e Maymar Karachi Sindh
Shamshi Steelworks,Street No 19,Sector C,Manzoor Colony,Karachi,Sindh,Shamshi Steelworks Street No 19 Sector C Manzoor Colony Karachi Sindh
Sony Electronics,Sherpao Road,Labor Colony (Landhi),Landhi,Karachi,Sindh,Sony Electronics Sherpao Road Labor Colony (Landhi) Landhi Karachi Sindh
Super Shanghai Dry Cleaner,Street No 16,Sector 4 B,Surjani Town,Karachi,Sindh,Super Shanghai Dry Cleaner Street No 16 Sector 4 B Surjani Town Karachi Sindh
Younus Machinery Store,Sindh Hotel Road,Sector 5 J,New Karachi,Karachi,Sindh,Younus Machinery Store Sindh Hotel Road Sector 5 J New Karachi Karachi Sindh
Rehmani Jari Boti Store,36-B Double Road,Sector 36 G,Landhi,Karachi,Sindh,Rehmani Jari Boti Store 36-B Double Road Sector 36 G Landhi Karachi Sindh
Afridi Auto Parts,Jangal Shah Road,Goth Shaikhan,Bhutta,Karachi,Sindh,Afridi Auto Parts Jangal Shah Road Goth Shaikhan Bhutta Karachi Sindh
Faraz Tailors,Bismillah Masjid Road,Sector 37 A,Landhi,Karachi,Sindh,Faraz Tailors Bismillah Masjid Road Sector 37 A Landhi Karachi Sindh
Hameeduallah Electric Store,Ittehad Town Naval Colony Road,Gulshan e Mazdoor Extension,Naval Colony,Karachi,Sindh,Hameeduallah Electric Store Ittehad Town Naval Colony Road Gulshan e Mazdoor Extension Naval Colony Karachi Sindh
Huzaifa Bakers,Imran Khan Road,Sector 4,Sindh Industrial Trading Estate (SITE),Karachi,Sindh,Huzaifa Bakers Imran Khan Road Sector 4 Sindh Industrial Trading Estate (SITE) Karachi Sindh
Javed Bakers,Noor Allah Masjid Road,Block 1,Gulshan e Sikandarabad,Karachi,Sindh,Javed Bakers Noor Allah Masjid Road Block 1 Gulshan e Sikandarabad Karachi Sindh
Madina General Store,Bismillah Masjid Road,Sector 37 A,Landhi,Karachi,Sindh,Madina General Store Bismillah Masjid Road Sector 37 A Landhi Karachi Sindh
Nadeem Sanitary & Hardware Store,27th Commercial Street,Phase 5,DHA,Karachi,Sindh,Nadeem Sanitary & Hardware Store 27th Commercial Street Phase 5 DHA Karachi Sindh
Sardar M Riaz Khan Law Associates,24th B Commercial Street,Phase 5,DHA,Karachi,Sindh,Sardar M Riaz Khan Law Associates 24th B Commercial Street Phase 5 DHA Karachi Sindh
Sawar Khan General Store,B Area Main Road,B Area,Qayyumabad,Karachi,Sindh,Sawar Khan General Store B Area Main Road B Area Qayyumabad Karachi Sindh
Shahid Autos,Arfat Road,Block 1,Gulshan e Sikandarabad,Karachi,Sindh,Shahid Autos Arfat Road Block 1 Gulshan e Sikandarabad Karachi Sindh
Shehzad General Store,Mohibban Road,Sector 3,Sindh Industrial Trading Estate (SITE),Karachi,Sindh,Shehzad General Store Mohibban Road Sector 3 Sindh Industrial Trading Estate (SITE) Karachi Sindh
Student Photostat,Farooq-e-Azam Street,Sector 4,Sindh Industrial Trading Estate (SITE),Karachi,Sindh,Student Photostat Farooq-e-Azam Street Sector 4 Sindh Industrial Trading Estate (SITE) Karachi Sindh
Super Paint,Chanesar Road,Hazara Colony,Karachi Cantonment,Karachi,Sindh,Super Paint Chanesar Road Hazara Colony Karachi Cantonment Karachi Sindh
1st Step,Shahrah e Firdousi,Block 5,Clifton,Karachi,Sindh,1st Step Shahrah e Firdousi Block 5 Clifton Karachi Sindh
Adeebas Dress Inn,Chartered Accountant Avenue,Block 8,Clifton,Karachi,Sindh,Adeebas Dress Inn Chartered Accountant Avenue Block 8 Clifton Karachi Sindh
Farid Autos,3rd Gizri Street,Lower Gizri,Gizri,Karachi,Sindh,Farid Autos 3rd Gizri Street Lower Gizri Gizri Karachi Sindh
Mughal Autos,3rd Gizri Street,Lower Gizri,Gizri,Karachi,Sindh,Mughal Autos 3rd Gizri Street Lower Gizri Gizri Karachi Sindh
Marhaba Machinery Store,Gizri Avenue,Upper Gizri,Gizri,Karachi,Sindh,Marhaba Machinery Store Gizri Avenue Upper Gizri Gizri Karachi Sindh
Umair's Gift Item,Stadium Lane No 4,Phase 5,DHA,Karachi,Sindh,Umair's Gift Item Stadium Lane No 4 Phase 5 DHA Karachi Sindh
Mobile Gallery,Stadium Lane No 4,Phase 5,DHA,Karachi,Sindh,Mobile Gallery Stadium Lane No 4 Phase 5 DHA Karachi Sindh
Usman Cold Drink & General Store,Road No 6,Block 6,Liaquatabad,Karachi,Sindh,Usman Cold Drink & General Store Road No 6 Block 6 Liaquatabad Karachi Sindh
Mobi Cash,Submarine Chowrangi Underpass,Block 8,Clifton,Karachi,Sindh,Mobi Cash Submarine Chowrangi Underpass Block 8 Clifton Karachi Sindh
Pilot Book Stall & Stationery,Noor Ul Islam Street,Nazimabad No 3,Nazimabad,Karachi,Sindh,Pilot Book Stall & Stationery Noor Ul Islam Street Nazimabad No 3 Nazimabad Karachi Sindh
Rubi Trader Approved Sui Office,Nazimabad Road No 2,Nazimabad No 2,Nazimabad,Karachi,Sindh,Rubi Trader Approved Sui Office Nazimabad Road No 2 Nazimabad No 2 Nazimabad Karachi Sindh
La Nooria Cloth,Tariq Road,Block 2,PECHS,Karachi,Sindh,La Nooria Cloth Tariq Road Block 2 PECHS Karachi Sindh
Anchal Cloth,Abdul Rehman Road,Block 3 Delhi CHS,PECHS,Karachi,Sindh,Anchal Cloth Abdul Rehman Road Block 3 Delhi CHS PECHS Karachi Sindh
Nice EV Cloth,Dr Riazuddin Road,Block 2,PECHS,Karachi,Sindh,Nice EV Cloth Dr Riazuddin Road Block 2 PECHS Karachi Sindh
GM Tractors,Tariq Road,Block 2,PECHS,Karachi,Sindh,GM Tractors Tariq Road Block 2 PECHS Karachi Sindh
The Burki Tyre,Karachi - Hyderabad Motorway,Sector 1 B,Gulzar e Hijri Scheme 33,Karachi,Sindh,The Burki Tyre Karachi - Hyderabad Motorway Sector 1 B Gulzar e Hijri Scheme 33 Karachi Sindh
Awan Brothers Services,National Highway,Ghaghar Phatak,Bin Qasim Town,Karachi,Sindh,Awan Brothers Services National Highway Ghaghar Phatak Bin Qasim Town Karachi Sindh
Damascus,Nehr e Khayyam Street,Block 5,Clifton,Karachi,Sindh,Damascus Nehr e Khayyam Street Block 5 Clifton Karachi Sindh
Al Hamd Marriage Hall,Jauhar Chowrangi Road,Block 1,Gulistan e Jauhar,Karachi,Sindh,Al Hamd Marriage Hall Jauhar Chowrangi Road Block 1 Gulistan e Jauhar Karachi Sindh
Al Siraj Eye Clinic,Syed Altaf Ali Brelvi Road,Block 1,Liaquatabad,Karachi,Sindh,Al Siraj Eye Clinic Syed Altaf Ali Brelvi Road Block 1 Liaquatabad Karachi Sindh
The Tyre Shop,Al-Amna Avenue,Sector 5 B 1,New Karachi,Karachi,Sindh,The Tyre Shop Al-Amna Avenue Sector 5 B 1 New Karachi Karachi Sindh
Fakhri Hardware & Sanitary Store,Shahrah e Usman,Sector 11 C 1,North Karachi,Karachi,Sindh,Fakhri Hardware & Sanitary Store Shahrah e Usman Sector 11 C 1 North Karachi Karachi Sindh
Khan Garments,Sadiq Hussain Avenue,Sector X,Gulshan e Maymar,Karachi,Sindh,Khan Garments Sadiq Hussain Avenue Sector X Gulshan e Maymar Karachi Sindh
Kainat Milk Shop,Khawaja Shamsuddin Azeemi Road,Sector 5 E,Surjani Town,Karachi,Sindh,Kainat Milk Shop Khawaja Shamsuddin Azeemi Road Sector 5 E Surjani Town Karachi Sindh
New Sindh Milk Shop,Ayub Goth Road,Sachal Goth,Gulzar e Hijri Scheme 33,Karachi,Sindh,New Sindh Milk Shop Ayub Goth Road Sachal Goth Gulzar e Hijri Scheme 33 Karachi Sindh
3H Electric Store,Jauhar Road,Block 19,Gulistan e Jauhar,Karachi,Sindh,3H Electric Store Jauhar Road Block 19 Gulistan e Jauhar Karachi Sindh
Abdul Rehman Autos,Hashmi Street,Block 16,Federal B Area (Gulberg),Karachi,Sindh,Abdul Rehman Autos Hashmi Street Block 16 Federal B Area (Gulberg) Karachi Sindh
Shades Beauty Salon,Imran Siyal Road,Phase 1,Gulshan e Hadeed,Karachi,Sindh,Shades Beauty Salon Imran Siyal Road Phase 1 Gulshan e Hadeed Karachi Sindh
Silk Route Travel,Shahrah e Jahangir,Block H,North Nazimabad,Karachi,Sindh,Silk Route Travel Shahrah e Jahangir Block H North Nazimabad Karachi Sindh
Sahil Caterers,Badar Commercial Street No 2,Phase 5,DHA,Karachi,Sindh,Sahil Caterers Badar Commercial Street No 2 Phase 5 DHA Karachi Sindh
Ra Generators,Aligarh Road,Sector 6,Orangi,Karachi,Sindh,Ra Generators Aligarh Road Sector 6 Orangi Karachi Sindh
Bismillah Autos,Khursheed Begum Road,Shadman Town,Kala Board,Karachi,Sindh,Bismillah Autos Khursheed Begum Road Shadman Town Kala Board Karachi Sindh
Aim Enterprises,Jami Staff Lane No 2,Phase 2 Commercial Area,DHA,Karachi,Sindh,Aim Enterprises Jami Staff Lane No 2 Phase 2 Commercial Area DHA Karachi Sindh
Al Samad Garments,Bismillah Market Road,Sector 36 D,Landhi,Karachi,Sindh,Al Samad Garments Bismillah Market Road Sector 36 D Landhi Karachi Sindh
Slimers Club,Nawab Siddique Ali Khan Road,Nazimabad No 3,Nazimabad,Karachi,Sindh,Slimers Club Nawab Siddique Ali Khan Road Nazimabad No 3 Nazimabad Karachi Sindh
Bismillah Gift Center,Samnabad Street,Block 18,Federal B Area (Gulberg),Karachi,Sindh,Bismillah Gift Center Samnabad Street Block 18 Federal B Area (Gulberg) Karachi Sindh
Ismail Battery Service,Al-Amna Avenue,Sector 3,New Karachi,Karachi,Sindh,Ismail Battery Service Al-Amna Avenue Sector 3 New Karachi Karachi Sindh
Curtain Craft,Zamzama Boulevard,Phase 5,DHA,Karachi,Sindh,Curtain Craft Zamzama Boulevard Phase 5 DHA Karachi Sindh
Marhaba Hairdresser,46th Street,Block 3,Federal B Area (Gulberg),Karachi,Sindh,Marhaba Hairdresser 46th Street Block 3 Federal B Area (Gulberg) Karachi Sindh
Sultani Tailors,Darbar e Sultani Road,Block 5,Federal B Area (Gulberg),Karachi,Sindh,Sultani Tailors Darbar e Sultani Road Block 5 Federal B Area (Gulberg) Karachi Sindh
Khan Battery Service & Auto Electrician,Mohibban Road,Sector 3,Sindh Industrial Trading Estate (SITE),Karachi,Sindh,Khan Battery Service & Auto Electrician Mohibban Road Sector 3 Sindh Industrial Trading Estate (SITE) Karachi Sindh
Ahmar Brothers Paint House,Landhi Road,Sector 36 D,Landhi,Karachi,Sindh,Ahmar Brothers Paint House Landhi Road Sector 36 D Landhi Karachi Sindh
Naeem Refrigerator,Bukhtawar Road,Phase 1,Gulshan e Hadeed,Karachi,Sindh,Naeem Refrigerator Bukhtawar Road Phase 1 Gulshan e Hadeed Karachi Sindh
Western Union,Khayaban e Badar,Phase 5,DHA,Karachi,Sindh,Western Union Khayaban e Badar Phase 5 DHA Karachi Sindh
Shah Jee Sweets & Bakers,8th Main Road,Block 7,Liaquatabad,Karachi,Sindh,Shah Jee Sweets & Bakers 8th Main Road Block 7 Liaquatabad Karachi Sindh
Subhanallah Sheermal House,Khyber Store Road,Phase 1,Gulshan e Hadeed,Karachi,Sindh,Subhanallah Sheermal House Khyber Store Road Phase 1 Gulshan e Hadeed Karachi Sindh
Haji Dairy Milk Shop,27th Street,Block 6,Liaquatabad,Karachi,Sindh,Haji Dairy Milk Shop 27th Street Block 6 Liaquatabad Karachi Sindh
UBL Omni,Shahrah e Altaf,Sector 36 B,Landhi,Karachi,Sindh,UBL Omni Shahrah e Altaf Sector 36 B Landhi Karachi Sindh
Visitors Parking Area,24th Street,Phase 6,DHA,Karachi,Sindh,Visitors Parking Area 24th Street Phase 6 DHA Karachi Sindh
Hadi Hair Cut Salon,Ali Street 1,Phase 2,Gulshan e Hadeed,Karachi,Sindh,Hadi Hair Cut Salon Ali Street 1 Phase 2 Gulshan e Hadeed Karachi Sindh
Naam Watch & Electric Store,Khyber Store Road,Phase 1,Gulshan e Hadeed,Karachi,Sindh,Naam Watch & Electric Store Khyber Store Road Phase 1 Gulshan e Hadeed Karachi Sindh
Nelson Paint,Ghazi Salahuddin Road,Sherpao Basti,Kathiawar CHS,Karachi,Sindh,Nelson Paint Ghazi Salahuddin Road Sherpao Basti Kathiawar CHS Karachi Sindh
Haji Tyre Shop,Shahrah e Faisal,Moria Khan Goth,Shah Faisal Town,Karachi,Sindh,Haji Tyre Shop Shahrah e Faisal Moria Khan Goth Shah Faisal Town Karachi Sindh
The Tiles Emporium,Azeempura Road,Azeempura,Shah Faisal Town,Karachi,Sindh,The Tiles Emporium Azeempura Road Azeempura Shah Faisal Town Karachi Sindh
Ideal Garments,Liaquat Market Road,H Area,Saudabad,Karachi,Sindh,Ideal Garments Liaquat Market Road H Area Saudabad Karachi Sindh
Al Noor Caterers,Shaheed Foundation Street,Block 20,Federal B Area (Gulberg),Karachi,Sindh,Al Noor Caterers Shaheed Foundation Street Block 20 Federal B Area (Gulberg) Karachi Sindh
Oxford English Grammar School,Bath Island Road,GOR Colony,Bath Island,Karachi,Sindh,Oxford English Grammar School Bath Island Road GOR Colony Bath Island Karachi Sindh
Dream Comm,Ghazi Salahuddin Road,Sherpao Basti,Kathiawar CHS,Karachi,Sindh,Dream Comm Ghazi Salahuddin Road Sherpao Basti Kathiawar CHS Karachi Sindh
Masjid Tawabeen,2nd Circular Road,Sector X,Gulshan e Maymar,Karachi,Sindh,Masjid Tawabeen 2nd Circular Road Sector X Gulshan e Maymar Karachi Sindh
Sunway Mohiuddin Autos,Landhi Road,Sector 35 C,Korangi,Karachi,Sindh,Sunway Mohiuddin Autos Landhi Road Sector 35 C Korangi Karachi Sindh
Al Madina Dakkan Flower & Stage Decoration,Shahrah e Muhammad Tufail,Block 13,Federal B Area (Gulberg),Karachi,Sindh,Al Madina Dakkan Flower & Stage Decoration Shahrah e Muhammad Tufail Block 13 Federal B Area (Gulberg) Karachi Sindh
Manpasand Foods & Caterers,Ancholi Main Road,Block 20,Federal B Area (Gulberg),Karachi,Sindh,Manpasand Foods & Caterers Ancholi Main Road Block 20 Federal B Area (Gulberg) Karachi Sindh
Erum Apartments,Shahrah e Shershah Suri,Sector 15 A 3,Buffer Zone,Karachi,Sindh,Erum Apartments Shahrah e Shershah Suri Sector 15 A 3 Buffer Zone Karachi Sindh
Universal Autos,Samnabad Street,Block 17,Federal B Area (Gulberg),Karachi,Sindh,Universal Autos Samnabad Street Block 17 Federal B Area (Gulberg) Karachi Sindh
Gala's Beauty Salon,Street 5,Block 17,Federal B Area (Gulberg),Karachi,Sindh,Gala's Beauty Salon Street 5 Block 17 Federal B Area (Gulberg) Karachi Sindh
Qasim General Store,JDC Road,Block 20,Federal B Area (Gulberg),Karachi,Sindh,Qasim General Store JDC Road Block 20 Federal B Area (Gulberg) Karachi Sindh
Bismillah Chicken Shop,Main Road,Humaira Town,Soorti Housing Society,Karachi,Sindh,Bismillah Chicken Shop Main Road Humaira Town Soorti Housing Society Karachi Sindh
Bismillah Electric Store,Liaquat Road,Khokhrapar 2,Khokhrapar,Karachi,Sindh,Bismillah Electric Store Liaquat Road Khokhrapar 2 Khokhrapar Karachi Sindh
Ayaan Autos,Liaquat Market Road,Saudabad S2,Saudabad,Karachi,Sindh,Ayaan Autos Liaquat Market Road Saudabad S2 Saudabad Karachi Sindh
Super Traders Steel Iron Store,Muhammad Abdullah Naeemi Road,G Area Malir Colony,Kala Board,Karachi,Sindh,Super Traders Steel Iron Store Muhammad Abdullah Naeemi Road G Area Malir Colony Kala Board Karachi Sindh
Askari Electric Store,Khokhrapar Dak'khana Road,Khokhrapar 1,Khokhrapar,Karachi,Sindh,Askari Electric Store Khokhrapar Dak'khana Road Khokhrapar 1 Khokhrapar Karachi Sindh
Asia House Of Electronics,Shahrah e Pakistan,Block 14,Federal B Area (Gulberg),Karachi,Sindh,Asia House Of Electronics Shahrah e Pakistan Block 14 Federal B Area (Gulberg) Karachi Sindh
Classic Estate,Faizan Street,Block D,North Nazimabad,Karachi,Sindh,Classic Estate Faizan Street Block D North Nazimabad Karachi Sindh
Nicks Salon,Ramiz Raja Rooad,Block A,North Nazimabad,Karachi,Sindh,Nicks Salon Ramiz Raja Rooad Block A North Nazimabad Karachi Sindh
Jamali Autos,Sardar Yaseen Malik Road,Block E,North Nazimabad,Karachi,Sindh,Jamali Autos Sardar Yaseen Malik Road Block E North Nazimabad Karachi Sindh
Wheels Estate,Umar Farooq Road,Shah Faisal Colony 1,Shah Faisal Town,Karachi,Sindh,Wheels Estate Umar Farooq Road Shah Faisal Colony 1 Shah Faisal Town Karachi Sindh
Imran General Store,Chowrangi Road,Shah Faisal Colony 2,Shah Faisal Town,Karachi,Sindh,Imran General Store Chowrangi Road Shah Faisal Colony 2 Shah Faisal Town Karachi Sindh
Shadab Autos,Shahrah e Pakistan,Block 16,Federal B Area (Gulberg),Karachi,Sindh,Shadab Autos Shahrah e Pakistan Block 16 Federal B Area (Gulberg) Karachi Sindh
Pak Key Maker,Masoomeen Road,Block 15,Federal B Area (Gulberg),Karachi,Sindh,Pak Key Maker Masoomeen Road Block 15 Federal B Area (Gulberg) Karachi Sindh
Shakeel Batteries,Rashid Minhas Road,Block 16,Federal B Area (Gulberg),Karachi,Sindh,Shakeel Batteries Rashid Minhas Road Block 16 Federal B Area (Gulberg) Karachi Sindh
Furqan Hair Cutting,Noman Masjid Road,Block 16,Federal B Area (Gulberg),Karachi,Sindh,Furqan Hair Cutting Noman Masjid Road Block 16 Federal B Area (Gulberg) Karachi Sindh
Bismillah Glass & Aluminium,Hashmi Street,Block 16,Federal B Area (Gulberg),Karachi,Sindh,Bismillah Glass & Aluminium Hashmi Street Block 16 Federal B Area (Gulberg) Karachi Sindh
Kanwal Beauty Spot,Ayan Street,Block 14,Federal B Area (Gulberg),Karachi,Sindh,Kanwal Beauty Spot Ayan Street Block 14 Federal B Area (Gulberg) Karachi Sindh
Ali Electric & Sanitary Store,Azizabad Main Road,Block 15,Federal B Area (Gulberg),Karachi,Sindh,Ali Electric & Sanitary Store Azizabad Main Road Block 15 Federal B Area (Gulberg) Karachi Sindh
Bilal Generator Work,Zafar Iqbal Shaheed Road,Block 9,Federal B Area (Gulberg),Karachi,Sindh,Bilal Generator Work Zafar Iqbal Shaheed Road Block 9 Federal B Area (Gulberg) Karachi Sindh
Beauty Icon Bridal House Parlour,Sarwar Shaheed Road,Block 9,Federal B Area (Gulberg),Karachi,Sindh,Beauty Icon Bridal House Parlour Sarwar Shaheed Road Block 9 Federal B Area (Gulberg) Karachi Sindh
Madrassa Rafiq Al Quran,49th Street,Block 3,Federal B Area (Gulberg),Karachi,Sindh,Madrassa Rafiq Al Quran 49th Street Block 3 Federal B Area (Gulberg) Karachi Sindh
Rex Hairdresser,S Rashid Shami Shaheed Road,Block 2,Federal B Area (Gulberg),Karachi,Sindh,Rex Hairdresser S Rashid Shami Shaheed Road Block 2 Federal B Area (Gulberg) Karachi Sindh
Madrassa Islami Taleemul Quran,35th Street,Block 2,Federal B Area (Gulberg),Karachi,Sindh,Madrassa Islami Taleemul Quran 35th Street Block 2 Federal B Area (Gulberg) Karachi Sindh
Bismillah Al Syedi Hotel,Bismillah Hotel Road,Block 8,Federal B Area (Gulberg),Karachi,Sindh,Bismillah Al Syedi Hotel Bismillah Hotel Road Block 8 Federal B Area (Gulberg) Karachi Sindh
AZ Cool Service Repairs,Landhi Road,Sector 35 C,Korangi,Karachi,Sindh,AZ Cool Service Repairs Landhi Road Sector 35 C Korangi Karachi Sindh
Sajid Electric Store,Qabristan Road,Sector 44 B,Landhi,Karachi,Sindh,Sajid Electric Store Qabristan Road Sector 44 B Landhi Karachi Sindh
Maryam Autos,Qabristan Road,Hasrat Mohani Colony,Korangi,Karachi,Sindh,Maryam Autos Qabristan Road Hasrat Mohani Colony Korangi Karachi Sindh
Asma Autos,Qabristan Road,Hasrat Mohani Colony,Korangi,Karachi,Sindh,Asma Autos Qabristan Road Hasrat Mohani Colony Korangi Karachi Sindh
Arif Zari Mahal,Syed Hashim Raza Road,Block G,North Nazimabad,Karachi,Sindh,Arif Zari Mahal Syed Hashim Raza Road Block G North Nazimabad Karachi Sindh
Hussain Gold Collection,Syed Hashim Raza Road,Block G,North Nazimabad,Karachi,Sindh,Hussain Gold Collection Syed Hashim Raza Road Block G North Nazimabad Karachi Sindh
Make Up Tonight Beauty Salon,Lake Dr,Block 18,Gulistan e Jauhar,Karachi,Sindh,Make Up Tonight Beauty Salon Lake Dr Block 18 Gulistan e Jauhar Karachi Sindh
Faisal Vawda Group,14th Street,Phase 5,DHA,Karachi,Sindh,Faisal Vawda Group 14th Street Phase 5 DHA Karachi Sindh
Mernad Protection & Security,22nd Commercial Street,Phase 2 Commercial Area,DHA,Karachi,Sindh,Mernad Protection & Security 22nd Commercial Street Phase 2 Commercial Area DHA Karachi Sindh
Bata,Block 17 Street,Block 17,Gulistan e Jauhar,Karachi,Sindh,Bata Block 17 Street Block 17 Gulistan e Jauhar Karachi Sindh
The Fatima School,Ansar Burney Street,Block A,North Nazimabad,Karachi,Sindh,The Fatima School Ansar Burney Street Block A North Nazimabad Karachi Sindh
The Patriots School,Ghazali Road,Block 2,PECHS,Karachi,Sindh,The Patriots School Ghazali Road Block 2 PECHS Karachi Sindh
Good Samaritan Ministries Pakistan,3rd East Street,Sector E,Kashmir Colony,Karachi,Sindh,Good Samaritan Ministries Pakistan 3rd East Street Sector E Kashmir Colony Karachi Sindh
PTCL Telephone Exchange,Main Razi Road,Block 6,PECHS,Karachi,Sindh,PTCL Telephone Exchange Main Razi Road Block 6 PECHS Karachi Sindh
Future Bright Grammar School,Qadri Masjid Road,Sector 5 F,New Karachi,Karachi,Sindh,Future Bright Grammar School Qadri Masjid Road Sector 5 F New Karachi Karachi Sindh
Naeem Sanitary Hardware & Electric Store,Sindh Hotel Road,Sector 5 J,New Karachi,Karachi,Sindh,Naeem Sanitary Hardware & Electric Store Sindh Hotel Road Sector 5 J New Karachi Karachi Sindh
Police Station,Syed Altaf Ali Brelvi Road,Block 1,Liaquatabad,Karachi,Sindh,Police Station Syed Altaf Ali Brelvi Road Block 1 Liaquatabad Karachi Sindh
Masjid Imam Abu Hanifa,3rd Avenue,Block 5,Clifton,Karachi,Sindh,Masjid Imam Abu Hanifa 3rd Avenue Block 5 Clifton Karachi Sindh
Govt. Urdu Boys Girls Elementary School,Landhi Road,Sector 37 A,Landhi,Karachi,Sindh,Govt. Urdu Boys Girls Elementary School Landhi Road Sector 37 A Landhi Karachi Sindh
Western Union,Shahrah e Shershah Suri,Block H,North Nazimabad,Karachi,Sindh,Western Union Shahrah e Shershah Suri Block H North Nazimabad Karachi Sindh
Masjid Hall,41st Street,Block 3,Federal B Area (Gulberg),Karachi,Sindh,Masjid Hall 41st Street Block 3 Federal B Area (Gulberg) Karachi Sindh
Talent & Taste Home & Decor,Service Road,Block 9,Clifton,Karachi,Sindh,Talent & Taste Home & Decor Service Road Block 9 Clifton Karachi Sindh
DHL,Burhani Circle Road,Block E,North Nazimabad,Karachi,Sindh,DHL Burhani Circle Road Block E North Nazimabad Karachi Sindh
MMB Oil Change,Shahrah e Faisal,Darakhshan CHS,Kala Board,Karachi,Sindh,MMB Oil Change Shahrah e Faisal Darakhshan CHS Kala Board Karachi Sindh
Al Mustafa Estate,University Road,Block 13 C,Gulshan e Iqbal,Karachi,Sindh,Al Mustafa Estate University Road Block 13 C Gulshan e Iqbal Karachi Sindh
Al Karim Fair Price Shop,8th East Street,Phase 1,DHA,Karachi,Sindh,Al Karim Fair Price Shop 8th East Street Phase 1 DHA Karachi Sindh
Bata,Korangi Road,Phase 2,DHA,Karachi,Sindh,Bata Korangi Road Phase 2 DHA Karachi Sindh
ATM HMB,Khayaban e Seher,Phase 7,DHA,Karachi,Sindh,ATM HMB Khayaban e Seher Phase 7 DHA Karachi Sindh
Generators Repairing,Jauhar Road,Block 17,Gulistan e Jauhar,Karachi,Sindh,Generators Repairing Jauhar Road Block 17 Gulistan e Jauhar Karachi Sindh
Nasgas House Gas & Electric Appliance,Teyrhii Road,Block 17,Gulistan e Jauhar,Karachi,Sindh,Nasgas House Gas & Electric Appliance Teyrhii Road Block 17 Gulistan e Jauhar Karachi Sindh
Prime Residency,Sir Syed Road,Block 2,PECHS,Karachi,Sindh,Prime Residency Sir Syed Road Block 2 PECHS Karachi Sindh
New Tip Top Fashion House,24th Commercial Street,Phase 2 Commercial Area,DHA,Karachi,Sindh,New Tip Top Fashion House 24th Commercial Street Phase 2 Commercial Area DHA Karachi Sindh
Agha Medical Store,Sunar Gail,Block 2,PECHS,Karachi,Sindh,Agha Medical Store Sunar Gail Block 2 PECHS Karachi Sindh
Travel & Tours,Street No 7,Block 2,PECHS,Karachi,Sindh,Travel & Tours Street No 7 Block 2 PECHS Karachi Sindh
Qasr e Farooque,Modern Road No 3,Block 3 Modern Society,PECHS,Karachi,Sindh,Qasr e Farooque Modern Road No 3 Block 3 Modern Society PECHS Karachi Sindh
Symphony,Dupatta Gali,Block 2,PECHS,Karachi,Sindh,Symphony Dupatta Gali Block 2 PECHS Karachi Sindh
Kodvavi Associate,Khayaban e Jami,Phase 2 Ext,DHA,Karachi,Sindh,Kodvavi Associate Khayaban e Jami Phase 2 Ext DHA Karachi Sindh
Jewellery,Badar Commercial Street No 6,Phase 5,DHA,Karachi,Sindh,Jewellery Badar Commercial Street No 6 Phase 5 DHA Karachi Sindh
Adon Plus Furniture,Stadium Lane No 3,Phase 5,DHA,Karachi,Sindh,Adon Plus Furniture Stadium Lane No 3 Phase 5 DHA Karachi Sindh
Kabir Autos,14th Commercial Street,Phase 2 Commercial Area,DHA,Karachi,Sindh,Kabir Autos 14th Commercial Street Phase 2 Commercial Area DHA Karachi Sindh
Rukhsar Boutique,Sunset Lane No 4,Phase 2 Commercial Area,DHA,Karachi,Sindh,Rukhsar Boutique Sunset Lane No 4 Phase 2 Commercial Area DHA Karachi Sindh
Davis Langdon & Seah Pak,Khayaban e Bukhari,Phase 6,DHA,Karachi,Sindh,Davis Langdon & Seah Pak Khayaban e Bukhari Phase 6 DHA Karachi Sindh
Bismillah Tailors,Rahat Lane No 1,Phase 6,DHA,Karachi,Sindh,Bismillah Tailors Rahat Lane No 1 Phase 6 DHA Karachi Sindh
Wajha Collection,Adnan Khalil Street,Block 3,Gulshan e Iqbal,Karachi,Sindh,Wajha Collection Adnan Khalil Street Block 3 Gulshan e Iqbal Karachi Sindh
Zariq Autos,Korangi Road,Bhittai Colony,Korangi Creek,Karachi,Sindh,Zariq Autos Korangi Road Bhittai Colony Korangi Creek Karachi Sindh
Nida Azwer Atelier,Khayaban e Shamsheer,Phase 5,DHA,Karachi,Sindh,Nida Azwer Atelier Khayaban e Shamsheer Phase 5 DHA Karachi Sindh
Jeddah Noorani Ice Cream,Allama Shabbir Ahmed Usmani Road,Block 7,Gulshan e Iqbal,Karachi,Sindh,Jeddah Noorani Ice Cream Allama Shabbir Ahmed Usmani Road Block 7 Gulshan e Iqbal Karachi Sindh
Dawn News Paper Add Booking,Nipa Interchange,Block 6,Gulshan e Iqbal,Karachi,Sindh,Dawn News Paper Add Booking Nipa Interchange Block 6 Gulshan e Iqbal Karachi Sindh
786 Real Estate,Dr Nishat Malik Shaheed Road,Block 1,Gulshan e Iqbal,Karachi,Sindh,786 Real Estate Dr Nishat Malik Shaheed Road Block 1 Gulshan e Iqbal Karachi Sindh
A One Dry Cleaners,City Bakery Street,Block 17,Gulistan e Jauhar,Karachi,Sindh,A One Dry Cleaners City Bakery Street Block 17 Gulistan e Jauhar Karachi Sindh
Accountant General Sindh,University Road,Block 11,Gulshan e Iqbal,Karachi,Sindh,Accountant General Sindh University Road Block 11 Gulshan e Iqbal Karachi Sindh
Abdullah Steel & Ironworks,Qadri Masjid Road,Sector 5 F,New Karachi,Karachi,Sindh,Abdullah Steel & Ironworks Qadri Masjid Road Sector 5 F New Karachi Karachi Sindh
Abrar Electronics,Jamia Millia Road,Gulshan e Rafi,Shah Faisal Town,Karachi,Sindh,Abrar Electronics Jamia Millia Road Gulshan e Rafi Shah Faisal Town Karachi Sindh
Al Raheem Comm,Shahrah e Faisal,Moria Khan Goth,Shah Faisal Town,Karachi,Sindh,Al Raheem Comm Shahrah e Faisal Moria Khan Goth Shah Faisal Town Karachi Sindh
Aleens Beauty Salon & Training Center,Shahrah e Usman,Sector 5 K,New Karachi,Karachi,Sindh,Aleens Beauty Salon & Training Center Shahrah e Usman Sector 5 K New Karachi Karachi Sindh
Ali Medical Store,43rd Street,C Area,Liaquatabad,Karachi,Sindh,Ali Medical Store 43rd Street C Area Liaquatabad Karachi Sindh
Allah Tawakkal Lubricant,N Food Street,Sector 7D/2,North Karachi,Karachi,Sindh,Allah Tawakkal Lubricant N Food Street Sector 7D/2 North Karachi Karachi Sindh
Areeba General Store,Shah Faisal Colony Flyover,Moria Khan Goth,Shah Faisal Town,Karachi,Sindh,Areeba General Store Shah Faisal Colony Flyover Moria Khan Goth Shah Faisal Town Karachi Sindh
Arif Electric Shop,Iqbalabad Road,Drigh Colony,Shah Faisal Town,Karachi,Sindh,Arif Electric Shop Iqbalabad Road Drigh Colony Shah Faisal Town Karachi Sindh
Asif Associates Property Dealer,University Road,Block 13 A,Gulshan e Iqbal,Karachi,Sindh,Asif Associates Property Dealer University Road Block 13 A Gulshan e Iqbal Karachi Sindh
Ashrafi Garments,Shah Faisal Colony Flyover,Shah Faisal Colony 2,Shah Faisal Town,Karachi,Sindh,Ashrafi Garments Shah Faisal Colony Flyover Shah Faisal Colony 2 Shah Faisal Town Karachi Sindh
Ayesha Gift Center,Shah Faisal Colony Road,Shah Faisal Colony 1,Shah Faisal Town,Karachi,Sindh,Ayesha Gift Center Shah Faisal Colony Road Shah Faisal Colony 1 Shah Faisal Town Karachi Sindh
Aziz Autos,Shahrah e Shabbir Ahmed Usmani,Sector 43 B,Landhi,Karachi,Sindh,Aziz Autos Shahrah e Shabbir Ahmed Usmani Sector 43 B Landhi Karachi Sindh
Barbi Beauty Zone,Central Street,Sector 5 M,New Karachi,Karachi,Sindh,Barbi Beauty Zone Central Street Sector 5 M New Karachi Karachi Sindh
Bismillah Autos,Qatar Hospital Road,Sector 14 E,Shamsi Colony,Karachi,Sindh,Bismillah Autos Qatar Hospital Road Sector 14 E Shamsi Colony Karachi Sindh
City Juice Center,Sehba Akhtar Road,Block 13 D 3,Gulshan e Iqbal,Karachi,Sindh,City Juice Center Sehba Akhtar Road Block 13 D 3 Gulshan e Iqbal Karachi Sindh
Damsel Beauty Parlour,Mehran Street,Block 13 D 2,Gulshan e Iqbal,Karachi,Sindh,Damsel Beauty Parlour Mehran Street Block 13 D 2 Gulshan e Iqbal Karachi Sindh
Fahad General Store,Shahrah e Usman,Sector 5 M,New Karachi,Karachi,Sindh,Fahad General Store Shahrah e Usman Sector 5 M New Karachi Karachi Sindh
Fancy Decorators,Sehba Akhtar Road,Block 13 G,Gulshan e Iqbal,Karachi,Sindh,Fancy Decorators Sehba Akhtar Road Block 13 G Gulshan e Iqbal Karachi Sindh
Haider Autos,Shahrah e Qaddafi,Sector 13 A,Orangi,Karachi,Sindh,Haider Autos Shahrah e Qaddafi Sector 13 A Orangi Karachi Sindh
Habib Qatar Exchange,Shah Faisal Colony Flyover,Moria Khan Goth,Shah Faisal Town,Karachi,Sindh,Habib Qatar Exchange Shah Faisal Colony Flyover Moria Khan Goth Shah Faisal Town Karachi Sindh
Hanif Autos,Naseer ul Haq Road,Sector 11 E,North Karachi,Karachi,Sindh,Hanif Autos Naseer ul Haq Road Sector 11 E North Karachi Karachi Sindh
Hina Beauty Parlour,SM Taufiq Road,C Area,Liaquatabad,Karachi,Sindh,Hina Beauty Parlour SM Taufiq Road C Area Liaquatabad Karachi Sindh
Ismail & Sons Tailors,Ayesha Masjid Road,Sector 11 B,North Karachi,Karachi,Sindh,Ismail & Sons Tailors Ayesha Masjid Road Sector 11 B North Karachi Karachi Sindh
Javed Qureshi Scrap Wala,Bahadur Ali Road,Sector 5 G,New Karachi,Karachi,Sindh,Javed Qureshi Scrap Wala Bahadur Ali Road Sector 5 G New Karachi Karachi Sindh
Jauhar Grid Station,Palace Road,Block 5,Gulistan e Jauhar,Karachi,Sindh,Jauhar Grid Station Palace Road Block 5 Gulistan e Jauhar Karachi Sindh
Javed Auto Electrician,Street Number 4,Sector 11 E,Muhammad Nagar,Karachi,Sindh,Javed Auto Electrician Street Number 4 Sector 11 E Muhammad Nagar Karachi Sindh
Jholay Lal Service Station Bike Wash,Qabristan Road,Hasrat Mohani Colony,Korangi,Karachi,Sindh,Jholay Lal Service Station Bike Wash Qabristan Road Hasrat Mohani Colony Korangi Karachi Sindh
Kamran Rent A Car,Syed Altaf Ali Brelvi Road,Block 1,Liaquatabad,Karachi,Sindh,Kamran Rent A Car Syed Altaf Ali Brelvi Road Block 1 Liaquatabad Karachi Sindh
Karishma Movie & Still Photography,Qatar Hospital Road,Sector 15 B,Orangi,Karachi,Sindh,Karishma Movie & Still Photography Qatar Hospital Road Sector 15 B Orangi Karachi Sindh
Khalid Oil Exchange Shop,Shahrah e Faisal,Shah Faisal Colony 1,Shah Faisal Town,Karachi,Sindh,Khalid Oil Exchange Shop Shahrah e Faisal Shah Faisal Colony 1 Shah Faisal Town Karachi Sindh
Khan Comm,Al Waris Street,Sector 38 A,Gulzar e Hijri Scheme 33,Karachi,Sindh,Khan Comm Al Waris Street Sector 38 A Gulzar e Hijri Scheme 33 Karachi Sindh
M Nazeer Electric Works,Johar Hill Road,Block 3,Gulistan e Jauhar,Karachi,Sindh,M Nazeer Electric Works Johar Hill Road Block 3 Gulistan e Jauhar Karachi Sindh
Madina Electronics,Abbasia Masjid Road,Shah Faisal Colony 5,Shah Faisal Town,Karachi,Sindh,Madina Electronics Abbasia Masjid Road Shah Faisal Colony 5 Shah Faisal Town Karachi Sindh
M Rehman Jewellers,Qatar Hospital Road,Sector 14 E,Shamsi Colony,Karachi,Sindh,M Rehman Jewellers Qatar Hospital Road Sector 14 E Shamsi Colony Karachi Sindh
Makkah Ice Cream & Broast Point,Norani Eidgah Road,Sector 11 G,North Karachi,Karachi,Sindh,Makkah Ice Cream & Broast Point Norani Eidgah Road Sector 11 G North Karachi Karachi Sindh
Manzoor Sons School College Uniform Center,Aligarh Road,Sector 7 A,Orangi,Karachi,Sindh,Manzoor Sons School College Uniform Center Aligarh Road Sector 7 A Orangi Karachi Sindh
Mashallah Steel Wholesale Dealer,Landhi Local Road,Sector 39,Korangi,Karachi,Sindh,Mashallah Steel Wholesale Dealer Landhi Local Road Sector 39 Korangi Karachi Sindh
Masood Ali Karachi Paint Store,Korangi Shah Faisal Road,Sector 11,Landhi,Karachi,Sindh,Masood Ali Karachi Paint Store Korangi Shah Faisal Road Sector 11 Landhi Karachi Sindh
MoneyGram,Shaheen School Road,Block 4,Gulistan e Jauhar,Karachi,Sindh,MoneyGram Shaheen School Road Block 4 Gulistan e Jauhar Karachi Sindh
Mudassir General & Karyana Store,Umer Bin Khattab Street,Sector 8,North Karachi,Karachi,Sindh,Mudassir General & Karyana Store Umer Bin Khattab Street Sector 8 North Karachi Karachi Sindh
Nida Garments,Qatar Hospital Road,Sector 14 E,Shamsi Colony,Karachi,Sindh,Nida Garments Qatar Hospital Road Sector 14 E Shamsi Colony Karachi Sindh
Pakistan Shoes Mela,Power House Chowrangi,Sector 5 K,New Karachi,Karachi,Sindh,Pakistan Shoes Mela Power House Chowrangi Sector 5 K New Karachi Karachi Sindh
Pasha Autos,Shahrah e Usman,Sector 5 C 4,New Karachi,Karachi,Sindh,Pasha Autos Shahrah e Usman Sector 5 C 4 New Karachi Karachi Sindh
Quetta Paint & Hardware,University Road,Sector 38 A,Gulzar e Hijri Scheme 33,Karachi,Sindh,Quetta Paint & Hardware University Road Sector 38 A Gulzar e Hijri Scheme 33 Karachi Sindh
Pines Associate,Anda Mor Road,Sector 11 C 3,North Karachi,Karachi,Sindh,Pines Associate Anda Mor Road Sector 11 C 3 North Karachi Karachi Sindh
Rajput Oil Traders & Autos,Shahrah e Usman,Sector 5 B 2,New Karachi,Karachi,Sindh,Rajput Oil Traders & Autos Shahrah e Usman Sector 5 B 2 New Karachi Karachi Sindh
Raja Nihari Restaurant & Sheermal House,Anum Uzair Shaheed Road,Block 13 C,Gulshan e Iqbal,Karachi,Sindh,Raja Nihari Restaurant & Sheermal House Anum Uzair Shaheed Road Block 13 C Gulshan e Iqbal Karachi Sindh
Sabri BBQ,Shahrah e Maulana Shaukat Ali,Sector 11 G,North Karachi,Karachi,Sindh,Sabri BBQ Shahrah e Maulana Shaukat Ali Sector 11 G North Karachi Karachi Sindh
Saleem & Sabir Cement Works,Azeempura Road,Gulfishan Society,Shah Faisal Town,Karachi,Sindh,Saleem & Sabir Cement Works Azeempura Road Gulfishan Society Shah Faisal Town Karachi Sindh
Sarad Re Rolling Mills,Sir Shah Suleman Road,Block 10,Liaquatabad,Karachi,Sindh,Sarad Re Rolling Mills Sir Shah Suleman Road Block 10 Liaquatabad Karachi Sindh
Seven Eleven Hairdresser,Umer Bin Khatab Road,Mehran Town,Korangi,Karachi,Sindh,Seven Eleven Hairdresser Umer Bin Khatab Road Mehran Town Korangi Karachi Sindh
Shah Steel & Cement Works,Kiran Hospital Road,Sector 34 A,Gulzar e Hijri Scheme 33,Karachi,Sindh,Shah Steel & Cement Works Kiran Hospital Road Sector 34 A Gulzar e Hijri Scheme 33 Karachi Sindh
Shaheen Book Shop,Golden Town Road,Golden Town,Shah Faisal Town,Karachi,Sindh,Shaheen Book Shop Golden Town Road Golden Town Shah Faisal Town Karachi Sindh
Shehzad Manzil,Sardar Ali Sabri Road,Block 5,Gulshan e Iqbal,Karachi,Sindh,Shehzad Manzil Sardar Ali Sabri Road Block 5 Gulshan e Iqbal Karachi Sindh
Sidra Designer,Lake Dr,Block 18,Gulistan e Jauhar,Karachi,Sindh,Sidra Designer Lake Dr Block 18 Gulistan e Jauhar Karachi Sindh
Silk Beauty Salon,Resham Gali Road,Shah Faisal Colony 1,Shah Faisal Town,Karachi,Sindh,Silk Beauty Salon Resham Gali Road Shah Faisal Colony 1 Shah Faisal Town Karachi Sindh
Snooker Club,Sehba Akhtar Road,Block 13 D 2,Gulshan e Iqbal,Karachi,Sindh,Snooker Club Sehba Akhtar Road Block 13 D 2 Gulshan e Iqbal Karachi Sindh
Subhanallah Machine Works,39th Street,Block 6,Liaquatabad,Karachi,Sindh,Subhanallah Machine Works 39th Street Block 6 Liaquatabad Karachi Sindh
Sultan Computers & Comm,Street 7,Bagh e Malir,Shah Faisal Town,Karachi,Sindh,Sultan Computers & Comm Street 7 Bagh e Malir Shah Faisal Town Karachi Sindh
,Shahrah e Orangi,Sector 11 E,Muhammad Nagar,Karachi,Sindh, Shahrah e Orangi Sector 11 E Muhammad Nagar Karachi Sindh
,Shahrah e Maulana Shaukat Ali,Sector 5 G,New Karachi,Karachi,Sindh, Shahrah e Maulana Shaukat Ali Sector 5 G New Karachi Karachi Sindh
,Jamia Millia Road,Gulshan e Rafi,Shah Faisal Town,Karachi,Sindh, Jamia Millia Road Gulshan e Rafi Shah Faisal Town Karachi Sindh
,"Rafah e Aam Society Road
",Rafah e Aam Society,Shah Faisal Town,Karachi,Sindh," Rafah e Aam Society Road
 Rafah e Aam Society Shah Faisal Town Karachi Sindh"
,Rafah e Aam Pk Road,Rafah e Aam Society,Shah Faisal Town,Karachi,Sindh, Rafah e Aam Pk Road Rafah e Aam Society Shah Faisal Town Karachi Sindh
,Sahba Akhtar Road,Block 13 D 2,Gulshan e Iqbal,Karachi,Sindh, Sahba Akhtar Road Block 13 D 2 Gulshan e Iqbal Karachi Sindh
,Aligarh Road,Sector 2 A,Mujahidabad,Karachi,Sindh, Aligarh Road Sector 2 A Mujahidabad Karachi Sindh
,Shahrah e Shabbir Ahmed Usmani,Sector 50 C,Korangi,Karachi,Sindh, Shahrah e Shabbir Ahmed Usmani Sector 50 C Korangi Karachi Sindh
,Shahrah e Maulana Shaukat Ali,Sector 11 F,North Karachi,Karachi,Sindh, Shahrah e Maulana Shaukat Ali Sector 11 F North Karachi Karachi Sindh
,Syed Altaf Ali Brelvi Road,C Area,Liaquatabad,Karachi,Sindh, Syed Altaf Ali Brelvi Road C Area Liaquatabad Karachi Sindh
,Usmania Masjid Road,Sector 37 C,Landhi,Karachi,Sindh, Usmania Masjid Road Sector 37 C Landhi Karachi Sindh
,Orangi Road,Sector 2 A,Mujahidabad,Karachi,Sindh, Orangi Road Sector 2 A Mujahidabad Karachi Sindh
,Muraqba Hall Road,Sector 4 A,Surjani Town,Karachi,Sindh, Muraqba Hall Road Sector 4 A Surjani Town Karachi Sindh
,Street No 15,Sector 4 B,Surjani Town,Karachi,Sindh, Street No 15 Sector 4 B Surjani Town Karachi Sindh
,Saeedabad Road,Sector 9 A,Baldia,Karachi,Sindh, Saeedabad Road Sector 9 A Baldia Karachi Sindh
,Bismillah Market Road,Sector 36 D,Landhi,Karachi,Sindh, Bismillah Market Road Sector 36 D Landhi Karachi Sindh
,7 C Road,Sector 7 B,Surjani Town,Karachi,Sindh, 7 C Road Sector 7 B Surjani Town Karachi Sindh
,Shahrah e Altaf,Sector 36 D,Landhi,Karachi,Sindh, Shahrah e Altaf Sector 36 D Landhi Karachi Sindh
,Orangi Road,Sector 2 A,Mujahidabad,Karachi,Sindh, Orangi Road Sector 2 A Mujahidabad Karachi Sindh
,Bahria Road,Sector 2,Naval Colony,Karachi,Sindh, Bahria Road Sector 2 Naval Colony Karachi Sindh
,Main Korangi Industrial Road,Moinabad 1&2,Landhi Industrial Area,Karachi,Sindh, Main Korangi Industrial Road Moinabad 1&2 Landhi Industrial Area Karachi Sindh
,Meer Road,Sector Y,Gulshan e Maymar,Karachi,Sindh, Meer Road Sector Y Gulshan e Maymar Karachi Sindh
,Sindh Hotel Road,Sector 5 J,New Karachi,Karachi,Sindh, Sindh Hotel Road Sector 5 J New Karachi Karachi Sindh
,Saeedabad Road,Block 9 D,Baldia,Karachi,Sindh, Saeedabad Road Block 9 D Baldia Karachi Sindh
,Saeedabad Road,Sector 9 C,Baldia,Karachi,Sindh, Saeedabad Road Sector 9 C Baldia Karachi Sindh
,Creek Road,Goth Lalabad,Landhi,Karachi,Sindh, Creek Road Goth Lalabad Landhi Karachi Sindh
,Attar Street No 5,Sector 4 B,Surjani Town,Karachi,Sindh, Attar Street No 5 Sector 4 B Surjani Town Karachi Sindh
,Punjab Road,Sector F,Manzoor Colony,Karachi,Sindh, Punjab Road Sector F Manzoor Colony Karachi Sindh
,Landhi Road,Bhutto Nagar,Landhi,Karachi,Sindh, Landhi Road Bhutto Nagar Landhi Karachi Sindh
,Shahi Road,Sector 3,Sindh Industrial Trading Estate (SITE),Karachi,Sindh, Shahi Road Sector 3 Sindh Industrial Trading Estate (SITE) Karachi Sindh
,Bahria Road,Sector 2,Naval Colony,Karachi,Sindh, Bahria Road Sector 2 Naval Colony Karachi Sindh
,Siddiqia Masjid Road,Sector 36 B,Landhi,Karachi,Sindh, Siddiqia Masjid Road Sector 36 B Landhi Karachi Sindh
,Street No 8,Moinabad 1&2,Landhi,Karachi,Sindh, Street No 8 Moinabad 1&2 Landhi Karachi Sindh
,Dr Muhammad Ali Shah Road,Nazimabad No 4,Nazimabad,Karachi,Sindh, Dr Muhammad Ali Shah Road Nazimabad No 4 Nazimabad Karachi Sindh
,Gaddafi Road,Sector 1 C,Mujahidabad,Karachi,Sindh, Gaddafi Road Sector 1 C Mujahidabad Karachi Sindh
,Main Korangi Industrial Road,Sector 21,Landhi,Karachi,Sindh, Main Korangi Industrial Road Sector 21 Landhi Karachi Sindh
,Kohistan Road,Gulistan Society,Quaidabad,Karachi,Sindh, Kohistan Road Gulistan Society Quaidabad Karachi Sindh
,Imam Ahmed Road,Block 6,PECHS,Karachi,Sindh, Imam Ahmed Road Block 6 PECHS Karachi Sindh
,Landhi Road,Sector 36 J,Landhi,Karachi,Sindh, Landhi Road Sector 36 J Landhi Karachi Sindh
,Shahrah e Altaf,Sector 36 D,Landhi,Karachi,Sindh, Shahrah e Altaf Sector 36 D Landhi Karachi Sindh
,Khan Liaqat Ali Khan Road,Sector 8,Baldia,Karachi,Sindh, Khan Liaqat Ali Khan Road Sector 8 Baldia Karachi Sindh
,Street No 3,Sector 4,Naval Colony,Karachi,Sindh, Street No 3 Sector 4 Naval Colony Karachi Sindh
,Sindh Hotel Road,Sector 5 J,New Karachi,Karachi,Sindh, Sindh Hotel Road Sector 5 J New Karachi Karachi Sindh
,7 C Road,Sector 7 C,Surjani Town,Karachi,Sindh, 7 C Road Sector 7 C Surjani Town Karachi Sindh
,Solangi Road,Sector 4,Baldia,Karachi,Sindh, Solangi Road Sector 4 Baldia Karachi Sindh
,Shahrah E Zahid Hussain Road,Sector 15 B,Buffer Zone,Karachi,Sindh, Shahrah E Zahid Hussain Road Sector 15 B Buffer Zone Karachi Sindh
,Street No 5,Sector 4,Naval Colony,Karachi,Sindh, Street No 5 Sector 4 Naval Colony Karachi Sindh
,National Highway,Jamal e Ibrahim Housing Society,Quaidabad,Karachi,Sindh, National Highway Jamal e Ibrahim Housing Society Quaidabad Karachi Sindh
,M Nasir Street,Nazimabad No 4,Nazimabad,Karachi,Sindh, M Nasir Street Nazimabad No 4 Nazimabad Karachi Sindh
,Shahrah e Altaf,Sector 36 D,Landhi,Karachi,Sindh, Shahrah e Altaf Sector 36 D Landhi Karachi Sindh
,Mehran Highway,Labor Colony (Landhi),Landhi,Karachi,Sindh, Mehran Highway Labor Colony (Landhi) Landhi Karachi Sindh
,Landhi Road,Bhutto Nagar,Landhi,Karachi,Sindh, Landhi Road Bhutto Nagar Landhi Karachi Sindh
,Khan Liaqat Ali Khan Road,Sector 8,Baldia,Karachi,Sindh, Khan Liaqat Ali Khan Road Sector 8 Baldia Karachi Sindh
,Kachi Abadi Street,Tekri Colony,Bath Island,Karachi,Sindh, Kachi Abadi Street Tekri Colony Bath Island Karachi Sindh
,Manghopir Road,5 L Area Qasba,Qasba Colony,Karachi,Sindh, Manghopir Road 5 L Area Qasba Qasba Colony Karachi Sindh
,Shahrah e Momin,Sector R,Gulshan e Maymar,Karachi,Sindh, Shahrah e Momin Sector R Gulshan e Maymar Karachi Sindh
,Landhi Road,Sector 37 K,Landhi,Karachi,Sindh, Landhi Road Sector 37 K Landhi Karachi Sindh
,Shahrah e Mujadid Alaf Sani,Ahsanabad,Gulzar e Hijri Scheme 33,Karachi,Sindh, Shahrah e Mujadid Alaf Sani Ahsanabad Gulzar e Hijri Scheme 33 Karachi Sindh
,Jinnah Road,Sector B,Manzoor Colony,Karachi,Sindh, Jinnah Road Sector B Manzoor Colony Karachi Sindh
,Attari Communication Road,Gulshan e Noor,Taiser Town,Karachi,Sindh, Attari Communication Road Gulshan e Noor Taiser Town Karachi Sindh
,Shahrah E Zahid Hussain Road,Sector 15 B,Buffer Zone,Karachi,Sindh, Shahrah E Zahid Hussain Road Sector 15 B Buffer Zone Karachi Sindh
,Allama Rasheed Turabi Road,Punjab Colony,Nazimabad,Karachi,Sindh, Allama Rasheed Turabi Road Punjab Colony Nazimabad Karachi Sindh
,Future Colony Main Road,Moinabad 1&2,Landhi,Karachi,Sindh, Future Colony Main Road Moinabad 1&2 Landhi Karachi Sindh
,Landhi Road,Sector 37 C,Landhi,Karachi,Sindh, Landhi Road Sector 37 C Landhi Karachi Sindh
,Landhi Road,Bhutto Nagar,Landhi,Karachi,Sindh, Landhi Road Bhutto Nagar Landhi Karachi Sindh
,Imran Khan Road,Sector 3,Sindh Industrial Trading Estate (SITE),Karachi,Sindh, Imran Khan Road Sector 3 Sindh Industrial Trading Estate (SITE) Karachi Sindh
,Shahrah e Ghalib,Block 1,Clifton,Karachi,Sindh, Shahrah e Ghalib Block 1 Clifton Karachi Sindh
,Khayaban e Saadi,Block 5,Clifton,Karachi,Sindh, Khayaban e Saadi Block 5 Clifton Karachi Sindh
,Shahrah e Ghalib,Block 1,Clifton,Karachi,Sindh, Shahrah e Ghalib Block 1 Clifton Karachi Sindh
,24th B Commercial Street,Phase 5,DHA,Karachi,Sindh, 24th B Commercial Street Phase 5 DHA Karachi Sindh
,Khayaban e Iqbal,Block 9,Clifton,Karachi,Sindh, Khayaban e Iqbal Block 9 Clifton Karachi Sindh
,Generalabad Road,Block 6,Clifton,Karachi,Sindh, Generalabad Road Block 6 Clifton Karachi Sindh
,Dawa Khan Sabir Road,Sector 4,Sindh Industrial Trading Estate (SITE),Karachi,Sindh, Dawa Khan Sabir Road Sector 4 Sindh Industrial Trading Estate (SITE) Karachi Sindh
,Khayaban e Saadi,Block 5,Clifton,Karachi,Sindh, Khayaban e Saadi Block 5 Clifton Karachi Sindh
,Rashid Minhas Road,Block 10 A,National Cement Employees CHS,Karachi,Sindh, Rashid Minhas Road Block 10 A National Cement Employees CHS Karachi Sindh
,Qaburustan Road,A Area,Qayyumabad,Karachi,Sindh, Qaburustan Road A Area Qayyumabad Karachi Sindh
,Main Market Road,Block C,Abidabad,Karachi,Sindh, Main Market Road Block C Abidabad Karachi Sindh
,12th Commercial Street,Phase 2 Commercial Area,DHA,Karachi,Sindh, 12th Commercial Street Phase 2 Commercial Area DHA Karachi Sindh
,Rashid Minhas Road,Block 10 A,Gulshan e Iqbal,Karachi,Sindh, Rashid Minhas Road Block 10 A Gulshan e Iqbal Karachi Sindh
,10th Gizri Street,Lower Gizri,Gizri,Karachi,Sindh, 10th Gizri Street Lower Gizri Gizri Karachi Sindh
,Feroz Nana Road,GOR Colony,Bath Island,Karachi,Sindh, Feroz Nana Road GOR Colony Bath Island Karachi Sindh
,University Road,Block 14,Gulshan e Iqbal,Karachi,Sindh, University Road Block 14 Gulshan e Iqbal Karachi Sindh
,Parking Area,Block 8,Clifton,Karachi,Sindh, Parking Area Block 8 Clifton Karachi Sindh
,Khayaban e Iqbal,Block 8,Clifton,Karachi,Sindh, Khayaban e Iqbal Block 8 Clifton Karachi Sindh
,Abdul Sattar Edhi Road,Block 4,Clifton,Karachi,Sindh, Abdul Sattar Edhi Road Block 4 Clifton Karachi Sindh
,Arshad Sabir Road,Block 4 A,Gulshan e Iqbal,Karachi,Sindh, Arshad Sabir Road Block 4 A Gulshan e Iqbal Karachi Sindh
,Arshad Sabri Road,Block 4 A,Gulshan e Iqbal,Karachi,Sindh, Arshad Sabri Road Block 4 A Gulshan e Iqbal Karachi Sindh
,Old Nayab Cinema Road,Nazimabad No 1,Nazimabad,Karachi,Sindh, Old Nayab Cinema Road Nazimabad No 1 Nazimabad Karachi Sindh
,Chowrangi Road,Shah Faisal Colony 1,Shah Faisal Town,Karachi,Sindh, Chowrangi Road Shah Faisal Colony 1 Shah Faisal Town Karachi Sindh
,Khanqah Road,Haji Lemo Goth,Gulshan e Iqbal,Karachi,Sindh, Khanqah Road Haji Lemo Goth Gulshan e Iqbal Karachi Sindh
,Tariq Road,Block 2,PECHS,Karachi,Sindh, Tariq Road Block 2 PECHS Karachi Sindh
,Tariq Road,Block 2,PECHS,Karachi,Sindh, Tariq Road Block 2 PECHS Karachi Sindh
,Tariq Road,Block 2,PECHS,Karachi,Sindh, Tariq Road Block 2 PECHS Karachi Sindh
,Tariq Road,Block 3,PECHS,Karachi,Sindh, Tariq Road Block 3 PECHS Karachi Sindh
,Tariq Road,Block 3,PECHS,Karachi,Sindh, Tariq Road Block 3 PECHS Karachi Sindh
,Nawab Shafiq Ahmed Road,Block 3 Delhi CHS,PECHS,Karachi,Sindh, Nawab Shafiq Ahmed Road Block 3 Delhi CHS PECHS Karachi Sindh
,Sir Syed Road,Block 2,PECHS,Karachi,Sindh, Sir Syed Road Block 2 PECHS Karachi Sindh
,Manghopir Road,Jahan Colony,Pak Colony,Karachi,Sindh, Manghopir Road Jahan Colony Pak Colony Karachi Sindh
Generation,10th Commercial Lane,Phase 5,DHA,Karachi,Sindh,Generation 10th Commercial Lane Phase 5 DHA Karachi Sindh
Makkah CNG Training Center,,Rajput Mohalla,Gulzar e Hijri Scheme 33,Karachi,Sindh,Makkah CNG Training Center  Rajput Mohalla Gulzar e Hijri Scheme 33 Karachi Sindh
Karwan e Barkat e Madina International Travel,,Phase 1,Defence View Housing Society,Karachi,Sindh,Karwan e Barkat e Madina International Travel  Phase 1 Defence View Housing Society Karachi Sindh
Riaz Estate Agency,,Phase 2,Defence View Housing Society,Karachi,Sindh,Riaz Estate Agency  Phase 2 Defence View Housing Society Karachi Sindh
Miss Factor,,Phase 6,DHA,Karachi,Sindh,Miss Factor  Phase 6 DHA Karachi Sindh
Reborn,,Phase 5,DHA,Karachi,Sindh,Reborn  Phase 5 DHA Karachi Sindh
Amin Ironwork,,Block 13 D 2,Gulshan e Iqbal,Karachi,Sindh,Amin Ironwork  Block 13 D 2 Gulshan e Iqbal Karachi Sindh
Mashallah Nimco Corners,,Phase 1,Gulshan e Hadeed,Karachi,Sindh,Mashallah Nimco Corners  Phase 1 Gulshan e Hadeed Karachi Sindh
D D General Store,,Nazimabad No 1,Nazimabad,Karachi,Sindh,D D General Store  Nazimabad No 1 Nazimabad Karachi Sindh
Zahid Tailors,,Bhitaiabad Block 9,Bhittaiabad,Karachi,Sindh,Zahid Tailors  Bhitaiabad Block 9 Bhittaiabad Karachi Sindh
Karachi Associates,,Phase 1,Gulshan e Hadeed,Karachi,Sindh,Karachi Associates  Phase 1 Gulshan e Hadeed Karachi Sindh
Gul Silk Center,,Phase 1,Gulshan e Hadeed,Karachi,Sindh,Gul Silk Center  Phase 1 Gulshan e Hadeed Karachi Sindh
Delta Laundry Services,,Phase 5,DHA,Karachi,Sindh,Delta Laundry Services  Phase 5 DHA Karachi Sindh
Mashallah Paint House,,Sector 36 C,Landhi,Karachi,Sindh,Mashallah Paint House  Sector 36 C Landhi Karachi Sindh
Fariha Mobile Lab,,Labor Colony (Landhi),Landhi,Karachi,Sindh,Fariha Mobile Lab  Labor Colony (Landhi) Landhi Karachi Sindh
Japan Comm,,Phase 2,Gulshan e Hadeed,Karachi,Sindh,Japan Comm  Phase 2 Gulshan e Hadeed Karachi Sindh
Wire Storm Innovations Pvt Ltd.,,Phase 7,DHA,Karachi,Sindh,Wire Storm Innovations Pvt Ltd.  Phase 7 DHA Karachi Sindh
Madina Auto,,Sector 4,Sindh Industrial Trading Estate (SITE),Karachi,Sindh,Madina Auto  Sector 4 Sindh Industrial Trading Estate (SITE) Karachi Sindh
Fazal e Rabbi Milk Shop,,Sukhia Goth,Gulzar e Hijri Scheme 33,Karachi,Sindh,Fazal e Rabbi Milk Shop  Sukhia Goth Gulzar e Hijri Scheme 33 Karachi Sindh
Allah Tawakkal Beef & Chicken Shop,,Phase 1,Gulshan e Hadeed,Karachi,Sindh,Allah Tawakkal Beef & Chicken Shop  Phase 1 Gulshan e Hadeed Karachi Sindh
Al Musaddiq Autos,,B Area,Qayyumabad,Karachi,Sindh,Al Musaddiq Autos  B Area Qayyumabad Karachi Sindh
Al Hafiz Timber Mart,,Sector 2,Sindh Industrial Trading Estate (SITE),Karachi,Sindh,Al Hafiz Timber Mart  Sector 2 Sindh Industrial Trading Estate (SITE) Karachi Sindh
Hatim Hardware,,Block C,North Nazimabad,Karachi,Sindh,Hatim Hardware  Block C North Nazimabad Karachi Sindh
Jeddah Matching Center,,Block 15,Federal B Area (Gulberg),Karachi,Sindh,Jeddah Matching Center  Block 15 Federal B Area (Gulberg) Karachi Sindh
Noor Autos,,Sector 11 A,Gulzar e Hijri Scheme 33,Karachi,Sindh,Noor Autos  Sector 11 A Gulzar e Hijri Scheme 33 Karachi Sindh
Pakistan Store,,Lower Gizri,Gizri,Karachi,Sindh,Pakistan Store  Lower Gizri Gizri Karachi Sindh
Abdul Majeed Autos,,Block 9,Gulistan e Jauhar,Karachi,Sindh,Abdul Majeed Autos  Block 9 Gulistan e Jauhar Karachi Sindh
Farooq Electric Store,,Block 19,Federal B Area (Gulberg),Karachi,Sindh,Farooq Electric Store  Block 19 Federal B Area (Gulberg) Karachi Sindh
Home Ways Motor Training School,,Block N,North Nazimabad,Karachi,Sindh,Home Ways Motor Training School  Block N North Nazimabad Karachi Sindh
New Bright Decoration,,Peoples Colony Shah Faisal,Shah Faisal Town,Karachi,Sindh,New Bright Decoration  Peoples Colony Shah Faisal Shah Faisal Town Karachi Sindh
New Stationery & Photostat,,Block 19,Federal B Area (Gulberg),Karachi,Sindh,New Stationery & Photostat  Block 19 Federal B Area (Gulberg) Karachi Sindh
Zong Franchise,,Block D,North Nazimabad,Karachi,Sindh,Zong Franchise  Block D North Nazimabad Karachi Sindh
M Waqar Trade Center,,Phase 6,DHA,Karachi,Sindh,M Waqar Trade Center  Phase 6 DHA Karachi Sindh
Al Rehman Grammar School,,Bhitaiabad Block 9,Bhittaiabad,Karachi,Sindh,Al Rehman Grammar School  Bhitaiabad Block 9 Bhittaiabad Karachi Sindh
Al Dabeer Machinery,,Block 19,Federal B Area (Gulberg),Karachi,Sindh,Al Dabeer Machinery  Block 19 Federal B Area (Gulberg) Karachi Sindh
Bismillah Ironworks,,Sector 16 A,Buffer Zone,Karachi,Sindh,Bismillah Ironworks  Sector 16 A Buffer Zone Karachi Sindh
Regional Office Provincial Ombudsman,,Musa Colony,Federal B Area (Gulberg),Karachi,Sindh,Regional Office Provincial Ombudsman  Musa Colony Federal B Area (Gulberg) Karachi Sindh
Saqib Autos,,Darakhshan CHS,Kala Board,Karachi,Sindh,Saqib Autos  Darakhshan CHS Kala Board Karachi Sindh
Al Sheikh Compressor Center,,Saudabad S3,Saudabad,Karachi,Sindh,Al Sheikh Compressor Center  Saudabad S3 Saudabad Karachi Sindh
Madina Medicos & General Store,,Khokhrapar 1,Khokhrapar,Karachi,Sindh,Madina Medicos & General Store  Khokhrapar 1 Khokhrapar Karachi Sindh
Abdul Ghafoor Medical Store,,Ahmed Ali Colony,Kachi Colony Malir,Karachi,Sindh,Abdul Ghafoor Medical Store  Ahmed Ali Colony Kachi Colony Malir Karachi Sindh
Mughal Traders,,Block E,North Nazimabad,Karachi,Sindh,Mughal Traders  Block E North Nazimabad Karachi Sindh
Abbasi Store,,Block E,North Nazimabad,Karachi,Sindh,Abbasi Store  Block E North Nazimabad Karachi Sindh
Akhtar Chicken Center,,Block N,North Nazimabad,Karachi,Sindh,Akhtar Chicken Center  Block N North Nazimabad Karachi Sindh
Waiz Computers,,Block M,North Nazimabad,Karachi,Sindh,Waiz Computers  Block M North Nazimabad Karachi Sindh
Al Madina Garments,,Block G,North Nazimabad,Karachi,Sindh,Al Madina Garments  Block G North Nazimabad Karachi Sindh
Shahid & Bros Furniture,,Block 16,Federal B Area (Gulberg),Karachi,Sindh,Shahid & Bros Furniture  Block 16 Federal B Area (Gulberg) Karachi Sindh
Karam Ceramics Tiles,,Block 16,Federal B Area (Gulberg),Karachi,Sindh,Karam Ceramics Tiles  Block 16 Federal B Area (Gulberg) Karachi Sindh
Khayam Garments,,Block 16,Federal B Area (Gulberg),Karachi,Sindh,Khayam Garments  Block 16 Federal B Area (Gulberg) Karachi Sindh
Muhammadi Oil Depot,,Block 16,Federal B Area (Gulberg),Karachi,Sindh,Muhammadi Oil Depot  Block 16 Federal B Area (Gulberg) Karachi Sindh
New Al Karim Rice Store,,Block 16,Federal B Area (Gulberg),Karachi,Sindh,New Al Karim Rice Store  Block 16 Federal B Area (Gulberg) Karachi Sindh
Suzuki Parts Center,,Block 16,Federal B Area (Gulberg),Karachi,Sindh,Suzuki Parts Center  Block 16 Federal B Area (Gulberg) Karachi Sindh
Steel Blocks Work & Company Store,,Block 16,Federal B Area (Gulberg),Karachi,Sindh,Steel Blocks Work & Company Store  Block 16 Federal B Area (Gulberg) Karachi Sindh
AS Tailors Imran,,Block 9,Federal B Area (Gulberg),Karachi,Sindh,AS Tailors Imran  Block 9 Federal B Area (Gulberg) Karachi Sindh
Humera Flower Shop,,Block 2,Federal B Area (Gulberg),Karachi,Sindh,Humera Flower Shop  Block 2 Federal B Area (Gulberg) Karachi Sindh
Bismillah Autos & Spare Parts,,Sector 39,Korangi,Karachi,Sindh,Bismillah Autos & Spare Parts  Sector 39 Korangi Karachi Sindh
Subhanallah Autos Carpenter,,Sector 32 E,Korangi,Karachi,Sindh,Subhanallah Autos Carpenter  Sector 32 E Korangi Karachi Sindh
Jubilee Enterprises Estate,,Block 7,Federal B Area (Gulberg),Karachi,Sindh,Jubilee Enterprises Estate  Block 7 Federal B Area (Gulberg) Karachi Sindh
New Style Hair Salon,,Nazimabad No 1,Nazimabad,Karachi,Sindh,New Style Hair Salon  Nazimabad No 1 Nazimabad Karachi Sindh
Syed Medical Store,,Nazimabad No 3,Nazimabad,Karachi,Sindh,Syed Medical Store  Nazimabad No 3 Nazimabad Karachi Sindh
Golden Diamond Traders,,Block 19,Gulistan e Jauhar,Karachi,Sindh,Golden Diamond Traders  Block 19 Gulistan e Jauhar Karachi Sindh
British School,,Block 4,Clifton,Karachi,Sindh,British School  Block 4 Clifton Karachi Sindh
LG Electronics,,Sector 34 A,Gulzar e Hijri Scheme 33,Karachi,Sindh,LG Electronics  Sector 34 A Gulzar e Hijri Scheme 33 Karachi Sindh
Happitots Montessori,,Gulshan e Kaneez Fatima,Gulzar e Hijri Scheme 33,Karachi,Sindh,Happitots Montessori  Gulshan e Kaneez Fatima Gulzar e Hijri Scheme 33 Karachi Sindh
Student Paradise Secondary School,,Sector 7D/4,North Karachi,Karachi,Sindh,Student Paradise Secondary School  Sector 7D/4 North Karachi Karachi Sindh
Orion Motor,,Phase 1,DHA,Karachi,Sindh,Orion Motor  Phase 1 DHA Karachi Sindh
Amir Corp. LG,,Sector 15 A 4,Buffer Zone,Karachi,Sindh,Amir Corp. LG  Sector 15 A 4 Buffer Zone Karachi Sindh
Saba's Beauty Parlour,,Sector 11 I,North Karachi,Karachi,Sindh,Saba's Beauty Parlour  Sector 11 I North Karachi Karachi Sindh
West Wind States Apartment,,Block 2,Clifton,Karachi,Sindh,West Wind States Apartment  Block 2 Clifton Karachi Sindh
The Kids College School,,Sector 33 E,Korangi,Karachi,Sindh,The Kids College School  Sector 33 E Korangi Karachi Sindh
ATM ABL,,Phase 5,DHA,Karachi,Sindh,ATM ABL  Phase 5 DHA Karachi Sindh
ATM Silk Bank,,Block 6,PECHS,Karachi,Sindh,ATM Silk Bank  Block 6 PECHS Karachi Sindh
Pak. Assn. Of Scientific Professional Ce,,Block 5,Gulshan e Iqbal,Karachi,Sindh,Pak. Assn. Of Scientific Professional Ce  Block 5 Gulshan e Iqbal Karachi Sindh
Zong Franchise,,Block E,North Nazimabad,Karachi,Sindh,Zong Franchise  Block E North Nazimabad Karachi Sindh
Orange Electric,,Upper Gizri,Gizri,Karachi,Sindh,Orange Electric  Upper Gizri Gizri Karachi Sindh
Hashmi Autos Mart,,Block 2,PECHS,Karachi,Sindh,Hashmi Autos Mart  Block 2 PECHS Karachi Sindh
Millac Milk Shop,,Block 17,Gulistan e Jauhar,Karachi,Sindh,Millac Milk Shop  Block 17 Gulistan e Jauhar Karachi Sindh
Warid Franchise,,Block 20,Gulistan e Jauhar,Karachi,Sindh,Warid Franchise  Block 20 Gulistan e Jauhar Karachi Sindh
Delta Cable Net Work,,Phase 7,DHA,Karachi,Sindh,Delta Cable Net Work  Phase 7 DHA Karachi Sindh
Japan Autos,,Block 13,Gulistan e Jauhar,Karachi,Sindh,Japan Autos  Block 13 Gulistan e Jauhar Karachi Sindh
New Star Electronics,,Block 3,PECHS,Karachi,Sindh,New Star Electronics  Block 3 PECHS Karachi Sindh
Rising Star Early Learning Center,,Sector 10,North Karachi,Karachi,Sindh,Rising Star Early Learning Center  Sector 10 North Karachi Karachi Sindh
Star Jewellers,,Block 2,PECHS,Karachi,Sindh,Star Jewellers  Block 2 PECHS Karachi Sindh
The Lady Shoes,,Block 2,PECHS,Karachi,Sindh,The Lady Shoes  Block 2 PECHS Karachi Sindh
Quick Car AC,,Block 2,PECHS,Karachi,Sindh,Quick Car AC  Block 2 PECHS Karachi Sindh
Kashiana e Rehmat,,Block 3 Darul Aman Society,PECHS,Karachi,Sindh,Kashiana e Rehmat  Block 3 Darul Aman Society PECHS Karachi Sindh
M Bashir Munnu House,,Block 3 Darul Aman Society,PECHS,Karachi,Sindh,M Bashir Munnu House  Block 3 Darul Aman Society PECHS Karachi Sindh
Madrassa Al Banat,,Block 7/8 Karachi Memon Society,PECHS,Karachi,Sindh,Madrassa Al Banat  Block 7/8 Karachi Memon Society PECHS Karachi Sindh
Brain Net Online,,Block 6,PECHS,Karachi,Sindh,Brain Net Online  Block 6 PECHS Karachi Sindh
Zubaida Estate,,Block B Shabbirabad Society,Shabbirabad,Karachi,Sindh,Zubaida Estate  Block B Shabbirabad Society Shabbirabad Karachi Sindh
Art View,,Phase 5,DHA,Karachi,Sindh,Art View  Phase 5 DHA Karachi Sindh
Ghausia Electric Store,,Phase 5,DHA,Karachi,Sindh,Ghausia Electric Store  Phase 5 DHA Karachi Sindh
Collection Designer,,Phase 6,DHA,Karachi,Sindh,Collection Designer  Phase 6 DHA Karachi Sindh
Fashion Designer,,Phase 6,DHA,Karachi,Sindh,Fashion Designer  Phase 6 DHA Karachi Sindh
Nancy Engineering & Services,,Phase 5,DHA,Karachi,Sindh,Nancy Engineering & Services  Phase 5 DHA Karachi Sindh
Realtor Estate Agents,,Block 8,Clifton,Karachi,Sindh,Realtor Estate Agents  Block 8 Clifton Karachi Sindh
Jazz,,Block H,North Nazimabad,Karachi,Sindh,Jazz  Block H North Nazimabad Karachi Sindh
Bismillah Garments,,Block 2,PECHS,Karachi,Sindh,Bismillah Garments  Block 2 PECHS Karachi Sindh
Masky Autos,,Block 7,Gulshan e Iqbal,Karachi,Sindh,Masky Autos  Block 7 Gulshan e Iqbal Karachi Sindh
A Lace Boutique,,Block 13 D 1,Gulshan e Iqbal,Karachi,Sindh,A Lace Boutique  Block 13 D 1 Gulshan e Iqbal Karachi Sindh
Abba Good Luck Autos,,Sector 11 E,North Karachi,Karachi,Sindh,Abba Good Luck Autos  Sector 11 E North Karachi Karachi Sindh
Abdul Malik General Store,Anees Bakers Street,Block 2,Liaquatabad,Karachi,Sindh,Abdul Malik General Store Anees Bakers Street Block 2 Liaquatabad Karachi Sindh
Abuzar General Store,Punjab Town Road,Golden Town,Shah Faisal Town,Karachi,Sindh,Abuzar General Store Punjab Town Road Golden Town Shah Faisal Town Karachi Sindh
Ahmed Autos,Shahrah e Faisal,Moria Khan Goth,Shah Faisal Town,Karachi,Sindh,Ahmed Autos Shahrah e Faisal Moria Khan Goth Shah Faisal Town Karachi Sindh
Ahmed General Store,Aligarh Road,Sector 7 A,Orangi,Karachi,Sindh,Ahmed General Store Aligarh Road Sector 7 A Orangi Karachi Sindh
Akbar Qureshi Hotel,Shahrah e Maulana Shaukat Ali,Sector 5 J,New Karachi,Karachi,Sindh,Akbar Qureshi Hotel Shahrah e Maulana Shaukat Ali Sector 5 J New Karachi Karachi Sindh
Al Hadi Paint & Hardware,"Rafah e Aam Society Road
",Rafah e Aam Society,Shah Faisal Town,Karachi,Sindh,"Al Hadi Paint & Hardware Rafah e Aam Society Road
 Rafah e Aam Society Shah Faisal Town Karachi Sindh"
Al Hamd Chakki Masala Shop,City Bakery Street,Block 17,Gulistan e Jauhar,Karachi,,Al Hamd Chakki Masala Shop City Bakery Street Block 17 Gulistan e Jauhar Karachi 
Al Karim Jewellers,36th Street,Block 6,Liaquatabad,Karachi,,Al Karim Jewellers 36th Street Block 6 Liaquatabad Karachi 
Al Rehman Al Raheem Furniture,Sehba Akhtar Road,Block 13 D 2,Gulshan e Iqbal,Karachi,,Al Rehman Al Raheem Furniture Sehba Akhtar Road Block 13 D 2 Gulshan e Iqbal Karachi 
Ali Electronics,Phool Wali Gali,Sector 11 E,Muhammad Nagar,Karachi,,Ali Electronics Phool Wali Gali Sector 11 E Muhammad Nagar Karachi 
Aman Booking Office,Landhi Road,Allahwala Town,Korangi,Karachi,,Aman Booking Office Landhi Road Allahwala Town Korangi Karachi 
Arman Jee Electronics,SM Taufiq Road,Block 10,Liaquatabad,Karachi,,Arman Jee Electronics SM Taufiq Road Block 10 Liaquatabad Karachi 
Ashraf Furniture,Sir Shah Suleman Road,Old Golimar,Liaquatabad,Karachi,,Ashraf Furniture Sir Shah Suleman Road Old Golimar Liaquatabad Karachi 
Ashrafi Book Shop,Shamsuddin Road,Shah Faisal Colony 3,Shah Faisal Town,Karachi,,Ashrafi Book Shop Shamsuddin Road Shah Faisal Colony 3 Shah Faisal Town Karachi 
B R Refrigeration Service Center,Service Road,Sector 5 M,New Karachi,Karachi,,B R Refrigeration Service Center Service Road Sector 5 M New Karachi Karachi 
Badshah Chicken Center,Shahrah e Usman,Sector 11 K,North Karachi,Karachi,,Badshah Chicken Center Shahrah e Usman Sector 11 K North Karachi Karachi 
Batool Arcade,University Road,Block 13 B,Gulshan e Iqbal,Karachi,,Batool Arcade University Road Block 13 B Gulshan e Iqbal Karachi 
Bilal Autos Engineering Works,Shahrah e Maulana Muhammad Ali Jauhar,Sector 5 M,New Karachi,Karachi,,Bilal Autos Engineering Works Shahrah e Maulana Muhammad Ali Jauhar Sector 5 M New Karachi Karachi 
Binoria Cold Drink,Jamia Binoria Road,Metroville,Sindh Industrial Trading Estate (SITE),Karachi,,Binoria Cold Drink Jamia Binoria Road Metroville Sindh Industrial Trading Estate (SITE) Karachi 
Bismillah Autos,Memon Goth Road,Soomar Kandhani Goth,Gadap,Karachi,,Bismillah Autos Memon Goth Road Soomar Kandhani Goth Gadap Karachi 
Bismillah Cool Refrigerators Center,Green Town Pather Road,Green Town,Shah Faisal Town,Karachi,,Bismillah Cool Refrigerators Center Green Town Pather Road Green Town Shah Faisal Town Karachi 
Bismillah Ironworks,Anda Mor Road,Sector 11 C 3,North Karachi,Karachi,,Bismillah Ironworks Anda Mor Road Sector 11 C 3 North Karachi Karachi 
Danish Music Center,Qatar Hospital Road,Sector 15 A,Orangi,Karachi,,Danish Music Center Qatar Hospital Road Sector 15 A Orangi Karachi 
Danish Confectionery & General Store,Street 6,Block 1,Gulshan e Iqbal,Karachi,,Danish Confectionery & General Store Street 6 Block 1 Gulshan e Iqbal Karachi 
Expo Center Bus Stop,University Road,Block 13 A,Gulshan e Iqbal,Karachi,,Expo Center Bus Stop University Road Block 13 A Gulshan e Iqbal Karachi 
Farooq Dairy Farm,Shahrah e Maulana Shaukat Ali,Sector 5 G,New Karachi,Karachi,,Farooq Dairy Farm Shahrah e Maulana Shaukat Ali Sector 5 G New Karachi Karachi 
Grace Aluminium & Glass Works,Moulana Yousuf Ludhianwi Shaheed Road,Post Office Society Sector 13 A,Gulzar e Hijri Scheme 33,Karachi,,Grace Aluminium & Glass Works Moulana Yousuf Ludhianwi Shaheed Road Post Office Society Sector 13 A Gulzar e Hijri Scheme 33 Karachi 
Greek City School,Kiran Hospital Road,Sector 38 A,Gulzar e Hijri Scheme 33,Karachi,,Greek City School Kiran Hospital Road Sector 38 A Gulzar e Hijri Scheme 33 Karachi 
Hasnain Book,Rashid Minhas Road,Block 3,Gulshan e Iqbal,Karachi,,Hasnain Book Rashid Minhas Road Block 3 Gulshan e Iqbal Karachi 
Ibn e Shah Park,27th Street,Block 4,Clifton,Karachi,,Ibn e Shah Park 27th Street Block 4 Clifton Karachi 
Imran General Store,Shahrah e Orangi,Raees Amrohi Colony,Chishti Nagar,Karachi,,Imran General Store Shahrah e Orangi Raees Amrohi Colony Chishti Nagar Karachi 
Iqbal Autos & Spare Parts,Pehlwan Goth Road,Bakhtawar Goth,Gulistan e Jauhar,Karachi,,Iqbal Autos & Spare Parts Pehlwan Goth Road Bakhtawar Goth Gulistan e Jauhar Karachi 
Islam Autos & Spare Parts,Bahadur Ali Road,Sector 5 G,New Karachi,Karachi,,Islam Autos & Spare Parts Bahadur Ali Road Sector 5 G New Karachi Karachi 
Jubilee Insurance,Jauhar Road,Block 19,Gulistan e Jauhar,Karachi,,Jubilee Insurance Jauhar Road Block 19 Gulistan e Jauhar Karachi 
Karachi Autos & Oil Traders,Shahrah e Maulana Muhammad Ali Jauhar,Sector 5 E,New Karachi,Karachi,,Karachi Autos & Oil Traders Shahrah e Maulana Muhammad Ali Jauhar Sector 5 E New Karachi Karachi 
Kb General Store,Huzaifa Street,Sector 34 A,Gulzar e Hijri Scheme 33,Karachi,,Kb General Store Huzaifa Street Sector 34 A Gulzar e Hijri Scheme 33 Karachi 
Khurram Comm,Iqbalabad Road,Drigh Colony,Shah Faisal Town,Karachi,,Khurram Comm Iqbalabad Road Drigh Colony Shah Faisal Town Karachi 
Life Style Hair Salon,Central Street,Sector 11 I,North Karachi,Karachi,,Life Style Hair Salon Central Street Sector 11 I North Karachi Karachi 
Madina Service Station,Sehba Akhtar Road,Block 13 D 3,Gulshan e Iqbal,Karachi,,Madina Service Station Sehba Akhtar Road Block 13 D 3 Gulshan e Iqbal Karachi 
Majeed Ironworks,Bearing Street,C Area,Liaquatabad,Karachi,,Majeed Ironworks Bearing Street C Area Liaquatabad Karachi 
Mahreen View,Rukunuddin Street,Nazimabad No 4,Nazimabad,Karachi,,Mahreen View Rukunuddin Street Nazimabad No 4 Nazimabad Karachi 
Makkah Tyre Shop,Kalyana Town Road,Sector 10,North Karachi,Karachi,,Makkah Tyre Shop Kalyana Town Road Sector 10 North Karachi Karachi 
Mashallah Auto Parts,Street Number 4,Sector 10,Hanifabad,Karachi,,Mashallah Auto Parts Street Number 4 Sector 10 Hanifabad Karachi 
Mashallah Oil Depot,Al-Amna Avenue,Sector 5 C 3,New Karachi,Karachi,,Mashallah Oil Depot Al-Amna Avenue Sector 5 C 3 New Karachi Karachi 
New Madina Jewellers,KB Road,Bhitaiabad Block 9,Bhittaiabad,Karachi,,New Madina Jewellers KB Road Bhitaiabad Block 9 Bhittaiabad Karachi 
Nida Chappal Store,Shahrah e Maulana Shaukat Ali,Sector 5 F,New Karachi,Karachi,,Nida Chappal Store Shahrah e Maulana Shaukat Ali Sector 5 F New Karachi Karachi 
Owais Autos,Road No 6,Sector 5 F,New Karachi,Karachi,,Owais Autos Road No 6 Sector 5 F New Karachi Karachi 
Pakistan Fitness Club,Tabish Dehalvi Road,Nazimabad No 3,Nazimabad,Karachi,,Pakistan Fitness Club Tabish Dehalvi Road Nazimabad No 3 Nazimabad Karachi 
Rais Electric Store,Qadri Masjid Road,Sector 5 F,New Karachi,Karachi,,Rais Electric Store Qadri Masjid Road Sector 5 F New Karachi Karachi 
Rehan Autos & Spare Parts,Shahrah e Shabbir Ahmed Usmani,Sector 43 B,Landhi,Karachi,,Rehan Autos & Spare Parts Shahrah e Shabbir Ahmed Usmani Sector 43 B Landhi Karachi 
Saleem General Store,Street 1,Gulshan e Malir,Shah Faisal Town,Karachi,,Saleem General Store Street 1 Gulshan e Malir Shah Faisal Town Karachi 
Shah Jee Estate Agency,Jamia Millia Road,Gulshan e Malir,Shah Faisal Town,Karachi,,Shah Jee Estate Agency Jamia Millia Road Gulshan e Malir Shah Faisal Town Karachi 
Sami Autos,Qatar Hospital Road,Sector 15 A,Orangi,Karachi,,Sami Autos Qatar Hospital Road Sector 15 A Orangi Karachi 
Shahbaz Estate & PCO,Moulana Yousuf Ludhianwi Shaheed Road,Metrovil 14 Block 1/1,Metrovil Colony,Karachi,,Shahbaz Estate & PCO Moulana Yousuf Ludhianwi Shaheed Road Metrovil 14 Block 1/1 Metrovil Colony Karachi 
Sheikh Cloth Corner,Railway Pool Road,Block 13 A,Gulshan e Iqbal,Karachi,,Sheikh Cloth Corner Railway Pool Road Block 13 A Gulshan e Iqbal Karachi 
Sohil Autos Exchange Showroom,Naseer ul Haq Road,Sector 11 E,North Karachi,Karachi,,Sohil Autos Exchange Showroom Naseer ul Haq Road Sector 11 E North Karachi Karachi 
Subhanallah Furniture,Cantonment Graveyard Road,Block 18,Gulistan e Jauhar,Karachi,,Subhanallah Furniture Cantonment Graveyard Road Block 18 Gulistan e Jauhar Karachi 
Umar Estate,Korangi Industrial Area Link Road,Allahwala Town,Korangi,Karachi,,Umar Estate Korangi Industrial Area Link Road Allahwala Town Korangi Karachi 
Timing Crockery & Gift Center,Jauhar Road,Block 17,Gulistan e Jauhar,Karachi,,Timing Crockery & Gift Center Jauhar Road Block 17 Gulistan e Jauhar Karachi 
Younus Comm,Anum Uzair Shaheed Road,Block 13 B,Gulshan e Iqbal,Karachi,,Younus Comm Anum Uzair Shaheed Road Block 13 B Gulshan e Iqbal Karachi 
Yousuf Engineering Works,Shahrah e Mufti Shafi,Sector 35 B,Landhi,Karachi,,Yousuf Engineering Works Shahrah e Mufti Shafi Sector 35 B Landhi Karachi 
Aiman Digital Photo Studio,Saeedabad Road,Block 9 D,Baldia,Karachi,,Aiman Digital Photo Studio Saeedabad Road Block 9 D Baldia Karachi 
Al Ahmed Chicken Center,7th Street,Sector Z,Gulshan e Maymar,Karachi,,Al Ahmed Chicken Center 7th Street Sector Z Gulshan e Maymar Karachi 
Al Rehmat Estate,Punjab Road,Sector E,Manzoor Colony,Karachi,,Al Rehmat Estate Punjab Road Sector E Manzoor Colony Karachi 
Aqsa Mobile Shop,Shahrah e Maulana Shaukat Ali,Sector 5 G,New Karachi,Karachi,,Aqsa Mobile Shop Shahrah e Maulana Shaukat Ali Sector 5 G New Karachi Karachi 
Arif Autos,Landhi Road,Sector 36 D,Landhi,Karachi,,Arif Autos Landhi Road Sector 36 D Landhi Karachi 
Aurangzeb Autos,Mehmoodabad Road,Block 8,KAECHS,Karachi,,Aurangzeb Autos Mehmoodabad Road Block 8 KAECHS Karachi 
Babar Autos,Landhi Road,Sector 37 B,Landhi,Karachi,,Babar Autos Landhi Road Sector 37 B Landhi Karachi 
Basit Toy Center,1st Street,Sector Z A,Gulshan e Maymar,Karachi,,Basit Toy Center 1st Street Sector Z A Gulshan e Maymar Karachi 
Bilal Autos,Mehran Highway,Labor Colony (Landhi),Landhi,Karachi,,Bilal Autos Mehran Highway Labor Colony (Landhi) Landhi Karachi 
Bismillah Autos,Altaf Hussain Road,Sector 5,Sector 5,Karachi,,Bismillah Autos Altaf Hussain Road Sector 5 Sector 5 Karachi 
Bismillah Chicken Corner,Mehmoodabad Road,Block 8,KAECHS,Karachi,,Bismillah Chicken Corner Mehmoodabad Road Block 8 KAECHS Karachi 
Bismillah Electric Store,Khan Liaqat Ali Khan Road,Sector 9 C,Baldia,Karachi,,Bismillah Electric Store Khan Liaqat Ali Khan Road Sector 9 C Baldia Karachi 
Fahad Dry Cleaners,Babu Noor Road,Gulshan e Habib,Sector 5,Karachi,,Fahad Dry Cleaners Babu Noor Road Gulshan e Habib Sector 5 Karachi 
Gate Hussaini Textile Mills,Adam Jee Road,Mehmood Nagar,Landhi,Karachi,,Gate Hussaini Textile Mills Adam Jee Road Mehmood Nagar Landhi Karachi 
Ghausia Sanitary And Hardware Store,Selani Road,Sector 5 E,New Karachi,Karachi,,Ghausia Sanitary And Hardware Store Selani Road Sector 5 E New Karachi Karachi 
Hamza Electric Works,Kachi Abadi Street,Tekri Colony,Bath Island,Karachi,,Hamza Electric Works Kachi Abadi Street Tekri Colony Bath Island Karachi 
Hijab Medical & General Store,Shahrah e Waqas,Sector A 3,Qaddafi Colony,Karachi,,Hijab Medical & General Store Shahrah e Waqas Sector A 3 Qaddafi Colony Karachi 
Ibrahim Woodwork,Sir Syed Ahmed Khan Road,Sector C,Manzoor Colony,Karachi,,Ibrahim Woodwork Sir Syed Ahmed Khan Road Sector C Manzoor Colony Karachi 
Karim Digital Photo Studio,Talha Awan Road,Sector 5 J,Sector 5,Karachi,,Karim Digital Photo Studio Talha Awan Road Sector 5 J Sector 5 Karachi 
Khurram Electric Store,Korangi Shahfaisal Road,Sector 35 B,Landhi,Karachi,,Khurram Electric Store Korangi Shahfaisal Road Sector 35 B Landhi Karachi 
King Autos,Nizamuddin Aulia Road,Block 7,KAECHS,Karachi,,King Autos Nizamuddin Aulia Road Block 7 KAECHS Karachi 
Lodhi Estate Agency,Shahrah E Zahid Hussain Road,Sector 15 B,Buffer Zone,Karachi,,Lodhi Estate Agency Shahrah E Zahid Hussain Road Sector 15 B Buffer Zone Karachi 
Madina Autos,Landhi Road,Sector 37 B,Landhi,Karachi,,Madina Autos Landhi Road Sector 37 B Landhi Karachi 
Machine Embroidery Thread,Nizamuddin Aulia Road,Block 7,KAECHS,Karachi,,Machine Embroidery Thread Nizamuddin Aulia Road Block 7 KAECHS Karachi 
Madina Ironworks,Allah Rakha Road,Sector 36 J,Landhi,Karachi,,Madina Ironworks Allah Rakha Road Sector 36 J Landhi Karachi 
Moheed Cooking Oil Depot,Landhi Road,Sector 37 K,Landhi,Karachi,,Moheed Cooking Oil Depot Landhi Road Sector 37 K Landhi Karachi 
Mubarak Electric & Electronics Shop,Landhi Road,Moinabad 1&2,Landhi,Karachi,,Mubarak Electric & Electronics Shop Landhi Road Moinabad 1&2 Landhi Karachi 
Nomi Dry Cleaners,25-26 Street,Block 2,PECHS,Karachi,,Nomi Dry Cleaners 25-26 Street Block 2 PECHS Karachi 
Nizam Garments,Bismillah Chowk Road,Sector 4,Baldia,Karachi,,Nizam Garments Bismillah Chowk Road Sector 4 Baldia Karachi 
Pak Stationery Mart,Street No 12,Sector 4,Naval Colony,Karachi,,Pak Stationery Mart Street No 12 Sector 4 Naval Colony Karachi 
Pak Asia Comm,Adam Jee Road,Mehmood Nagar,Landhi,Karachi,,Pak Asia Comm Adam Jee Road Mehmood Nagar Landhi Karachi 
Pakistan Comm,Landhi Road,Moinabad 1&2,Landhi Industrial Area,Karachi,,Pakistan Comm Landhi Road Moinabad 1&2 Landhi Industrial Area Karachi 
Rehman Medical Store,Mehran Highway,Bilal Colony,Landhi,Karachi,,Rehman Medical Store Mehran Highway Bilal Colony Landhi Karachi 
Rameez Dry Cleaners,Lyari Basti Road,Lyari Basti,Taiser Town,Karachi,,Rameez Dry Cleaners Lyari Basti Road Lyari Basti Taiser Town Karachi 
Saad Marble Works,IB Soomro Avenue,Sector 52 A,Gulzar e Hijri Scheme 33,Karachi,,Saad Marble Works IB Soomro Avenue Sector 52 A Gulzar e Hijri Scheme 33 Karachi 
Salsabeel General Store,Bhittai Avenue,Sector X,Gulshan e Maymar,Karachi,,Salsabeel General Store Bhittai Avenue Sector X Gulshan e Maymar Karachi 
Sartaj Petroleum Service,Faqir Colony Road,Block A,Baldia,Karachi,,Sartaj Petroleum Service Faqir Colony Road Block A Baldia Karachi 
Shahabuddin Hair Salon,Khan Liaqat Ali Khan Road,Sector 8,Baldia,Karachi,,Shahabuddin Hair Salon Khan Liaqat Ali Khan Road Sector 8 Baldia Karachi 
Shah Lab,Landhi Road,Sector 36 D,Landhi,Karachi,,Shah Lab Landhi Road Sector 36 D Landhi Karachi 
Subhanallah Cool Point,Saeedabad Road,Sector 9 B,Baldia,Karachi,,Subhanallah Cool Point Saeedabad Road Sector 9 B Baldia Karachi 
Sufyan Autos,Mehran Highway,Labor Colony (Landhi),Landhi,Karachi,,Sufyan Autos Mehran Highway Labor Colony (Landhi) Landhi Karachi 
Super Comm,Landhi Road,Bhutto Nagar,Landhi,Karachi,,Super Comm Landhi Road Bhutto Nagar Landhi Karachi 
Talha Furniture,Qudoos Ghauri Road,Nazimabad No 4,Nazimabad,Karachi,,Talha Furniture Qudoos Ghauri Road Nazimabad No 4 Nazimabad Karachi 
Western Union,19th East Street,Phase 1,DHA,Karachi,,Western Union 19th East Street Phase 1 DHA Karachi 
The Base Model Academy,2nd Lane,Sector Z A,Gulshan e Maymar,Karachi,,The Base Model Academy 2nd Lane Sector Z A Gulshan e Maymar Karachi 
Bilal Electric & Engineering Works,Allama Shah Ahmed Noorani Road,Sector 35 A,Korangi,Karachi,,Bilal Electric & Engineering Works Allama Shah Ahmed Noorani Road Sector 35 A Korangi Karachi 
Easypaisa,Street No 16,C Area,Qayyumabad,Karachi,,Easypaisa Street No 16 C Area Qayyumabad Karachi 
Faisal Hardware & Electric Store,Street No 16,Block 32,Bhutta,Karachi,,Faisal Hardware & Electric Store Street No 16 Block 32 Bhutta Karachi 
Ideal Burger,27th Commercial Street,Phase 5,DHA,Karachi,,Ideal Burger 27th Commercial Street Phase 5 DHA Karachi 
Jillani General Store,27th Commercial Street,Phase 5,DHA,Karachi,,Jillani General Store 27th Commercial Street Phase 5 DHA Karachi 
Kashif Autos,Ittehad Town Naval Colony Road,Saeedullah Goth,Keamari,Karachi,,Kashif Autos Ittehad Town Naval Colony Road Saeedullah Goth Keamari Karachi 
Khan Autos,Saba Commercial Street No 3,Phase 5,DHA,Karachi,,Khan Autos Saba Commercial Street No 3 Phase 5 DHA Karachi 
Lego Construction Land Consultant & Builders,37th Commercial Street,Phase 5,DHA,Karachi,,Lego Construction Land Consultant & Builders 37th Commercial Street Phase 5 DHA Karachi 
Madrassa Hidayatul Quran,Arfat Road,Block 2,Gulshan e Sikandarabad,Karachi,,Madrassa Hidayatul Quran Arfat Road Block 2 Gulshan e Sikandarabad Karachi 
Maroof Engineering Works,Noor Deen Khan Road,Goth Shaikhan,Bhutta,Karachi,,Maroof Engineering Works Noor Deen Khan Road Goth Shaikhan Bhutta Karachi 
Mashallah Electric Store,Allama Shah Ahmed Noorani Road,Sector 35 A,Korangi,Karachi,,Mashallah Electric Store Allama Shah Ahmed Noorani Road Sector 35 A Korangi Karachi 
Rafiq Crockery Plastic Store,Abidabad Road,Block D,Abidabad,Karachi,,Rafiq Crockery Plastic Store Abidabad Road Block D Abidabad Karachi 
Super Power Autos,Street No 16,C Area,Qayyumabad,Karachi,,Super Power Autos Street No 16 C Area Qayyumabad Karachi 
Taj Medical & General Store,Zia Colony Road,Sector 4,Sindh Industrial Trading Estate (SITE),Karachi,,Taj Medical & General Store Zia Colony Road Sector 4 Sindh Industrial Trading Estate (SITE) Karachi 
Zahoor Paint Sanitary & Hardware Store,Itehad Town-Navel Colony Road,Gulshan e Mazdoor Extension,Naval Colony,Karachi,,Zahoor Paint Sanitary & Hardware Store Itehad Town-Navel Colony Road Gulshan e Mazdoor Extension Naval Colony Karachi 
Wali Muhammad Khan Masala Merchant,DHA Link Road,Pakistan Railways Housing Society,Karachi Cantonment,Karachi,,Wali Muhammad Khan Masala Merchant DHA Link Road Pakistan Railways Housing Society Karachi Cantonment Karachi 
Waqar Shireen,Khawaja Gharib Nawaz Chowk,Sector 37 B,Landhi,Karachi,,Waqar Shireen Khawaja Gharib Nawaz Chowk Sector 37 B Landhi Karachi 
NS Hair Salon,Seher Lane No 8,Phase 7,DHA,Karachi,,NS Hair Salon Seher Lane No 8 Phase 7 DHA Karachi 
Sun Light Aluminium & Glassworks,Seher Lane No 7,Phase 7,DHA,Karachi,,Sun Light Aluminium & Glassworks Seher Lane No 7 Phase 7 DHA Karachi 
Aftab Water Pump Service,Faqir Colony Road,Block A,Baldia,Karachi,,Aftab Water Pump Service Faqir Colony Road Block A Baldia Karachi 
Kashif Estate Agency,Badar Commercial Street No 6,Phase 5,DHA,Karachi,,Kashif Estate Agency Badar Commercial Street No 6 Phase 5 DHA Karachi 
Mashallah Mutton Shop,Nazimabad 5 Road,Nazimabad No 5,Nazimabad,Karachi,,Mashallah Mutton Shop Nazimabad 5 Road Nazimabad No 5 Nazimabad Karachi 
Tawakkal Rent A Car,Babar Road,Nazimabad No 5,Nazimabad,Karachi,,Tawakkal Rent A Car Babar Road Nazimabad No 5 Nazimabad Karachi 
Umair Cloth,Khayaban e Iqbal,Block 8,Clifton,Karachi,,Umair Cloth Khayaban e Iqbal Block 8 Clifton Karachi 
Al Rehman Foods,Babar Road,Nazimabad No 5,Nazimabad,Karachi,,Al Rehman Foods Babar Road Nazimabad No 5 Nazimabad Karachi 
White Pearl Jewellers,Khayaban e Iqbal,Block 8,Clifton,Karachi,,White Pearl Jewellers Khayaban e Iqbal Block 8 Clifton Karachi 
Ar Comm,Bank Road,Block 5,Clifton,Karachi,,Ar Comm Bank Road Block 5 Clifton Karachi 
AR Stylish Tailor,Ghazi Abbas Street,Block 3,Gulshan e Iqbal,Karachi,,AR Stylish Tailor Ghazi Abbas Street Block 3 Gulshan e Iqbal Karachi 
New Makkah General Store,Murtaza Sodhar Road,Rajput Mohalla,Gulzar e Hijri Scheme 33,Karachi,,New Makkah General Store Murtaza Sodhar Road Rajput Mohalla Gulzar e Hijri Scheme 33 Karachi 
New Pakistan General Store,Murtaza Sodhar Road,Rajput Mohalla,Gulzar e Hijri Scheme 33,Karachi,,New Pakistan General Store Murtaza Sodhar Road Rajput Mohalla Gulzar e Hijri Scheme 33 Karachi 
Anwar Autos,Service Road,Shah Faisal Colony 2,Shah Faisal Town,Karachi,,Anwar Autos Service Road Shah Faisal Colony 2 Shah Faisal Town Karachi 
ITS Pizza Time,Moulana Yousuf Ludhianwi Shaheed Road,Metrovil 14 Block 1/1,Metrovil Colony,Karachi,,ITS Pizza Time Moulana Yousuf Ludhianwi Shaheed Road Metrovil 14 Block 1/1 Metrovil Colony Karachi 
Anmol Beauty Parlour,Indus Road,Ghaghar Phatak,Bin Qasim Town,Karachi,,Anmol Beauty Parlour Indus Road Ghaghar Phatak Bin Qasim Town Karachi 
Jasss Cloth,Tariq Road,Block 2,PECHS,Karachi,,Jasss Cloth Tariq Road Block 2 PECHS Karachi 
Daniyal Cloth,Tariq Road,Block 2,PECHS,Karachi,,Daniyal Cloth Tariq Road Block 2 PECHS Karachi 
Ahmed Naveed Traders,Tariq Road,Block 2,PECHS,Karachi,,Ahmed Naveed Traders Tariq Road Block 2 PECHS Karachi 
Ayub Silk Center,Tariq Road,Block 3,PECHS,Karachi,,Ayub Silk Center Tariq Road Block 3 PECHS Karachi 
One 2 Six Cloth,Nawab Shafiq Ahmed Road,Block 3 Delhi CHS,PECHS,Karachi,Sindh,One 2 Six Cloth Nawab Shafiq Ahmed Road Block 3 Delhi CHS PECHS Karachi Sindh
Splandet Choice Late Clot,Nawab Shafiq Ahmed Road,Block 3 Delhi CHS,PECHS,,Sindh,Splandet Choice Late Clot Nawab Shafiq Ahmed Road Block 3 Delhi CHS PECHS  Sindh
TB Garments,Dr Riazuddin Road,Block 2,PECHS,,Sindh,TB Garments Dr Riazuddin Road Block 2 PECHS  Sindh
Madina Lucky Kabab & BBQ Restaurant,Manghopir Road,Chittagong Colony,Pak Colony,,Sindh,Madina Lucky Kabab & BBQ Restaurant Manghopir Road Chittagong Colony Pak Colony  Sindh
Raees Steel & Cement,National Highway,Qaddafi Town,Quaidabad,,Sindh,Raees Steel & Cement National Highway Qaddafi Town Quaidabad  Sindh
Five Star Apartments,Afzal Street,Block 14,Gulistan e Jauhar,,Sindh,Five Star Apartments Afzal Street Block 14 Gulistan e Jauhar  Sindh
Dilawar Zaidi Designs,Khayaban e Shozab e Hamdani,Sector 34 B,Gulzar e Hijri Scheme 33,,Sindh,Dilawar Zaidi Designs Khayaban e Shozab e Hamdani Sector 34 B Gulzar e Hijri Scheme 33  Sindh
Engro Foods,Harbour City Driveway,Block 4,Clifton,,Sindh,Engro Foods Harbour City Driveway Block 4 Clifton  Sindh
Unicom,Shahrah e Faisal,Block 6,PECHS,,Sindh,Unicom Shahrah e Faisal Block 6 PECHS  Sindh
Al Qadir Shield Makers & Designer,35th Commercial Street,Phase 5,DHA,,Sindh,Al Qadir Shield Makers & Designer 35th Commercial Street Phase 5 DHA  Sindh
Farah's Clinic,Street No 8,Block 5,Clifton,,Sindh,Farah's Clinic Street No 8 Block 5 Clifton  Sindh
Twin Horse Pharmacy & Super Mart,3rd Commercial Lane,Phase 5,DHA,,Sindh,Twin Horse Pharmacy & Super Mart 3rd Commercial Lane Phase 5 DHA  Sindh
Ibrahim Opticals,Aligarh Road,Sector 6,Orangi,,Sindh,Ibrahim Opticals Aligarh Road Sector 6 Orangi  Sindh
Sitara Kashmir Pak. Goods Transport Co,Maulana Zafar Ahmad Ansari Road,Sector 11 G,North Karachi,,Sindh,Sitara Kashmir Pak. Goods Transport Co Maulana Zafar Ahmad Ansari Road Sector 11 G North Karachi  Sindh
New Look Cosmetics,Allah Rakha Road,Sector 44 A,Landhi,,Sindh,New Look Cosmetics Allah Rakha Road Sector 44 A Landhi  Sindh
Karachi Diaper House,Qabristan Road,Sector 44 A,Landhi,,Sindh,Karachi Diaper House Qabristan Road Sector 44 A Landhi  Sindh
Akram Ironworks,Abbasi Road,Phase 2,Gulshan e Hadeed,,Sindh,Akram Ironworks Abbasi Road Phase 2 Gulshan e Hadeed  Sindh
ATM Silk Bank,8th Commercial Lane,Phase 5,DHA,,Sindh,ATM Silk Bank 8th Commercial Lane Phase 5 DHA  Sindh
New Zaidi Sports Store,Shahrah E Vilayat Ali ,Block 14,Federal B Area (Gulberg),,Sindh,New Zaidi Sports Store Shahrah E Vilayat Ali  Block 14 Federal B Area (Gulberg)  Sindh
Abdul Rehman Autos,Riazuddin Ahmed Road,Block W,Nazimabad,,Sindh,Abdul Rehman Autos Riazuddin Ahmed Road Block W Nazimabad  Sindh
Sajid Electric Store,39th Street,Block 6,Liaquatabad,,Sindh,Sajid Electric Store 39th Street Block 6 Liaquatabad  Sindh
Karachi Pulao,Riazuddin Ahmed Road,Nazimabad No 5,Nazimabad,,Sindh,Karachi Pulao Riazuddin Ahmed Road Nazimabad No 5 Nazimabad  Sindh
Al Razzaq Estate,Khayaban e Nishat,Phase 6,DHA,,Sindh,Al Razzaq Estate Khayaban e Nishat Phase 6 DHA  Sindh
Lace Palace Gift Center,Nizamuddin Aulia Road,Block 3,KAECHS,,Sindh,Lace Palace Gift Center Nizamuddin Aulia Road Block 3 KAECHS  Sindh
Al Madina Bakers & Nimco,Muhammad Hassan Road,Block M,North Nazimabad,,Sindh,Al Madina Bakers & Nimco Muhammad Hassan Road Block M North Nazimabad  Sindh
New Mardan Chappal House,Rehri Road,Shahbaz Colony,Landhi,,Sindh,New Mardan Chappal House Rehri Road Shahbaz Colony Landhi  Sindh
Muhammad Imran Decorator & Aluminium,Korangi Road,Allahwala Town,Korangi,,Sindh,Muhammad Imran Decorator & Aluminium Korangi Road Allahwala Town Korangi  Sindh
786 Chicken Center,Shahrah e Usman,Sector 5 K,New Karachi,,Sindh,786 Chicken Center Shahrah e Usman Sector 5 K New Karachi  Sindh
Hajj & Umrah Service,Tariq Road,Block 2,PECHS,,Sindh,Hajj & Umrah Service Tariq Road Block 2 PECHS  Sindh
Hafta Bazar,UDMC Road,Sector 31 D,Korangi,,Sindh,Hafta Bazar UDMC Road Sector 31 D Korangi  Sindh
Qazi Traders Zari Wholesalers,Ghareeb Nawaz Road,Sector 33 D,Korangi,,Sindh,Qazi Traders Zari Wholesalers Ghareeb Nawaz Road Sector 33 D Korangi  Sindh
Western Union,Korangi Road,Phase 2,DHA,,Sindh,Western Union Korangi Road Phase 2 DHA  Sindh
Windsors Int'l Furnishers,Street No 1,Block 8,Gulistan e Jauhar,,Sindh,Windsors Int'l Furnishers Street No 1 Block 8 Gulistan e Jauhar  Sindh
Al Noor Woodworks,Moulana Yousuf Ludhianwi Shaheed Road,Post Office Society Sector 13 A,Gulzar e Hijri Scheme 33,,Sindh,Al Noor Woodworks Moulana Yousuf Ludhianwi Shaheed Road Post Office Society Sector 13 A Gulzar e Hijri Scheme 33  Sindh
Kamran Hair Salon,Shah Faisal Colony Road,Colony 4,Shah Faisal Town,,Sindh,Kamran Hair Salon Shah Faisal Colony Road Colony 4 Shah Faisal Town  Sindh
Raaz Chappal Store,KB Road,Bhitaiabad Block 9,Bhittaiabad,,Sindh,Raaz Chappal Store KB Road Bhitaiabad Block 9 Bhittaiabad  Sindh
Main Bazar,Shah Faisal Colony Road,Colony 4,Shah Faisal Town,,Sindh,Main Bazar Shah Faisal Colony Road Colony 4 Shah Faisal Town  Sindh
Zia Garments,Farooqia Road,Colony 4,Shah Faisal Town,,Sindh,Zia Garments Farooqia Road Colony 4 Shah Faisal Town  Sindh
Kancha Fashion,Tariq Road,Block 2,PECHS,,Sindh,Kancha Fashion Tariq Road Block 2 PECHS  Sindh
Crystal Cold Drink & General Store,Hussainbad Road,Block 3,Federal B Area (Gulberg),,Sindh,Crystal Cold Drink & General Store Hussainbad Road Block 3 Federal B Area (Gulberg)  Sindh
Adnan Autos,Gaddafi Road,Sector 6,Orangi,,Sindh,Adnan Autos Gaddafi Road Sector 6 Orangi  Sindh
Wednesday Weekly Bazar,Abbasi Road,Phase 2,Gulshan e Hadeed,,Sindh,Wednesday Weekly Bazar Abbasi Road Phase 2 Gulshan e Hadeed  Sindh
Al Makkah Superstore,Seher Lane No 4,Phase 7,DHA,,Sindh,Al Makkah Superstore Seher Lane No 4 Phase 7 DHA  Sindh
Prince Tailors,Main Commercial Road,Phase 2,Gulshan e Hadeed,,Sindh,Prince Tailors Main Commercial Road Phase 2 Gulshan e Hadeed  Sindh
New Zeeshani CNG & Faizan Autos Electrician,Shahrah e Inayat Ali,Block 9,Federal B Area (Gulberg),,Sindh,New Zeeshani CNG & Faizan Autos Electrician Shahrah e Inayat Ali Block 9 Federal B Area (Gulberg)  Sindh
Best Tailors,Qudsi Masjid Road,Sector 36 E,Landhi,,Sindh,Best Tailors Qudsi Masjid Road Sector 36 E Landhi  Sindh
Hussain Autos,Abbasi Road,Phase 2,Gulshan e Hadeed,,Sindh,Hussain Autos Abbasi Road Phase 2 Gulshan e Hadeed  Sindh
Zubair Autos,Shahrah e Shabbir Ahmed Usmani,Sector 43 B,Landhi,,Sindh,Zubair Autos Shahrah e Shabbir Ahmed Usmani Sector 43 B Landhi  Sindh
Ali Fridge Repairing Center,Bukhtawar Road,Phase 1,Gulshan e Hadeed,,Sindh,Ali Fridge Repairing Center Bukhtawar Road Phase 1 Gulshan e Hadeed  Sindh
City Garments,Qatar Hospital Road,Sector 14 A,Orangi,,Sindh,City Garments Qatar Hospital Road Sector 14 A Orangi  Sindh
Bismillah Woodworks,Allama Rasheed Turabi Road,Sector 16 A,Buffer Zone,,Sindh,Bismillah Woodworks Allama Rasheed Turabi Road Sector 16 A Buffer Zone  Sindh
Biryani House,Naeem Rizwi Shaheed Road,Cantt Bazaar Malir,Malir Cantonment,,Sindh,Biryani House Naeem Rizwi Shaheed Road Cantt Bazaar Malir Malir Cantonment  Sindh
Raees Steel & Cement Depot,Landhi Road,Sector 37 A,Landhi,,Sindh,Raees Steel & Cement Depot Landhi Road Sector 37 A Landhi  Sindh
Ifee Shoes,Adnan Khalil Street,Block 3,Gulshan e Iqbal,,Sindh,Ifee Shoes Adnan Khalil Street Block 3 Gulshan e Iqbal  Sindh
Bismillah Autos,Khokhrapar Dak'khana Road,Gharibabad,Malir,,Sindh,Bismillah Autos Khokhrapar Dak'khana Road Gharibabad Malir  Sindh
Wasim Chicken Center,Buffer Zone Link Road,Block 19,Federal B Area (Gulberg),,Sindh,Wasim Chicken Center Buffer Zone Link Road Block 19 Federal B Area (Gulberg)  Sindh
Aman & Sons Autos,Burhani Avenue,Block A Bangalore Town,Bangalore Town,,Sindh,Aman & Sons Autos Burhani Avenue Block A Bangalore Town Bangalore Town  Sindh
New Optical Arcade,Dr Sohail Haider Street,Block 19,Federal B Area (Gulberg),,Sindh,New Optical Arcade Dr Sohail Haider Street Block 19 Federal B Area (Gulberg)  Sindh
Amir Furniture,SM Taufiq Road,Block 4,Federal B Area (Gulberg),,Sindh,Amir Furniture SM Taufiq Road Block 4 Federal B Area (Gulberg)  Sindh
Cafe Habib Hotel,Shahrah e Pakistan,Block 13,Federal B Area (Gulberg),,Sindh,Cafe Habib Hotel Shahrah e Pakistan Block 13 Federal B Area (Gulberg)  Sindh
Madina Oil Depot,Samnabad Street,Block 18,Federal B Area (Gulberg),,Sindh,Madina Oil Depot Samnabad Street Block 18 Federal B Area (Gulberg)  Sindh
110 Autos,Ancholi Main Road,Block 18,Federal B Area (Gulberg),,Sindh,110 Autos Ancholi Main Road Block 18 Federal B Area (Gulberg)  Sindh
Shiraz Hussain Autos,Allama Rasheed Turabi Road,Sector 16 A,Buffer Zone,,Sindh,Shiraz Hussain Autos Allama Rasheed Turabi Road Sector 16 A Buffer Zone  Sindh
Bismillah Silencer Works,Peoples Chowrangi,Sector 16 A,Buffer Zone,,Sindh,Bismillah Silencer Works Peoples Chowrangi Sector 16 A Buffer Zone  Sindh
Quality Decorators,Ziauddin Abbasi Shaheed Road,Block 11,Federal B Area (Gulberg),,Sindh,Quality Decorators Ziauddin Abbasi Shaheed Road Block 11 Federal B Area (Gulberg)  Sindh
Shahid Autos,Khursheed Begum Road,Shadman No 2,Kala Board,,Sindh,Shahid Autos Khursheed Begum Road Shadman No 2 Kala Board  Sindh
Madina Computers,Liaquat Ali Khan Road,Block 10,Model Colony,,Sindh,Madina Computers Liaquat Ali Khan Road Block 10 Model Colony  Sindh
Aaqa Furniture Mart,Liaquat Market Road,H Area,Saudabad,,Sindh,Aaqa Furniture Mart Liaquat Market Road H Area Saudabad  Sindh
Qamar Autos,Muhammad Abdullah Naeemi Road,G Area Malir Colony,Kala Board,,Sindh,Qamar Autos Muhammad Abdullah Naeemi Road G Area Malir Colony Kala Board  Sindh
Data Autos,Muhammad Abdullah Naeemi Road,G Area Malir Colony,Kala Board,,Sindh,Data Autos Muhammad Abdullah Naeemi Road G Area Malir Colony Kala Board  Sindh
Sabri General Store,Muhammad Abdullah Naeemi Road,Saudabad S3,Saudabad,,Sindh,Sabri General Store Muhammad Abdullah Naeemi Road Saudabad S3 Saudabad  Sindh
Pizza World,Josh Malih Abadi Road,Block 4,Federal B Area (Gulberg),,Sindh,Pizza World Josh Malih Abadi Road Block 4 Federal B Area (Gulberg)  Sindh
Dawood Express Cargo Services,Syed M Burhan Uddin Road,Block E,North Nazimabad,,Sindh,Dawood Express Cargo Services Syed M Burhan Uddin Road Block E North Nazimabad  Sindh
Burhani Bakers,Syed M Burhan Uddin Road,Block E,North Nazimabad,,Sindh,Burhani Bakers Syed M Burhan Uddin Road Block E North Nazimabad  Sindh
Pakistan Pakwan,Tipu Sultan Road,Block H,North Nazimabad,,Sindh,Pakistan Pakwan Tipu Sultan Road Block H North Nazimabad  Sindh
Zinnia Beauty Salon,Zia Bhai Gali,Block D,North Nazimabad,,Sindh,Zinnia Beauty Salon Zia Bhai Gali Block D North Nazimabad  Sindh
M Superstore,Road No 1,Sector 15 A 2,Buffer Zone,,Sindh,M Superstore Road No 1 Sector 15 A 2 Buffer Zone  Sindh
AA Car Parlour & Sound Master,Zafa Street,Block 21,Federal B Area (Gulberg),,Sindh,AA Car Parlour & Sound Master Zafa Street Block 21 Federal B Area (Gulberg)  Sindh
Al Haider Paint House,Hassan Street,Block 16,Federal B Area (Gulberg),,Sindh,Al Haider Paint House Hassan Street Block 16 Federal B Area (Gulberg)  Sindh
Singer Plus,Ayan Street,Block 14,Federal B Area (Gulberg),,Sindh,Singer Plus Ayan Street Block 14 Federal B Area (Gulberg)  Sindh
Bismillah Chicken Center,Shahrah E Vilayat Ali ,Block 9,Federal B Area (Gulberg),,Sindh,Bismillah Chicken Center Shahrah E Vilayat Ali  Block 9 Federal B Area (Gulberg)  Sindh
Shani Autos & Service Center,Zafar Iqbal Shaheed Road,Block 9,Federal B Area (Gulberg),,Sindh,Shani Autos & Service Center Zafar Iqbal Shaheed Road Block 9 Federal B Area (Gulberg)  Sindh
Multi Comm,8th Street,Block 15,Federal B Area (Gulberg),,Sindh,Multi Comm 8th Street Block 15 Federal B Area (Gulberg)  Sindh
Prince Hair Style Salon,Shahrah E Vilayat Ali ,Block 9,Federal B Area (Gulberg),,Sindh,Prince Hair Style Salon Shahrah E Vilayat Ali  Block 9 Federal B Area (Gulberg)  Sindh
Syed General & Comm,Azizabad Main Road,Block 8,Federal B Area (Gulberg),,Sindh,Syed General & Comm Azizabad Main Road Block 8 Federal B Area (Gulberg)  Sindh
A R Aluminium,Shahrah e Rashid Shami Shaheed,Block 7,Federal B Area (Gulberg),,Sindh,A R Aluminium Shahrah e Rashid Shami Shaheed Block 7 Federal B Area (Gulberg)  Sindh
Al Farid Engineering Service Electrical Consultant,Landhi Road,Sector 35 E,Landhi,,Sindh,Al Farid Engineering Service Electrical Consultant Landhi Road Sector 35 E Landhi  Sindh
Sajid Electronics Center,Qabristan Road,Sector 44 A,Landhi,,Sindh,Sajid Electronics Center Qabristan Road Sector 44 A Landhi  Sindh
Hafiz Auto Parts,Qabristan Road,Hasrat Mohani Colony,Korangi,,Sindh,Hafiz Auto Parts Qabristan Road Hasrat Mohani Colony Korangi  Sindh
Fahim Autos,Hakeem Ibn e Sina Road,Nazimabad No 1,Nazimabad,,Sindh,Fahim Autos Hakeem Ibn e Sina Road Nazimabad No 1 Nazimabad  Sindh
Al Rafiq Terrace,Multi Chowk Street,Nazimabad No 2,Nazimabad,,Sindh,Al Rafiq Terrace Multi Chowk Street Nazimabad No 2 Nazimabad  Sindh
Delhi Al Siraj Nihari,Tabish Dehalvi Road,Nazimabad No 5,Nazimabad,,Sindh,Delhi Al Siraj Nihari Tabish Dehalvi Road Nazimabad No 5 Nazimabad  Sindh
New Stylish Hairdresser,Syed Abidi Road,Nazimabad No 5,Nazimabad,,Sindh,New Stylish Hairdresser Syed Abidi Road Nazimabad No 5 Nazimabad  Sindh
Lubna's Stationery,Syed Abidi Road,Nazimabad No 5,Nazimabad,,Sindh,Lubna's Stationery Syed Abidi Road Nazimabad No 5 Nazimabad  Sindh
Data Builders & Marketing,Syed Abidi Road,Nazimabad No 5,Nazimabad,,Sindh,Data Builders & Marketing Syed Abidi Road Nazimabad No 5 Nazimabad  Sindh
Sufyan Chicken Center,Rashid Minhas Road,Block 20,Gulistan e Jauhar,,Sindh,Sufyan Chicken Center Rashid Minhas Road Block 20 Gulistan e Jauhar  Sindh
Home Maker Furniture,Khayaban e Nishat,Phase 6,DHA,,Sindh,Home Maker Furniture Khayaban e Nishat Phase 6 DHA  Sindh
Jamia Qurania Madrassa,Allama Syed Ibn e Hassan Jarchwi Road,Block 5,Federal B Area (Gulberg),,Sindh,Jamia Qurania Madrassa Allama Syed Ibn e Hassan Jarchwi Road Block 5 Federal B Area (Gulberg)  Sindh
Fm Public School,Abdullah Street,Nazimabad No 3,Nazimabad,,Sindh,Fm Public School Abdullah Street Nazimabad No 3 Nazimabad  Sindh
Assistant District Office Education,Nawab Siddique Ali Khan Road,Nazimabad No 3,Nazimabad,,Sindh,Assistant District Office Education Nawab Siddique Ali Khan Road Nazimabad No 3 Nazimabad  Sindh
Masjid Madni,Main Landhi Industrial Area Road,Tauheedabad Colony,Landhi,,Sindh,Masjid Madni Main Landhi Industrial Area Road Tauheedabad Colony Landhi  Sindh
Nice Comm & Cold Center,53rd Street,Sector 15 A 4,Buffer Zone,,Sindh,Nice Comm & Cold Center 53rd Street Sector 15 A 4 Buffer Zone  Sindh
Fuji Film,Shahrah e Shershah Suri,Sector 15 A 3,Buffer Zone,,Sindh,Fuji Film Shahrah e Shershah Suri Sector 15 A 3 Buffer Zone  Sindh
Family Park,Jauhar Chowrangi Road,Block 16,Gulistan e Jauhar,,Sindh,Family Park Jauhar Chowrangi Road Block 16 Gulistan e Jauhar  Sindh
Sputnik,Tariq Road,Block 2,PECHS,,Sindh,Sputnik Tariq Road Block 2 PECHS  Sindh
Friend Broast & Burger,Jauhar Chowrangi Road,Block 16,Gulistan e Jauhar,,Sindh,Friend Broast & Burger Jauhar Chowrangi Road Block 16 Gulistan e Jauhar  Sindh
Topman Shoes,Jauhar Chowrangi Road,Block 18,Gulistan e Jauhar,,Sindh,Topman Shoes Jauhar Chowrangi Road Block 18 Gulistan e Jauhar  Sindh
Shamsi Karachi Center,Jauhar Road,Block 18,,Karachi,Sindh,Shamsi Karachi Center Jauhar Road Block 18  Karachi Sindh
Western Union,Commercial Street,Sabir SRE,,Karachi,Sindh,Western Union Commercial Street Sabir SRE  Karachi Sindh
Ram Fabrics,Tariq Road,Block 2,,Karachi,Sindh,Ram Fabrics Tariq Road Block 2  Karachi Sindh
Bismillah Autos Works,Khushal Road,Block 2,,Karachi,Sindh,Bismillah Autos Works Khushal Road Block 2  Karachi Sindh
Reliance Electronics,Kurta Gali,Block 2,,Karachi,Sindh,Reliance Electronics Kurta Gali Block 2  Karachi Sindh
Popular Estate,Haji Mushtaq Ali Khan Road,Block 6,,Karachi,Sindh,Popular Estate Haji Mushtaq Ali Khan Road Block 6  Karachi Sindh
Peach Heaven,46th Street,Block 6,,Karachi,Sindh,Peach Heaven 46th Street Block 6  Karachi Sindh
Revolution Network,Shaheed e Millat Road,Block 7/8 Jinnah Housing Society,,Karachi,Sindh,Revolution Network Shaheed e Millat Road Block 7/8 Jinnah Housing Society  Karachi Sindh
Al Madina Car AC Center,Burhani Road,Block 7/8 Jinnah Housing Society,,Karachi,Sindh,Al Madina Car AC Center Burhani Road Block 7/8 Jinnah Housing Society  Karachi Sindh
K Electric,Syedna Zainuddin Road,Block B Shabbirabad Society,,Karachi,Sindh,K Electric Syedna Zainuddin Road Block B Shabbirabad Society  Karachi Sindh
Bukhari Battery,Burhani Avenue,Block A Bangalore Town,,Karachi,Sindh,Bukhari Battery Burhani Avenue Block A Bangalore Town  Karachi Sindh
Art Scene Galleries,Stadium Lane No 1,Phase 5,,Karachi,Sindh,Art Scene Galleries Stadium Lane No 1 Phase 5  Karachi Sindh
Pakeeza Family Store,Stadium Lane No 4,Phase 5,,Karachi,Sindh,Pakeeza Family Store Stadium Lane No 4 Phase 5  Karachi Sindh
New Stitching In Design,Badar Commercial Street No 9,Phase 5,,Karachi,Sindh,New Stitching In Design Badar Commercial Street No 9 Phase 5  Karachi Sindh
Al Ghausia Chicken & Vegetable,Badar Commercial Street No 2,Phase 5,,Karachi,Sindh,Al Ghausia Chicken & Vegetable Badar Commercial Street No 2 Phase 5  Karachi Sindh
Property Link Network,Nisar Shaheed Road,Phase 4,,Karachi,Sindh,Property Link Network Nisar Shaheed Road Phase 4  Karachi Sindh
Mehak Studio,Adnan Khalil Street,Block 3,,Karachi,Sindh,Mehak Studio Adnan Khalil Street Block 3  Karachi Sindh
Tyre Puncture Shop,Korangi Road,Allahwala Town,,Karachi,Sindh,Tyre Puncture Shop Korangi Road Allahwala Town  Karachi Sindh
Dr Rehan & Associate,Parking Area,Block 9,,Karachi,Sindh,Dr Rehan & Associate Parking Area Block 9  Karachi Sindh
Fakhra's,Bank Road,Block 5,,Karachi,Sindh,Fakhra's Bank Road Block 5  Karachi Sindh
Feather 5,Khayaban e Iqbal,Block 8,,Karachi,Sindh,Feather 5 Khayaban e Iqbal Block 8  Karachi Sindh
Sahil Electronics,Bank Road,Block 5,,Karachi,Sindh,Sahil Electronics Bank Road Block 5  Karachi Sindh
Ahmed Raza Electric Sanitary & Hardware Store,Al-Amna Avenue,Sector 5 C 3,,Karachi,Sindh,Ahmed Raza Electric Sanitary & Hardware Store Al-Amna Avenue Sector 5 C 3  Karachi Sindh
Abid Furniture Wala,Shahrah e Maulana Shaukat Ali,Sector 11 D,,Karachi,Sindh,Abid Furniture Wala Shahrah e Maulana Shaukat Ali Sector 11 D  Karachi Sindh
Ahmed Dairy Farm,KB Road,Bhitaiabad Block 9,,Karachi,Sindh,Ahmed Dairy Farm KB Road Bhitaiabad Block 9  Karachi Sindh
Aiman Autos,Shah Faisal Avenue,Green Town,,Karachi,Sindh,Aiman Autos Shah Faisal Avenue Green Town  Karachi Sindh
Al Dawood General Store,Cantonment Graveyard Road,Block 19,,Karachi,Sindh,Al Dawood General Store Cantonment Graveyard Road Block 19  Karachi Sindh
Al Madina Biryani Center,Road No 5,Sector 5,,Karachi,Sindh,Al Madina Biryani Center Road No 5 Sector 5  Karachi Sindh
Al Mehran Tailors,University Road,Sector 38 A,,Karachi,Sindh,Al Mehran Tailors University Road Sector 38 A  Karachi Sindh
Al Samad Jewellers,Resham Gali Road,Shah Faisal Colony 1,,Karachi,Sindh,Al Samad Jewellers Resham Gali Road Shah Faisal Colony 1  Karachi Sindh
Allah Tawakkal Bakers,Aligarh Road,Sector 1 A,,Karachi,Sindh,Allah Tawakkal Bakers Aligarh Road Sector 1 A  Karachi Sindh
Allah Wala Jump & Brake Shoes Repairing,Naseer ul Haq Road,Sector 11 E,,Karachi,Sindh,Allah Wala Jump & Brake Shoes Repairing Naseer ul Haq Road Sector 11 E  Karachi Sindh
Aman Autos,Al-Amna Avenue,Sector 3,,Karachi,Sindh,Aman Autos Al-Amna Avenue Sector 3  Karachi Sindh
Ali Sanitary Store,Kiran Hospital Road,Sector 28,,Karachi,Sindh,Ali Sanitary Store Kiran Hospital Road Sector 28  Karachi Sindh
Anis Autos,Shahrah e Maulana Muhammad Ali Jauhar,Sector 5 J,,Karachi,Sindh,Anis Autos Shahrah e Maulana Muhammad Ali Jauhar Sector 5 J  Karachi Sindh
Anwari Electric & Hardware Store,Khayaban e Madinatul Uloom,Block 5,,Karachi,Sindh,Anwari Electric & Hardware Store Khayaban e Madinatul Uloom Block 5  Karachi Sindh
ATM UBL,Shahrah e Usman,Sector 11 E,,Karachi,Sindh,ATM UBL Shahrah e Usman Sector 11 E  Karachi Sindh
Autos Zone,University Road,Block 1,,Karachi,Sindh,Autos Zone University Road Block 1  Karachi Sindh
Awami Estate,Street Number 1,Shah Faisal Colony 1,,Karachi,Sindh,Awami Estate Street Number 1 Shah Faisal Colony 1  Karachi Sindh
Azlan Autos,Shahrah e Orangi,Sector 6,,Karachi,Sindh,Azlan Autos Shahrah e Orangi Sector 6  Karachi Sindh
Best Choice Hair Salon,Sir Shah Suleman Road,Block 13 D 3,,Karachi,Sindh,Best Choice Hair Salon Sir Shah Suleman Road Block 13 D 3  Karachi Sindh
Brothers Electric Store,Shahrah e Maulana Shaukat Ali,Sector 5 D,,Karachi,Sindh,Brothers Electric Store Shahrah e Maulana Shaukat Ali Sector 5 D  Karachi Sindh
Computers Way 2,Shahrah e Usman,Sector 11 K,,Karachi,Sindh,Computers Way 2 Shahrah e Usman Sector 11 K  Karachi Sindh
Darogha Cement Depot,Syed Altaf Ali Brelvi Road,Block 1,,Karachi,Sindh,Darogha Cement Depot Syed Altaf Ali Brelvi Road Block 1  Karachi Sindh
Faiz Electric Works,SM Taufiq Road,C Area,,Karachi,Sindh,Faiz Electric Works SM Taufiq Road C Area  Karachi Sindh
Farman Steel & Cement Depot,Sir Shah Suleman Road,Block 10,,Karachi,Sindh,Farman Steel & Cement Depot Sir Shah Suleman Road Block 10  Karachi Sindh
H & H Stylish Boutique & Tailors,Saqib Shaheed Road,Block 11,,Karachi,Sindh,H & H Stylish Boutique & Tailors Saqib Shaheed Road Block 11  Karachi Sindh
H S Electronics Store,Sehba Akhtar Road,Block 13 D 2,,Karachi,Sindh,H S Electronics Store Sehba Akhtar Road Block 13 D 2  Karachi Sindh
Haleem General Store,Al Waris Street,Sector 38 A,,Karachi,Sindh,Haleem General Store Al Waris Street Sector 38 A  Karachi Sindh
Hamid Optics,Sir Syed Ahmed Khan Flyover,Block 13 C,,Karachi,Sindh,Hamid Optics Sir Syed Ahmed Khan Flyover Block 13 C  Karachi Sindh
Ideal Comm,Al-Amna Avenue,Sector 11 A,,Karachi,Sindh,Ideal Comm Al-Amna Avenue Sector 11 A  Karachi Sindh
Masjid Anwar,Ghausia Masjid Road,C Area,,Karachi,Sindh,Masjid Anwar Ghausia Masjid Road C Area  Karachi Sindh
Masjid Islam,9 No Main Road,Block 10,,Karachi,Sindh,Masjid Islam 9 No Main Road Block 10  Karachi Sindh
Kazim Wholesale Chicken House,Gulfishan Masjid Road,Gulfishan Society,,Karachi,Sindh,Kazim Wholesale Chicken House Gulfishan Masjid Road Gulfishan Society  Karachi Sindh
LA Diva Beauty Salon,Akhtar Masood Road,Block M,,Karachi,Sindh,LA Diva Beauty Salon Akhtar Masood Road Block M  Karachi Sindh
M J Electronics,Aligarh Road,Sector 6,,Karachi,Sindh,M J Electronics Aligarh Road Sector 6  Karachi Sindh
Maaz Brothers Autos,Anda Mor Road,Sector 11 C 1,,Karachi,Sindh,Maaz Brothers Autos Anda Mor Road Sector 11 C 1  Karachi Sindh
Madina Gift Center,Tabish Dehalvi Road,Nazimabad No 5,,Karachi,Sindh,Madina Gift Center Tabish Dehalvi Road Nazimabad No 5  Karachi Sindh
Madrassa Hafsa Lilbanat,Abu Bakar Siddique Road,Shah Faisal Colony 1,,Karachi,Sindh,Madrassa Hafsa Lilbanat Abu Bakar Siddique Road Shah Faisal Colony 1  Karachi Sindh
Makkah Steelworks,Azeempura Road,Gulfishan Society,,Karachi,Sindh,Makkah Steelworks Azeempura Road Gulfishan Society  Karachi Sindh
Mashallah Electronics Center,Tauheed Colony Road,Block D,,Karachi,Sindh,Mashallah Electronics Center Tauheed Colony Road Block D  Karachi Sindh
Mashallah Medical & General Store,Street Number 27,Sector 5 M,,Karachi,Sindh,Mashallah Medical & General Store Street Number 27 Sector 5 M  Karachi Sindh
Modern Bin Ghazi Decoration Service,Anda Mor Road,Sector 11 C 3,,Karachi,Sindh,Modern Bin Ghazi Decoration Service Anda Mor Road Sector 11 C 3  Karachi Sindh
Nasir Autos,Anum Uzair Shaheed Road,Block 13 B,,Karachi,Sindh,Nasir Autos Anum Uzair Shaheed Road Block 13 B  Karachi Sindh
Nasir Estate,Shahrah e Usman,Sector 5 D,,Karachi,Sindh,Nasir Estate Shahrah e Usman Sector 5 D  Karachi Sindh
New Decent Electronics,SM Taufiq Road,Block 6,Liaquatabad,Karachi,Sindh,New Decent Electronics SM Taufiq Road Block 6 Liaquatabad Karachi Sindh
Noorani Parts Drill Machine,Korangi Shah Faisal Road,Sector 11,Landhi,Karachi,Sindh,Noorani Parts Drill Machine Korangi Shah Faisal Road Sector 11 Landhi Karachi Sindh
Property Reportor,Atif Khilji Road,,Nazimabad,Karachi,Sindh,Property Reportor Atif Khilji Road  Nazimabad Karachi Sindh
Raheel Comm,29th Street,,New Karachi,Karachi,Sindh,Raheel Comm 29th Street  New Karachi Karachi Sindh
Rang Barang Paint House,Jamia Millia Road,,Shah Faisal Town,Karachi,Sindh,Rang Barang Paint House Jamia Millia Road  Shah Faisal Town Karachi Sindh
SM Electronics,Talha Medical Road,,Metrovil Colony,Karachi,Sindh,SM Electronics Talha Medical Road  Metrovil Colony Karachi Sindh
Sa Generator,Shadman No 2 Road,,Shadman Town,Karachi,Sindh,Sa Generator Shadman No 2 Road  Shadman Town Karachi Sindh
Shahid Hardware 2,Green Town Asif Road,,Shah Faisal Town,Karachi,Sindh,Shahid Hardware 2 Green Town Asif Road  Shah Faisal Town Karachi Sindh
Shoaib General Store,Usman Ghani Street,,New Karachi,Karachi,Sindh,Shoaib General Store Usman Ghani Street  New Karachi Karachi Sindh
Siddiqui Boot House,Al-Amna Avenue,,New Karachi,Karachi,Sindh,Siddiqui Boot House Al-Amna Avenue  New Karachi Karachi Sindh
Sikandar Tailors,Qatar Hospital Road,,Orangi,Karachi,Sindh,Sikandar Tailors Qatar Hospital Road  Orangi Karachi Sindh
Sitara Sofa Art,Al Haider Society Road,,Shah Faisal Town,Karachi,Sindh,Sitara Sofa Art Al Haider Society Road  Shah Faisal Town Karachi Sindh
Tokyo Men Hair Salon,Kiran Hospital Road,,Gulzar e Hijri Scheme 33,Karachi,Sindh,Tokyo Men Hair Salon Kiran Hospital Road  Gulzar e Hijri Scheme 33 Karachi Sindh
Vip Autos,Shahrah e Faisal,,Shah Faisal Town,Karachi,Sindh,Vip Autos Shahrah e Faisal  Shah Faisal Town Karachi Sindh
Vip Cloth House,Ghosia Masjid Road,,Korangi Creek,Karachi,Sindh,Vip Cloth House Ghosia Masjid Road  Korangi Creek Karachi Sindh
Zeeshan Furniture,Sir Shah Suleman Road,,Liaquatabad,Karachi,Sindh,Zeeshan Furniture Sir Shah Suleman Road  Liaquatabad Karachi Sindh
AA Comm,Landhi 1,,Landhi,Karachi,Sindh,AA Comm Landhi 1  Landhi Karachi Sindh
Akhhz General Store,Shahrah Abul Fazal Siddiqui,,Nazimabad,Karachi,Sindh,Akhhz General Store Shahrah Abul Fazal Siddiqui  Nazimabad Karachi Sindh
Al Habib Comm,Landhi Industrial Area Road,,Landhi,Karachi,Sindh,Al Habib Comm Landhi Industrial Area Road  Landhi Karachi Sindh
Al Khan Power Generators Workshop,Bolan Avenue,,Gulshan e Maymar,Karachi,Sindh,Al Khan Power Generators Workshop Bolan Avenue  Gulshan e Maymar Karachi Sindh
Awan Marble & Granite Center,Muhammad Ali Road,,Gulshan e Maymar,Karachi,Sindh,Awan Marble & Granite Center Muhammad Ali Road  Gulshan e Maymar Karachi Sindh
Bhashani Food Center,Shahrah e Altaf,,Landhi,Karachi,Sindh,Bhashani Food Center Shahrah e Altaf  Landhi Karachi Sindh
Bismillah CNG Works,1st Street,,Gulshan e Maymar,Karachi,Sindh,Bismillah CNG Works 1st Street  Gulshan e Maymar Karachi Sindh
Bismillah Franck Electric Store,Talha Awan Road,,Sector 5,Karachi,Sindh,Bismillah Franck Electric Store Talha Awan Road  Sector 5 Karachi Sindh
Bismillah Electric Hardware Sanitary & Paint Store,Sherpao Road,,Landhi,Karachi,Sindh,Bismillah Electric Hardware Sanitary & Paint Store Sherpao Road  Landhi Karachi Sindh
Easypaisa,Landhi Industrial Area Road,,Landhi,Karachi,Sindh,Easypaisa Landhi Industrial Area Road  Landhi Karachi Sindh
Fazal Autos,Sherpao Road,,Landhi,Karachi,Sindh,Fazal Autos Sherpao Road  Landhi Karachi Sindh
Ibrahim Shah Marble Shop,IB Soomro Avenue,,Gulzar e Hijri Scheme 33,Karachi,Sindh,Ibrahim Shah Marble Shop IB Soomro Avenue  Gulzar e Hijri Scheme 33 Karachi Sindh
Karachi Rent A Car,Metrovil Road,,Sindh Industrial Trading Estate (SITE),Karachi,Sindh,Karachi Rent A Car Metrovil Road  Sindh Industrial Trading Estate (SITE) Karachi Sindh
Kashif Mehmood Awan Silencer Welding Works,Shahrah e Orangi,,North Nazimabad,Karachi,Sindh,Kashif Mehmood Awan Silencer Welding Works Shahrah e Orangi  North Nazimabad Karachi Sindh
Khan Photostat,Bahria Road,,Naval Colony,Karachi,Sindh,Khan Photostat Bahria Road  Naval Colony Karachi Sindh
Lpg Gas Shop,Faqir Colony Road,,Baldia,Karachi,Sindh,Lpg Gas Shop Faqir Colony Road  Baldia Karachi Sindh
Madni Trunk House,Quaidabad Railway Flyover,,Landhi,Karachi,Sindh,Madni Trunk House Quaidabad Railway Flyover  Landhi Karachi Sindh
Madrassa Faizan e Auliya,Street No 39,,Landhi,Karachi,Sindh,Madrassa Faizan e Auliya Street No 39  Landhi Karachi Sindh
Man O Salwa Ice Cream Parlour,Landhi Road,,Landhi,Karachi,Sindh,Man O Salwa Ice Cream Parlour Landhi Road  Landhi Karachi Sindh
Mardan Mobile Center,Mehran Highway,,Landhi,Karachi,Sindh,Mardan Mobile Center Mehran Highway  Landhi Karachi Sindh
Mashallah Jump Makers,Landhi Road,,Landhi,Karachi,Sindh,Mashallah Jump Makers Landhi Road  Landhi Karachi Sindh
Muhammad Noman Chakwal Chappal Maker,Mirza Adam Khan Road,,Lyari,Karachi,Sindh,Muhammad Noman Chakwal Chappal Maker Mirza Adam Khan Road  Lyari Karachi Sindh
Nazir Muhammad Comm,Rehri Road,,Landhi,Karachi,Sindh,Nazir Muhammad Comm Rehri Road  Landhi Karachi Sindh
Photostat & Stationery,Imam Ahmed Road,,PECHS,Karachi,Sindh,Photostat & Stationery Imam Ahmed Road  PECHS Karachi Sindh
Rajput Autos,Saeedabad Road,,Baldia,Karachi,Sindh,Rajput Autos Saeedabad Road  Baldia Karachi Sindh
Rasheed Autos,Qudsi Masjid Road,,Landhi,Karachi,Sindh,Rasheed Autos Qudsi Masjid Road  Landhi Karachi Sindh
Shuja Generators Parts,Punjab Road,,Manzoor Colony,Karachi,Sindh,Shuja Generators Parts Punjab Road  Manzoor Colony Karachi Sindh
Siddique Cloth House,2nd Street,,North Karachi,Karachi,Sindh,Siddique Cloth House 2nd Street  North Karachi Karachi Sindh
Super Star Hairdresser,Lal Board Area Road,,Landhi,Karachi,Sindh,Super Star Hairdresser Lal Board Area Road  Landhi Karachi Sindh
Suzuki Autos,Sufi Yousuf Shah Road,,Mohajir Camp,Karachi,Sindh,Suzuki Autos Sufi Yousuf Shah Road  Mohajir Camp Karachi Sindh
Wasim Autos,Korangi Shahfaisal Road,,Landhi,Karachi,Sindh,Wasim Autos Korangi Shahfaisal Road  Landhi Karachi Sindh
ZS Sanitary Hardware & Electric Store,Kachi Abadi Street,,Bath Island,Karachi,Sindh,ZS Sanitary Hardware & Electric Store Kachi Abadi Street  Bath Island Karachi Sindh
Zain Comm,2nd Lane,,Gulshan e Maymar,Karachi,Sindh,Zain Comm 2nd Lane  Gulshan e Maymar Karachi Sindh
ZH Autos,Shahrah e Maulana Shaukat Ali,,New Karachi,Karachi,Sindh,ZH Autos Shahrah e Maulana Shaukat Ali  New Karachi Karachi Sindh
A One English Secondary School,Street 1,,Sindh Industrial Trading Estate (SITE),Karachi,Sindh,A One English Secondary School Street 1  Sindh Industrial Trading Estate (SITE) Karachi Sindh
Abdullah Electric & Spare Parts,Street No 14,,Bhutta,Karachi,Sindh,Abdullah Electric & Spare Parts Street No 14  Bhutta Karachi Sindh
Ayub & Imran Cement Depot,Ittehad Town Naval Colony Road,,Naval Colony,Karachi,Sindh,Ayub & Imran Cement Depot Ittehad Town Naval Colony Road  Naval Colony Karachi Sindh
BBQ Night,Zia Colony Road,,Sindh Industrial Trading Estate (SITE),Karachi,Sindh,BBQ Night Zia Colony Road  Sindh Industrial Trading Estate (SITE) Karachi Sindh
Easypaisa,22nd Street,,Qayyumabad,Karachi,Sindh,Easypaisa 22nd Street  Qayyumabad Karachi Sindh
Jamia Ghausia Madrassa,Street Number 24,,Qayyumabad,Karachi,Sindh,Jamia Ghausia Madrassa Street Number 24  Qayyumabad Karachi Sindh
Naimat Fabricators Ironwork,Sir Shah Suleman Road,,Liaquatabad,Karachi,Sindh,Naimat Fabricators Ironwork Sir Shah Suleman Road  Liaquatabad Karachi Sindh
One Ten Mini Mart General Store,Sir Shah Suleman Road,,Liaquatabad,Karachi,Sindh,One Ten Mini Mart General Store Sir Shah Suleman Road  Liaquatabad Karachi Sindh
Shah Jahan Autos Corp,Qayyumabad Circular Avenue,,Qayyumabad,Karachi,Sindh,Shah Jahan Autos Corp Qayyumabad Circular Avenue  Qayyumabad Karachi Sindh
Wahid Poultry Farm & Sale Center,Amir Saeed Ahmed Shaheed Road,,Gulshan e Iqbal,Karachi,Sindh,Wahid Poultry Farm & Sale Center Amir Saeed Ahmed Shaheed Road  Gulshan e Iqbal Karachi Sindh
Zevar Palace,Khayaban e Iqbal,,Clifton,Karachi,Sindh,Zevar Palace Khayaban e Iqbal  Clifton Karachi Sindh
New China Sanitary Works,Gizri Road,,Gizri,Karachi,Sindh,New China Sanitary Works Gizri Road  Gizri Karachi Sindh
Edge Distributors,Seher Lane No 4,,DHA,Karachi,Sindh,Edge Distributors Seher Lane No 4  DHA Karachi Sindh
Sallu Brothers Compressor Works,Shahrah e Maulana Shaukat Ali,,New Karachi,Karachi,Sindh,Sallu Brothers Compressor Works Shahrah e Maulana Shaukat Ali  New Karachi Karachi Sindh
Al Rehman Dry Cleaner,Shahbaz Commercial Street No 1,,DHA,Karachi,Sindh,Al Rehman Dry Cleaner Shahbaz Commercial Street No 1  DHA Karachi Sindh
Asghar Lock Maker,Orangi Road,,Mujahidabad,Karachi,Sindh,Asghar Lock Maker Orangi Road  Mujahidabad Karachi Sindh
Fazal Electric Work,Dilawar Figar Road,,Nazimabad,Karachi,Sindh,Fazal Electric Work Dilawar Figar Road  Nazimabad Karachi Sindh
Top Shop Hairdresser,8th Street,,Liaquatabad,Karachi,Sindh,Top Shop Hairdresser 8th Street  Liaquatabad Karachi Sindh
Masjid Aqsa,University Road,,Gulshan e Iqbal,Karachi,Sindh,Masjid Aqsa University Road  Gulshan e Iqbal Karachi Sindh
Badar General Store,Dilawar Figar Road,,Nazimabad,Karachi,Sindh,Badar General Store Dilawar Figar Road  Nazimabad Karachi Sindh
Tariq Pakwan House,Babar Road,,Nazimabad,Karachi,Sindh,Tariq Pakwan House Babar Road  Nazimabad Karachi Sindh
Bismillah Battery & Ups,Tabish Dehalvi Road,,Nazimabad,Karachi,Sindh,Bismillah Battery & Ups Tabish Dehalvi Road  Nazimabad Karachi Sindh
Bismillah Autos,Hakeem Ibn e Sina Road,,Nazimabad,Karachi,Sindh,Bismillah Autos Hakeem Ibn e Sina Road  Nazimabad Karachi Sindh
Al Haram Dupatta Corner,Khayaban e Iqbal,,Clifton,Karachi,Sindh,Al Haram Dupatta Corner Khayaban e Iqbal  Clifton Karachi Sindh
Basement Car Parking Dolmen Mall,Abdul Sattar Edhi Road,,Clifton,Karachi,Sindh,Basement Car Parking Dolmen Mall Abdul Sattar Edhi Road  Clifton Karachi Sindh
Sohail Hardware Store,Riazuddin Ahmed Road,,Nazimabad,Karachi,Sindh,Sohail Hardware Store Riazuddin Ahmed Road  Nazimabad Karachi Sindh
Aj Comm,Quba Masjid Road,,Gulshan e Iqbal,Karachi,Sindh,Aj Comm Quba Masjid Road  Gulshan e Iqbal Karachi Sindh
Lucky Amir Sohail Hairdresser And Salon,Arshad Sabri Road,,Gulshan e Iqbal,Karachi,Sindh,Lucky Amir Sohail Hairdresser And Salon Arshad Sabri Road  Gulshan e Iqbal Karachi Sindh
Talha Electronics Repairs,Syed Altaf Ali Brelvi Road,,Nazimabad,Karachi,Sindh,Talha Electronics Repairs Syed Altaf Ali Brelvi Road  Nazimabad Karachi Sindh
Easypaisa,Murtaza Sodhar Road,,Gulzar e Hijri Scheme 33,Karachi,Sindh,Easypaisa Murtaza Sodhar Road  Gulzar e Hijri Scheme 33 Karachi Sindh
Ehsan Mobile Shop,New Karachi - University Road Link,,Gulzar e Hijri Scheme 33,Karachi,Sindh,Ehsan Mobile Shop New Karachi - University Road Link  Gulzar e Hijri Scheme 33 Karachi Sindh
Bismillah Electric Cool Service,Al Haider Society Road,,Shah Faisal Town,Karachi,Sindh,Bismillah Electric Cool Service Al Haider Society Road  Shah Faisal Town Karachi Sindh
Muhammad Hammad Autos,New Karachi - University Road Link,,Gulzar e Hijri Scheme 33,Karachi,Sindh,Muhammad Hammad Autos New Karachi - University Road Link  Gulzar e Hijri Scheme 33 Karachi Sindh
Bukhari Mobile Zone Comm,Arshad Sabri Road,,Gulshan e Iqbal,Karachi,Sindh,Bukhari Mobile Zone Comm Arshad Sabri Road  Gulshan e Iqbal Karachi Sindh
Ustad Ghulam Shabir Autos,National Highway,,Bin Qasim Town,Karachi,Sindh,Ustad Ghulam Shabir Autos National Highway  Bin Qasim Town Karachi Sindh
Easypaisa,National Highway,,Bin Qasim Town,Karachi,Sindh,Easypaisa National Highway  Bin Qasim Town Karachi Sindh
Naseeb Cloth,Tariq Road,,PECHS,Karachi,Sindh,Naseeb Cloth Tariq Road  PECHS Karachi Sindh
Fahad Cloth,Tariq Road,,PECHS,Karachi,Sindh,Fahad Cloth Tariq Road  PECHS Karachi Sindh
M Raheem Cloth House,Tariq Road,,PECHS,Karachi,Sindh,M Raheem Cloth House Tariq Road  PECHS Karachi Sindh
The Four Cloth,Abdul Rehman Road,,PECHS,Karachi,Sindh,The Four Cloth Abdul Rehman Road  PECHS Karachi Sindh
Rohan Jo Dora Fashion,Dr Riazuddin Road,,PECHS,Karachi,Sindh,Rohan Jo Dora Fashion Dr Riazuddin Road  PECHS Karachi Sindh
Fish Chick,Allama Qazi Road,,Sindhi Muslim CHS (SMCHS),Karachi,Sindh,Fish Chick Allama Qazi Road  Sindhi Muslim CHS (SMCHS) Karachi Sindh
Zia ur Rehman Marble,Manghopir Road,,Pak Colony,Karachi,Sindh,Zia ur Rehman Marble Manghopir Road  Pak Colony Karachi Sindh
Ishaq Sweets & Nimco,Manghopir Road,,Pak Colony,Karachi,Sindh,Ishaq Sweets & Nimco Manghopir Road  Pak Colony Karachi Sindh
Abdullah Aluminium,Bukhari Commercial Lane No 12,,DHA,Karachi,Sindh,Abdullah Aluminium Bukhari Commercial Lane No 12  DHA Karachi Sindh
Matrix Company,Shahrah e Firdousi,,Clifton,Karachi,Sindh,Matrix Company Shahrah e Firdousi  Clifton Karachi Sindh
Classic Wears,Tariq Road,,PECHS,Karachi,Sindh,Classic Wears Tariq Road  PECHS Karachi Sindh
Faiz Electric Works & Pak Engineering,Shahrah E Zahid Hussain Road,,North Karachi,Karachi,Sindh,Faiz Electric Works & Pak Engineering Shahrah E Zahid Hussain Road  North Karachi Karachi Sindh
Smart Collection,Tariq Road,,PECHS,Karachi,Sindh,Smart Collection Tariq Road  PECHS Karachi Sindh
Karim Carpets & Furnitures,Landhi Road,,Landhi,Karachi,Sindh,Karim Carpets & Furnitures Landhi Road  Landhi Karachi Sindh
Gileeto Restaurant,Jauhar Road,,Gulistan e Jauhar,Karachi,Sindh,Gileeto Restaurant Jauhar Road  Gulistan e Jauhar Karachi Sindh
Naimat E Shireen,Street No 2,,Gulistan e Jauhar,Karachi,Sindh,Naimat E Shireen Street No 2  Gulistan e Jauhar Karachi Sindh
Sain's Chai,Gulistan e Jauhar - Malir Cantt Road,Block 9 A,Bhittaiabad,Karachi,Sindh,Sain's Chai Gulistan e Jauhar - Malir Cantt Road Block 9 A Bhittaiabad Karachi Sindh
Kafe 33,Abdullah Terrace Road,Block 16,Gulistan e Jauhar,Karachi,Sindh,Kafe 33 Abdullah Terrace Road Block 16 Gulistan e Jauhar Karachi Sindh
R 1143,Abajee Street,Block 20,Federal B Area (Gulberg),Karachi,Sindh,R 1143 Abajee Street Block 20 Federal B Area (Gulberg) Karachi Sindh
R 15,Al Noor Street,Block 20,Federal B Area (Gulberg),Karachi,Sindh,R 15 Al Noor Street Block 20 Federal B Area (Gulberg) Karachi Sindh
R 327,Abajee Street,Block 20,Federal B Area (Gulberg),Karachi,Sindh,R 327 Abajee Street Block 20 Federal B Area (Gulberg) Karachi Sindh
A 575,M Asif Road,Block 12,Federal B Area (Gulberg),Karachi,Sindh,A 575 M Asif Road Block 12 Federal B Area (Gulberg) Karachi Sindh
A 841,Street No 1,Block 12,Federal B Area (Gulberg),Karachi,Sindh,A 841 Street No 1 Block 12 Federal B Area (Gulberg) Karachi Sindh
DT 34,Street No 7,Block 12,Federal B Area (Gulberg),Karachi,Sindh,DT 34 Street No 7 Block 12 Federal B Area (Gulberg) Karachi Sindh
A 1,Street No 1,Block 12,Federal B Area (Gulberg),Karachi,Sindh,A 1 Street No 1 Block 12 Federal B Area (Gulberg) Karachi Sindh
A 298,Street No 4,Block 12,Federal B Area (Gulberg),Karachi,Sindh,A 298 Street No 4 Block 12 Federal B Area (Gulberg) Karachi Sindh
A 827,Haider Hussain Road,Block 12,Federal B Area (Gulberg),Karachi,Sindh,A 827 Haider Hussain Road Block 12 Federal B Area (Gulberg) Karachi Sindh
A 580,M Asif Road,Block 12,Federal B Area (Gulberg),Karachi,Sindh,A 580 M Asif Road Block 12 Federal B Area (Gulberg) Karachi Sindh
B 6,Street No 1,Block 12,Federal B Area (Gulberg),Karachi,Sindh,B 6 Street No 1 Block 12 Federal B Area (Gulberg) Karachi Sindh
L 34,Street No 7,Block 12,Federal B Area (Gulberg),Karachi,Sindh,L 34 Street No 7 Block 12 Federal B Area (Gulberg) Karachi Sindh
ST 1B,Ziauddin Abbasi Shaheed Road,Block 11,Federal B Area (Gulberg),Karachi,Sindh,ST 1B Ziauddin Abbasi Shaheed Road Block 11 Federal B Area (Gulberg) Karachi Sindh
B 64,2nd Shadab Street,Block 11,Federal B Area (Gulberg),Karachi,Sindh,B 64 2nd Shadab Street Block 11 Federal B Area (Gulberg) Karachi Sindh
C 128,Allama Syed Ibn e Hassan Jarchwi Road,Block 6,Federal B Area (Gulberg),Karachi,Sindh,C 128 Allama Syed Ibn e Hassan Jarchwi Road Block 6 Federal B Area (Gulberg) Karachi Sindh
WS 21,Shahrah e Humayun,Block 1,Federal B Area (Gulberg),Karachi,Sindh,WS 21 Shahrah e Humayun Block 1 Federal B Area (Gulberg) Karachi Sindh
A 41,Shahrah e Humayun,Block 1,Federal B Area (Gulberg),Karachi,Sindh,A 41 Shahrah e Humayun Block 1 Federal B Area (Gulberg) Karachi Sindh
CA 92,Bath Hill Road,Block 7,Clifton,Karachi,Sindh,CA 92 Bath Hill Road Block 7 Clifton Karachi Sindh
F 3/13,Feroz Nana Road,Block 7,Clifton,Karachi,Sindh,F 3/13 Feroz Nana Road Block 7 Clifton Karachi Sindh
F 3/14,Feroz Nana Road,Block 7,Clifton,Karachi,Sindh,F 3/14 Feroz Nana Road Block 7 Clifton Karachi Sindh
D 85/1,Josh Malih Abadi Road,Block 5,Federal B Area (Gulberg),Karachi,Sindh,D 85/1 Josh Malih Abadi Road Block 5 Federal B Area (Gulberg) Karachi Sindh
11,Street 4,Block 21,Federal B Area (Gulberg),Karachi,Sindh,11 Street 4 Block 21 Federal B Area (Gulberg) Karachi Sindh
A 9/26C,Bukhari Road,Nazimabad No 5,Nazimabad,Karachi,Sindh,A 9/26C Bukhari Road Nazimabad No 5 Nazimabad Karachi Sindh
A 103,Hashmi Street,Block 16,Federal B Area (Gulberg),Karachi,Sindh,A 103 Hashmi Street Block 16 Federal B Area (Gulberg) Karachi Sindh
R 899,Tariq Street,Block 16,Federal B Area (Gulberg),Karachi,Sindh,R 899 Tariq Street Block 16 Federal B Area (Gulberg) Karachi Sindh
R 57,Ebad Street,Block 16,Federal B Area (Gulberg),Karachi,Sindh,R 57 Ebad Street Block 16 Federal B Area (Gulberg) Karachi Sindh
R 48,Obaid Road,Block 16,Federal B Area (Gulberg),Karachi,Sindh,R 48 Obaid Road Block 16 Federal B Area (Gulberg) Karachi Sindh
R 119,Noman Masjid Road,Block 16,Federal B Area (Gulberg),Karachi,Sindh,R 119 Noman Masjid Road Block 16 Federal B Area (Gulberg) Karachi Sindh
R 978,Saad Street,Block 16,Federal B Area (Gulberg),Karachi,Sindh,R 978 Saad Street Block 16 Federal B Area (Gulberg) Karachi Sindh
R 389,Hashmi Street,Block 16,Federal B Area (Gulberg),Karachi,Sindh,R 389 Hashmi Street Block 16 Federal B Area (Gulberg) Karachi Sindh
ST 18B,Service Road,Block 16,Federal B Area (Gulberg),Karachi,Sindh,ST 18B Service Road Block 16 Federal B Area (Gulberg) Karachi Sindh
F 17/1,Rojhan Street,Block 5,Clifton,Karachi,Sindh,F 17/1 Rojhan Street Block 5 Clifton Karachi Sindh
D 162,Rojhan Street,Block 5,Clifton,Karachi,Sindh,D 162 Rojhan Street Block 5 Clifton Karachi Sindh
F 8,Service Road,Block 5,Clifton,Karachi,Sindh,F 8 Service Road Block 5 Clifton Karachi Sindh
ST 32A,Rojhan Street,Block 5,Clifton,Karachi,Sindh,ST 32A Rojhan Street Block 5 Clifton Karachi Sindh
D 5,Street No 4,Block 9,Clifton,Karachi,Sindh,D 5 Street No 4 Block 9 Clifton Karachi Sindh
D 41,Gizri Road,Block 9,Clifton,Karachi,Sindh,D 41 Gizri Road Block 9 Clifton Karachi Sindh
F 11,J Street,Block 9,Clifton,Karachi,Sindh,F 11 J Street Block 9 Clifton Karachi Sindh
25,Sabzi Gali No 1,Block 8,Clifton,Karachi,Sindh,25 Sabzi Gali No 1 Block 8 Clifton Karachi Sindh
A 409,Khayaban e Noor,Block 1,Gulshan e Iqbal,Karachi,Sindh,A 409 Khayaban e Noor Block 1 Gulshan e Iqbal Karachi Sindh
A 101,Streeet 5,Block 1,Gulshan e Iqbal,Karachi,Sindh,A 101 Streeet 5 Block 1 Gulshan e Iqbal Karachi Sindh
A 527,Shahrah e Quba,Block 1,Gulshan e Iqbal,Karachi,Sindh,A 527 Shahrah e Quba Block 1 Gulshan e Iqbal Karachi Sindh
E 120,Jamal Agha Avenue,Block 7,Gulshan e Iqbal,Karachi,Sindh,E 120 Jamal Agha Avenue Block 7 Gulshan e Iqbal Karachi Sindh
B 5,Allama Shabbir Ahmed Usmani Road,Block 4,Gulshan e Iqbal,Karachi,Sindh,B 5 Allama Shabbir Ahmed Usmani Road Block 4 Gulshan e Iqbal Karachi Sindh
SB 11,Allama Shabbir Ahmed Usmani Road,Block 4,Gulshan e Iqbal,Karachi,Sindh,SB 11 Allama Shabbir Ahmed Usmani Road Block 4 Gulshan e Iqbal Karachi Sindh
B 21,Masjid Rabbani Road,Block 4,Gulshan e Iqbal,Karachi,Sindh,B 21 Masjid Rabbani Road Block 4 Gulshan e Iqbal Karachi Sindh
D 68,Naqash Kazmi Road,Block 4,Gulshan e Iqbal,Karachi,Sindh,D 68 Naqash Kazmi Road Block 4 Gulshan e Iqbal Karachi Sindh
D 21,Street 3,Block 4,Gulshan e Iqbal,Karachi,Sindh,D 21 Street 3 Block 4 Gulshan e Iqbal Karachi Sindh
D 89,Main Jamia Road,Block 4,Gulshan e Iqbal,Karachi,Sindh,D 89 Main Jamia Road Block 4 Gulshan e Iqbal Karachi Sindh
A 134,Khayaban e Katibin Muslim,Block 5,Gulshan e Iqbal,Karachi,Sindh,A 134 Khayaban e Katibin Muslim Block 5 Gulshan e Iqbal Karachi Sindh
A 181,Shahrah e Tariq Bin Ziyad,Block 5,Gulshan e Iqbal,Karachi,Sindh,A 181 Shahrah e Tariq Bin Ziyad Block 5 Gulshan e Iqbal Karachi Sindh
A 159,Shahrah e Tariq Bin Ziyad,Block 5,Gulshan e Iqbal,Karachi,Sindh,A 159 Shahrah e Tariq Bin Ziyad Block 5 Gulshan e Iqbal Karachi Sindh
A 84,Khayaban e Katibin Muslim,Block 5,Gulshan e Iqbal,Karachi,Sindh,A 84 Khayaban e Katibin Muslim Block 5 Gulshan e Iqbal Karachi Sindh
A 161,Shahrah e Tariq Bin Ziyad,Block 5,Gulshan e Iqbal,Karachi,Sindh,A 161 Shahrah e Tariq Bin Ziyad Block 5 Gulshan e Iqbal Karachi Sindh
A 105,Sardar Ali Sabri Road,Block 5,Gulshan e Iqbal,Karachi,Sindh,A 105 Sardar Ali Sabri Road Block 5 Gulshan e Iqbal Karachi Sindh
B 84,Khayaban e Hazrat Bilal Habshi,Block 5,Gulshan e Iqbal,Karachi,Sindh,B 84 Khayaban e Hazrat Bilal Habshi Block 5 Gulshan e Iqbal Karachi Sindh
A 511,Shahrah e Ramadi,Block 5,Gulshan e Iqbal,Karachi,Sindh,A 511 Shahrah e Ramadi Block 5 Gulshan e Iqbal Karachi Sindh
A 68,Khayaban e Tabook,Block 13 D,Gulshan e Iqbal,Karachi,Sindh,A 68 Khayaban e Tabook Block 13 D Gulshan e Iqbal Karachi Sindh
A 31,Khayaban e Tarmook,Block 13 D,Gulshan e Iqbal,Karachi,Sindh,A 31 Khayaban e Tarmook Block 13 D Gulshan e Iqbal Karachi Sindh
B 40,Khayaban e Qadsia,Block 13 D,Gulshan e Iqbal,Karachi,Sindh,B 40 Khayaban e Qadsia Block 13 D Gulshan e Iqbal Karachi Sindh
B 65,Khayaban e Hazrat Imam Hussain,Block 13 D,Gulshan e Iqbal,Karachi,Sindh,B 65 Khayaban e Hazrat Imam Hussain Block 13 D Gulshan e Iqbal Karachi Sindh
R 76,Umrao Tariq Road,Block 13 D 1,Gulshan e Iqbal,Karachi,Sindh,R 76 Umrao Tariq Road Block 13 D 1 Gulshan e Iqbal Karachi Sindh
A 41,Umrao Tariq Road,Block 13 D 1,Gulshan e Iqbal,Karachi,Sindh,A 41 Umrao Tariq Road Block 13 D 1 Gulshan e Iqbal Karachi Sindh
A 94,Umrao Tariq Road,Block 13 D 1,Gulshan e Iqbal,Karachi,Sindh,A 94 Umrao Tariq Road Block 13 D 1 Gulshan e Iqbal Karachi Sindh
A 74,Street 1,Block 19,Gulshan e Iqbal,Karachi,Sindh,A 74 Street 1 Block 19 Gulshan e Iqbal Karachi Sindh
A 105,Street 1,Block 19,Gulshan e Iqbal,Karachi,Sindh,A 105 Street 1 Block 19 Gulshan e Iqbal Karachi Sindh
A 318,Dalmia Cement Factory Road,Block 19,Gulshan e Iqbal,Karachi,Sindh,A 318 Dalmia Cement Factory Road Block 19 Gulshan e Iqbal Karachi Sindh
A 431,Dalmia Cement Factory Road,Block 19,Gulshan e Iqbal,Karachi,Sindh,A 431 Dalmia Cement Factory Road Block 19 Gulshan e Iqbal Karachi Sindh
B 85,Ahmed Pasha Road,Block 10,Gulshan e Iqbal,Karachi,Sindh,B 85 Ahmed Pasha Road Block 10 Gulshan e Iqbal Karachi Sindh
A 42,Arshad Sabri Road,Block 4 A,Gulshan e Iqbal,Karachi,Sindh,A 42 Arshad Sabri Road Block 4 A Gulshan e Iqbal Karachi Sindh
A 18,Arshad Sabri Road,Block 4 A,Gulshan e Iqbal,Karachi,Sindh,A 18 Arshad Sabri Road Block 4 A Gulshan e Iqbal Karachi Sindh
B 191,Arshad Sabir Road,Block 4 A,Gulshan e Iqbal,Karachi,Sindh,B 191 Arshad Sabir Road Block 4 A Gulshan e Iqbal Karachi Sindh
A 456,Minhaj Street,Block 7,KAECHS,Karachi,Sindh,A 456 Minhaj Street Block 7 KAECHS Karachi Sindh
C 71,Shahid Baig Street,Block 2,KAECHS,Karachi,Sindh,C 71 Shahid Baig Street Block 2 KAECHS Karachi Sindh
28 B,Shahrah e Faisal,Block B,Sindhi Muslim CHS (SMCHS),Karachi,Sindh,28 B Shahrah e Faisal Block B Sindhi Muslim CHS (SMCHS) Karachi Sindh
94 A,Dr Asghar Qadir Street,Block 2,PECHS,Karachi,Sindh,94 A Dr Asghar Qadir Street Block 2 PECHS Karachi Sindh
111 N,Khalid Bin Waleed Road,Block 2,PECHS,Karachi,Sindh,111 N Khalid Bin Waleed Road Block 2 PECHS Karachi Sindh
141 F,Dr Abdul Salam Road,Block 2,PECHS,Karachi,Sindh,141 F Dr Abdul Salam Road Block 2 PECHS Karachi Sindh
111 E,Khalid Bin Waleed Road,Block 2,PECHS,Karachi,Sindh,111 E Khalid Bin Waleed Road Block 2 PECHS Karachi Sindh
107 F,Khalid Bin Waleed Road,Block 2,PECHS,Karachi,Sindh,107 F Khalid Bin Waleed Road Block 2 PECHS Karachi Sindh
110 L,Muhammad Khan Street,Block 2,PECHS,Karachi,Sindh,110 L Muhammad Khan Street Block 2 PECHS Karachi Sindh
228 A,Shah Abdul Latif Road,Block 2,PECHS,Karachi,Sindh,228 A Shah Abdul Latif Road Block 2 PECHS Karachi Sindh
177 I,Siraj Road,Block 2,PECHS,Karachi,Sindh,177 I Siraj Road Block 2 PECHS Karachi Sindh
125 J,Khalid Bin Waleed Road,Block 2,PECHS,Karachi,Sindh,125 J Khalid Bin Waleed Road Block 2 PECHS Karachi Sindh
151 A,Khalid Bin Waleed Road,Block 2,PECHS,Karachi,Sindh,151 A Khalid Bin Waleed Road Block 2 PECHS Karachi Sindh
89 K,Khalid Bin Waleed Road,Block 2,PECHS,Karachi,Sindh,89 K Khalid Bin Waleed Road Block 2 PECHS Karachi Sindh
152 H,Sufi Street,Block 2,PECHS,Karachi,Sindh,152 H Sufi Street Block 2 PECHS Karachi Sindh
54 E,Maulana Abdul Rahim Road,Block 2,PECHS,Karachi,Sindh,54 E Maulana Abdul Rahim Road Block 2 PECHS Karachi Sindh
97 H,Shahrah e Quaideen Service Road,Block 2,PECHS,Karachi,Sindh,97 H Shahrah e Quaideen Service Road Block 2 PECHS Karachi Sindh
60 M,Lakhani Street,Block 2,PECHS,Karachi,Sindh,60 M Lakhani Street Block 2 PECHS Karachi Sindh
882 C,Kurta Gali,Block 2,PECHS,Karachi,Sindh,882 C Kurta Gali Block 2 PECHS Karachi Sindh
954 C,Noor Masjid Road,Block 2,PECHS,Karachi,Sindh,954 C Noor Masjid Road Block 2 PECHS Karachi Sindh
41 B,12th Back Street,Block 2,PECHS,Karachi,Sindh,41 B 12th Back Street Block 2 PECHS Karachi Sindh
215 F,Darul Aman Street 6,Block 2,PECHS,Karachi,Sindh,215 F Darul Aman Street 6 Block 2 PECHS Karachi Sindh
216 C,Darul Aman Street 6,Block 2,PECHS,Karachi,Sindh,216 C Darul Aman Street 6 Block 2 PECHS Karachi Sindh
118 S,Mehmood Ghaznavi Road,Block 2,PECHS,Karachi,Sindh,118 S Mehmood Ghaznavi Road Block 2 PECHS Karachi Sindh
136 A,Mehmood Ghaznavi Road,Block 2,PECHS,Karachi,Sindh,136 A Mehmood Ghaznavi Road Block 2 PECHS Karachi Sindh
134 A,Mehmood Ghaznavi Road,Block 2,PECHS,Karachi,Sindh,134 A Mehmood Ghaznavi Road Block 2 PECHS Karachi Sindh
44 A,Masjid Tayyaba Street,Block 2,PECHS,Karachi,Sindh,44 A Masjid Tayyaba Street Block 2 PECHS Karachi Sindh
307 C,Tariq Road,Block 2,PECHS,Karachi,Sindh,307 C Tariq Road Block 2 PECHS Karachi Sindh
155 O,Khushal Road,Block 2,PECHS,Karachi,Sindh,155 O Khushal Road Block 2 PECHS Karachi Sindh
9152 C,Siraj Road,Block 2,PECHS,Karachi,Sindh,9152 C Siraj Road Block 2 PECHS Karachi Sindh
68 F,Dr Hamid Hussain Farooqi Road,Block 2,PECHS,Karachi,Sindh,68 F Dr Hamid Hussain Farooqi Road Block 2 PECHS Karachi Sindh
158 Q,Tariq Road,Block 2,PECHS,Karachi,Sindh,158 Q Tariq Road Block 2 PECHS Karachi Sindh
41 K,12th Back Street,Block 2,PECHS,Karachi,Sindh,41 K 12th Back Street Block 2 PECHS Karachi Sindh
35 N,36th Street,Block 6,PECHS,Karachi,Sindh,35 N 36th Street Block 6 PECHS Karachi Sindh
92 A,Gali No 1,Block 6,PECHS,Karachi,Sindh,92 A Gali No 1 Block 6 PECHS Karachi Sindh
5:00 PM,Street 3,Block 6,PECHS,Karachi,Sindh,0.708333333333333 Street 3 Block 6 PECHS Karachi Sindh
11 E,Yasir Suleman Street,Block 6,PECHS,Karachi,Sindh,11 E Yasir Suleman Street Block 6 PECHS Karachi Sindh
4 K,Mubarak Road,Block 6,PECHS,Karachi,Sindh,4 K Mubarak Road Block 6 PECHS Karachi Sindh
88 C,Gali No 3,Block 6,PECHS,Karachi,Sindh,88 C Gali No 3 Block 6 PECHS Karachi Sindh
40 F,Gali No 6,Block 6,PECHS,Karachi,Sindh,40 F Gali No 6 Block 6 PECHS Karachi Sindh
43/10 G2,Safi Street,Block 6,PECHS,Karachi,Sindh,43/10 G2 Safi Street Block 6 PECHS Karachi Sindh
56 Z3,Dr Abdul Qadeer Khan Road,Block 6,PECHS,Karachi,Sindh,56 Z3 Dr Abdul Qadeer Khan Road Block 6 PECHS Karachi Sindh
196 E,Imam Ahmed Road,Block 6,PECHS,Karachi,Sindh,196 E Imam Ahmed Road Block 6 PECHS Karachi Sindh
179 E,Imam Ahmed Road,Block 6,PECHS,Karachi,Sindh,179 E Imam Ahmed Road Block 6 PECHS Karachi Sindh
46 E,Imam Ahmed Road,Block 6,PECHS,Karachi,Sindh,46 E Imam Ahmed Road Block 6 PECHS Karachi Sindh
58 P,Imam Ahmed Road,Block 6,PECHS,Karachi,Sindh,58 P Imam Ahmed Road Block 6 PECHS Karachi Sindh
63 C,Qudratullah Street,Block 6,PECHS,Karachi,Sindh,63 C Qudratullah Street Block 6 PECHS Karachi Sindh
66 W,Dr Abdul Qadeer Khan Road,Block 6,PECHS,Karachi,Sindh,66 W Dr Abdul Qadeer Khan Road Block 6 PECHS Karachi Sindh
B 143,Shahida Riaz Lane,Block 5,KAECHS,Karachi,Sindh,B 143 Shahida Riaz Lane Block 5 KAECHS Karachi Sindh
B 62,Madina Lane,Block 5,KAECHS,Karachi,Sindh,B 62 Madina Lane Block 5 KAECHS Karachi Sindh
160 A,Street No 8,Block A,Sindhi Muslim CHS (SMCHS),Karachi,Sindh,160 A Street No 8 Block A Sindhi Muslim CHS (SMCHS) Karachi Sindh
111 A,Service Road,Block A,Sindhi Muslim CHS (SMCHS),Karachi,Sindh,111 A Service Road Block A Sindhi Muslim CHS (SMCHS) Karachi Sindh
46 A,Street 2,Block A,Sindhi Muslim CHS (SMCHS),Karachi,Sindh,46 A Street 2 Block A Sindhi Muslim CHS (SMCHS) Karachi Sindh
14,34th A Street,Phase 5,DHA,Karachi,Sindh,14 34th A Street Phase 5 DHA Karachi Sindh
15,32nd A Street,Phase 5,DHA,Karachi,Sindh,15 32nd A Street Phase 5 DHA Karachi Sindh
19,28th Street,Phase 5,DHA,Karachi,Sindh,19 28th Street Phase 5 DHA Karachi Sindh
D 71,Lane 6,Block 2,Clifton,Karachi,Sindh,D 71 Lane 6 Block 2 Clifton Karachi Sindh
1-Jan,Service Road,Block 2,Clifton,Karachi,Sindh,44927 Service Road Block 2 Clifton Karachi Sindh
D 8/33C,4th S Street,Nazimabad No 3,Nazimabad,Karachi,Sindh,D 8/33C 4th S Street Nazimabad No 3 Nazimabad Karachi Sindh
8,4th S Street,Nazimabad No 3,Nazimabad,Karachi,Sindh,8 4th S Street Nazimabad No 3 Nazimabad Karachi Sindh
H 4/2C,Service Road,Nazimabad No 3,Nazimabad,Karachi,Sindh,H 4/2C Service Road Nazimabad No 3 Nazimabad Karachi Sindh
17,4th S Street,Nazimabad No 3,Nazimabad,Karachi,Sindh,17 4th S Street Nazimabad No 3 Nazimabad Karachi Sindh
G 10/5,4th S Street,Nazimabad No 3,Nazimabad,Karachi,Sindh,G 10/5 4th S Street Nazimabad No 3 Nazimabad Karachi Sindh
D 9/27C,4th S Street,Nazimabad No 3,Nazimabad,Karachi,Sindh,D 9/27C 4th S Street Nazimabad No 3 Nazimabad Karachi Sindh
C 3/3,Nazimabad Road No 3,Nazimabad No 3,Nazimabad,Karachi,Sindh,C 3/3 Nazimabad Road No 3 Nazimabad No 3 Nazimabad Karachi Sindh
D 21/13C,Fahad's Street,Nazimabad No 3,Nazimabad,Karachi,Sindh,D 21/13C Fahad's Street Nazimabad No 3 Nazimabad Karachi Sindh
E 154,Street 3,Block D,Gulshan e Jamal,Karachi,Sindh,E 154 Street 3 Block D Gulshan e Jamal Karachi Sindh
C 15,Street 5,Block D,Gulshan e Jamal,Karachi,Sindh,C 15 Street 5 Block D Gulshan e Jamal Karachi Sindh
F 9/5B,Khokhar Street,Nazimabad No 1,Nazimabad,Karachi,Sindh,F 9/5B Khokhar Street Nazimabad No 1 Nazimabad Karachi Sindh
D 3B,Old Nayab Cinema Road,Nazimabad No 1,Nazimabad,Karachi,Sindh,D 3B Old Nayab Cinema Road Nazimabad No 1 Nazimabad Karachi Sindh
B 1/8B,Saba Akbar Adadi Street,Nazimabad No 1,Nazimabad,Karachi,Sindh,B 1/8B Saba Akbar Adadi Street Nazimabad No 1 Nazimabad Karachi Sindh
31,Shahrah e Ghalib,Block 1,Clifton,Karachi,Sindh,31 Shahrah e Ghalib Block 1 Clifton Karachi Sindh
A 201,Khayaban e Imam Abu Hanifa,Block 2,Gulshan e Iqbal,Karachi,Sindh,A 201 Khayaban e Imam Abu Hanifa Block 2 Gulshan e Iqbal Karachi Sindh
A 54/1,Dr Nishat Malik Shaheed Road,Block 2,Gulshan e Iqbal,Karachi,Sindh,A 54/1 Dr Nishat Malik Shaheed Road Block 2 Gulshan e Iqbal Karachi Sindh
A 338,Khayaban e General Akhter Hussain,Block 2,Gulshan e Iqbal,Karachi,Sindh,A 338 Khayaban e General Akhter Hussain Block 2 Gulshan e Iqbal Karachi Sindh
A 272,Khayaban e Hazrat Salman Farsi,Block 2,Gulshan e Iqbal,Karachi,Sindh,A 272 Khayaban e Hazrat Salman Farsi Block 2 Gulshan e Iqbal Karachi Sindh
C 72,Ansari Saab Road,Block 9,Gulshan e Iqbal,Karachi,Sindh,C 72 Ansari Saab Road Block 9 Gulshan e Iqbal Karachi Sindh
C 101,Ansari Saab Road,Block 9,Gulshan e Iqbal,Karachi,Sindh,C 101 Ansari Saab Road Block 9 Gulshan e Iqbal Karachi Sindh
C 122,Haji Bashir Ahmed Ghaziabadi Road,Block 9,Gulshan e Iqbal,Karachi,Sindh,C 122 Haji Bashir Ahmed Ghaziabadi Road Block 9 Gulshan e Iqbal Karachi Sindh
C 80,Urdu Univ Street,Block 9,Gulshan e Iqbal,Karachi,Sindh,C 80 Urdu Univ Street Block 9 Gulshan e Iqbal Karachi Sindh
B 113,Civic Lawn Road,Block 15,Gulshan e Iqbal,Karachi,Sindh,B 113 Civic Lawn Road Block 15 Gulshan e Iqbal Karachi Sindh
B 107,Stadium Road,Block 18,Gulshan e Iqbal,Karachi,Sindh,B 107 Stadium Road Block 18 Gulshan e Iqbal Karachi Sindh
C 16,University Road,Block 16,Gulshan e Iqbal,Karachi,Sindh,C 16 University Road Block 16 Gulshan e Iqbal Karachi Sindh
B 5,Ansari Saab Road,Block 8,Gulshan e Iqbal,Karachi,Sindh,B 5 Ansari Saab Road Block 8 Gulshan e Iqbal Karachi Sindh
B 9,Ansari Saab Road,Block 8,Gulshan e Iqbal,Karachi,Sindh,B 9 Ansari Saab Road Block 8 Gulshan e Iqbal Karachi Sindh
B 79,Bait ul Mukarram Road,Block 8,Gulshan e Iqbal,Karachi,Sindh,B 79 Bait ul Mukarram Road Block 8 Gulshan e Iqbal Karachi Sindh
D 45,Ansari Saab Road,Block 8,Gulshan e Iqbal,Karachi,Sindh,D 45 Ansari Saab Road Block 8 Gulshan e Iqbal Karachi Sindh
C 51,Ansari Saab Road,Block 8,Gulshan e Iqbal,Karachi,Sindh,C 51 Ansari Saab Road Block 8 Gulshan e Iqbal Karachi Sindh
A 75,Adnan Khalil Street,Block 3,Gulshan e Iqbal,Karachi,Sindh,A 75 Adnan Khalil Street Block 3 Gulshan e Iqbal Karachi Sindh
B 90,12th Street,Block 3,Gulshan e Iqbal,Karachi,Sindh,B 90 12th Street Block 3 Gulshan e Iqbal Karachi Sindh
A 368,Imam Hassan Street,Block 3,Gulshan e Iqbal,Karachi,Sindh,A 368 Imam Hassan Street Block 3 Gulshan e Iqbal Karachi Sindh
A 280,12th Street,Block 3,Gulshan e Iqbal,Karachi,Sindh,A 280 12th Street Block 3 Gulshan e Iqbal Karachi Sindh
A 357,Imam Hassan Street,Block 3,Gulshan e Iqbal,Karachi,Sindh,A 357 Imam Hassan Street Block 3 Gulshan e Iqbal Karachi Sindh
A 607,Ghazi Abbas Street,Block 3,Gulshan e Iqbal,Karachi,Sindh,A 607 Ghazi Abbas Street Block 3 Gulshan e Iqbal Karachi Sindh
A 154,Khilji Street,Block 3,Gulshan e Iqbal,Karachi,Sindh,A 154 Khilji Street Block 3 Gulshan e Iqbal Karachi Sindh
A 115,Mustafa Street,Block 3,Gulshan e Iqbal,Karachi,Sindh,A 115 Mustafa Street Block 3 Gulshan e Iqbal Karachi Sindh
SB 12,Allama Shabbir Ahmed Usmani Road,Block 3,Gulshan e Iqbal,Karachi,Sindh,SB 12 Allama Shabbir Ahmed Usmani Road Block 3 Gulshan e Iqbal Karachi Sindh
A 270,Olympian Iftikhar Syed Road,Block 3,Gulshan e Iqbal,Karachi,Sindh,A 270 Olympian Iftikhar Syed Road Block 3 Gulshan e Iqbal Karachi Sindh
A 576,Ali Aghar Street,Block 3,Gulshan e Iqbal,Karachi,Sindh,A 576 Ali Aghar Street Block 3 Gulshan e Iqbal Karachi Sindh
R 109,Sehba Akhtar Road,Block 13 D 2,Gulshan e Iqbal,Karachi,Sindh,R 109 Sehba Akhtar Road Block 13 D 2 Gulshan e Iqbal Karachi Sindh
R 131,Sehba Akhtar Road,Block 13 D 2,Gulshan e Iqbal,Karachi,Sindh,R 131 Sehba Akhtar Road Block 13 D 2 Gulshan e Iqbal Karachi Sindh
A 49,5th Street S,Block N,North Nazimabad,Karachi,Sindh,A 49 5th Street S Block N North Nazimabad Karachi Sindh
A 145,8th Street S,Block N,North Nazimabad,Karachi,Sindh,A 145 8th Street S Block N North Nazimabad Karachi Sindh
B 287,3rd Street N,Block N,North Nazimabad,Karachi,Sindh,B 287 3rd Street N Block N North Nazimabad Karachi Sindh
B 37,2nd Street N,Block N,North Nazimabad,Karachi,Sindh,B 37 2nd Street N Block N North Nazimabad Karachi Sindh
D 41,1st Street,Block N,North Nazimabad,Karachi,Sindh,D 41 1st Street Block N North Nazimabad Karachi Sindh
A 92,6th Street S,Block N,North Nazimabad,Karachi,Sindh,A 92 6th Street S Block N North Nazimabad Karachi Sindh
A 560,7th Street N,Block N,North Nazimabad,Karachi,Sindh,A 560 7th Street N Block N North Nazimabad Karachi Sindh
A 293,12th Street S,Block N,North Nazimabad,Karachi,Sindh,A 293 12th Street S Block N North Nazimabad Karachi Sindh
B 344,6th Street S,Block N,North Nazimabad,Karachi,Sindh,B 344 6th Street S Block N North Nazimabad Karachi Sindh
B 228,Allama Rasheed Turabi Road,Block N,North Nazimabad,Karachi,Sindh,B 228 Allama Rasheed Turabi Road Block N North Nazimabad Karachi Sindh
D 34,1st Street,Block N,North Nazimabad,Karachi,Sindh,D 34 1st Street Block N North Nazimabad Karachi Sindh
A 376,12th Street N,Block N,North Nazimabad,Karachi,Sindh,A 376 12th Street N Block N North Nazimabad Karachi Sindh
A 365,13th Street S,Block N,North Nazimabad,Karachi,Sindh,A 365 13th Street S Block N North Nazimabad Karachi Sindh
F 93,AO Street,Block F,North Nazimabad,Karachi,Sindh,F 93 AO Street Block F North Nazimabad Karachi Sindh
D 52/1,Hazrat Ayesha Road,Block F,North Nazimabad,Karachi,Sindh,D 52/1 Hazrat Ayesha Road Block F North Nazimabad Karachi Sindh
D 22,Samiullah Road,Block F,North Nazimabad,Karachi,Sindh,D 22 Samiullah Road Block F North Nazimabad Karachi Sindh
D 24,Samiullah Road,Block F,North Nazimabad,Karachi,Sindh,D 24 Samiullah Road Block F North Nazimabad Karachi Sindh
169 A,Sir Syed Road,Block 3,PECHS,Karachi,Sindh,169 A Sir Syed Road Block 3 PECHS Karachi Sindh
164 L,165th Street,Block 3,PECHS,Karachi,Sindh,164 L 165th Street Block 3 PECHS Karachi Sindh
F 2,Obaid Arshad Khan Road,Block 13 A,Gulshan e Iqbal,Karachi,Sindh,F 2 Obaid Arshad Khan Road Block 13 A Gulshan e Iqbal Karachi Sindh
E 73,Makkah Street,Block B,North Nazimabad,Karachi,Sindh,E 73 Makkah Street Block B North Nazimabad Karachi Sindh
G 32/A4,Brig Atif Street,Block B,North Nazimabad,Karachi,Sindh,G 32/A4 Brig Atif Street Block B North Nazimabad Karachi Sindh
E 65,Lane No 10,Block B,North Nazimabad,Karachi,Sindh,E 65 Lane No 10 Block B North Nazimabad Karachi Sindh
G 35/5,Brig Atif Street,Block B,North Nazimabad,Karachi,Sindh,G 35/5 Brig Atif Street Block B North Nazimabad Karachi Sindh
R 1320,S Rashid Shami Shaheed Road,Block 3,Federal B Area (Gulberg),Karachi,Sindh,R 1320 S Rashid Shami Shaheed Road Block 3 Federal B Area (Gulberg) Karachi Sindh
R 1519,S Rashid Shami Shaheed Road,Block 3,Federal B Area (Gulberg),Karachi,Sindh,R 1519 S Rashid Shami Shaheed Road Block 3 Federal B Area (Gulberg) Karachi Sindh
R 1224,43rd Street,Block 3,Federal B Area (Gulberg),Karachi,Sindh,R 1224 43rd Street Block 3 Federal B Area (Gulberg) Karachi Sindh
